lat_centroid,lon_centroid,cluster_index,place_name,google_place_id,place_address,place_category,place_type,place_lat,place_lon,distance_to_centroid
40.00481714139265,116.32245624281668,0,金凤成祥,ChIJ____8p9W8DURmY8N2L-IA4E,"Qing Hua Da Xue Tu Shu Guan, Haidian Qu",restaurants,bakery,40.00490010000001,116.3236523,102.29013968114836
40.00481714139265,116.32245624281668,0,清华大学-体育场,ChIJSdf0g59W8DURSfA-nJt6yPQ,"284C+3W5, Haidian District",leisure,stadium,40.00514099999999,116.322348,37.17292121572452
40.00481714139265,116.32245624281668,0,清华大礼堂,ChIJ1VNKDKBW8DURGE5mC4ST8HA,"清华园1号（近清华学堂）, Haidian Qu, Beijing Shi",sport,gym,40.003288,116.324404,237.55907100003796
40.01073522895303,116.29686202190425,1,Yuanmingyuan Park,ChIJ09grWqdW8DURTB0kM62Vn_A,"Haidian District, Beijing",leisure,tourist_attraction,40.0080982,116.2982148,315.0476515729817
40.006750449712506,116.29680145768349,2,Lingdian Restaurant,ChIJG5UCprhW8DURHSVg8w9BmFc,"福缘门路, Haidian Qu",restaurants,restaurant,40.004419,116.301656,488.0290409036549
40.006750449712506,116.29680145768349,2,Yuanmingyuan Park,ChIJ09grWqdW8DURTB0kM62Vn_A,"Haidian District, Beijing",leisure,tourist_attraction,40.0080982,116.2982148,192.22212992038263
39.98016607559587,116.32399053821108,3,苏氏牛肉面,ChIJU5Th5lVR8DURGzfB3VMVAZY,"中关村双榆树, Haidian Qu, Beijing Shi",restaurants,restaurant,39.980906,116.323659,86.9903226006584
39.98016607559587,116.32399053821108,3,保福商场,ChIJn_zNJ1ZR8DURJXW7KKZuEXs,"科学院南路, Haidian Qu, Beijing Shi",leisure,shopping_mall,39.978488,116.324781,198.37729339755572
39.98016607559587,116.32399053821108,3,CSI-Bally Total Fitness,ChIJxaR6lf9T8DUR8HwwAbfhW9c,China,sport,gym,39.9835491,116.3264104,428.9733407171833
40.00434748957922,116.31211669279848,4,东北家常菜,ChIJtWEE_aJW8DUR2x6dAxb9oag,"中关村北大街, Haidian Qu, Beijing Shi",restaurants,restaurant,40.004172,116.3155,288.83332265862066
40.00434748957922,116.31211669279848,4,Yuanmingyuan Pitiable Stadium,ChIJETKTZb1W8DURrtIdc8vMv3Q,"2846+QFG, Haidian District",leisure,stadium,40.00693699999999,116.311197,298.4058093858554
40.00434748957922,116.31211669279848,4,Yingying Kaixuan Fitness Center,ChIJqSfmAqNW8DURNR4Vq32ZRII,"Zhong Guan Cun Bei Da Jie, Haidian Qu",sport,gym,40.0039465,116.3154433,286.8312549366653
39.99704773250174,116.32222466152446,5,北京清饮饮食公司,ChIJt_AfTKZW8DURr6tpCd4PgYQ,"清华大学校内停车场, Haidian Qu, Beijing Shi",restaurants,restaurant,39.996943,116.321627,52.22624826587701
39.99704773250174,116.32222466152446,5,Tsinghua University Old Age Activity Center,ChIJuyzOn6dW8DUR4wzlmftDJOA,"X8WF+VCX, Haidian District",leisure,museum,39.997242,116.323618,120.63978831717344
40.07866310706134,116.58822041479938,6,肯德基机场1店,ChIJS7B_veYF8TURTCkAuGLPGB0,"首都机场T1航站楼S302, Shunyi Qu, Beijing Shi",restaurants,restaurant,40.07906699999999,116.589563,122.74126526822964
40.07866310706134,116.58822041479938,6,I SPA,ChIJjYJ1t-MF8TUR4qZ1q73um3g,"首都国际机场, Chaoyang Qu",leisure,spa,40.075391,116.592135,493.2711000032168
39.99750894095778,116.27021723823653,7,水村居,ChIJU2Btg9JQ8DURSUOXjQZGfXo,"X7W8+XF3, Haidian District",restaurants,cafe,39.99738199999999,116.266181,344.1107729506627
39.99750894095778,116.27021723823653,7,Long Corridor,ChIJt9mwqtRQ8DURvdfRvRrKizQ,"X7XC+5P5, Haidian District",leisure,tourist_attraction,39.997877,116.271868,146.45197154770878
39.98956923962303,116.272298864017,8,藻鉴堂,ChIJk8MGzdtQ8DURos-Udd1oZUw,"X7PC+C97, Haidian District",leisure,tourist_attraction,39.986034,116.270907,410.597104659416
39.90928913761032,116.40516062754364,9,Daoxiangcun,ChIJGfvIxcdS8DURSJjbS7RvLwQ,"-1近, 105 Nan He Yan Da Jie, Dongcheng Qu",restaurants,bakery,39.909285,116.406557,119.1022862928738
39.90928913761032,116.40516062754364,9,Dongyuan Theatrical Stage,ChIJaTtfn8dS8DUR6wxueiMYtQI,"菖蒲河沿内, Nan Wan Zi Hu Tong, Dongcheng Qu",leisure,movie_theater,39.909297,116.4050218,11.873307073892692
39.90928913761032,116.40516062754364,9,北京饭店康乐中心,ChIJ0yG1sslS8DURzxdowq3E4PQ,"33 Dong Chang An Jie, Dong Dan, Dongcheng Qu",sport,gym,39.9083573,116.407687,239.102001479158
39.91402195126257,116.403157546516,10,Terrace Tea House,ChIJV3AAWcRS8DURXMI3CbiGrYA,"69 Dong Hua Men Da Jie, Dongcheng Qu",restaurants,cafe,39.91538800000001,116.403733,159.62980380910668
39.91402195126257,116.403157546516,10,华莱画廊,ChIJ75lGQ8RS8DURdGSQwuk_SAo,"东华门大街, Dongcheng Qu, Beijing Shi",leisure,museum,39.914903,116.403456,101.22105358385294
39.91402195126257,116.403157546516,10,武源合气武术健身俱乐部,ChIJKbmOwsBS8DUR51AncVCeRyM,"天安门东侧劳动人民文化宫三殿, Dongcheng Qu, Beijing Shi",sport,gym,39.91081399999999,116.400273,433.3215070781324
39.89824271687493,116.388151295743,11,Heping Wine House,ChIJuaNmmZtS8DUR3ms8Rqu2Be4,"Qian Men Xi He Yan Jie, Xicheng Qu",restaurants,bar,39.898831,116.38741,90.98355770781792
39.89824271687493,116.388151295743,11,Star Light Old Age Home,ChIJXW1kCJxS8DURiiHLuzzp3SE,"Yan Shou Jie, Xicheng Qu",leisure,casino,39.89737969999999,116.3891264,126.99805742922852
39.89824271687493,116.388151295743,11,North Xinhua Street East Community Jianshenyuan,ChIJCzfKU5pS8DURDnFakinLGCo,"Qian Men Xi Da Jie, Xicheng Qu",sport,gym,39.90052499999999,116.387463,260.48249573602544
39.9419102121144,116.37496500054138,12,水色盛开,ChIJ-7_GDA9T8DURvPIwIeZ8ApY,"4 Hou Hai Xi Yan, Xicheng Qu",restaurants,bar,39.94256,116.37432,90.7975222603717
39.9419102121144,116.37496500054138,12,北京音乐台97.4,ChIJlzbFkAdT8DURuWeVyW5q4z0,"大半截胡同, Xicheng Qu, Beijing Shi",leisure,movie_theater,39.942804,116.373225,178.55471093851514
39.9419102121144,116.37496500054138,12,圣玛田乒乓球俱乐部,ChIJU-1Y9KdT8DURwmzqdyFbMtU,"新街口北大街乙23号, Xicheng Qu, Beijing Shi",sport,gym,39.94072300000001,116.372681,235.25038891862584
39.938944946683804,116.38358510102452,13,老北京胡同菜,ChIJD2X1MBtT8DURl8VB5QpKna4,"什刹海柳荫街路口北段, Xicheng Qu, Beijing Shi",restaurants,restaurant,39.938564,116.384614,97.41260460050094
39.938944946683804,116.38358510102452,13,北京市西城区社区图书馆,ChIJFwNR1BpT8DURiI6WtyxNJpU,"柳荫街9号, Xicheng Qu, Beijing Shi",leisure,museum,39.939594,116.384194,88.90231931641515
39.938944946683804,116.38358510102452,13,Liuyin Street Jianshenyuan,ChIJ650GOhtT8DUR4KLBZ_jdybc,"Liu Yin Jie, Shi Cha Hai, Xicheng Qu",sport,gym,39.9384371,116.384904,125.82834118218024
39.93757315030032,116.38825309165168,14,Imperial Lake Cafe,ChIJ-XnD9BpT8DURlYFt3NHOpkk,"小翔凤胡同甲7号, Xiao Xiang Feng Hu Tong, Xicheng Qu",restaurants,cafe,39.93993479999999,116.3868036,290.2283993147895
39.93757315030032,116.38825309165168,14,Zhangbo Jupansu Former Residence Memorial Hall,ChIJZ7BRHxpT8DURaisJu4wu678,"26 Hou Hai Nan Yan, Shi Cha Hai, Xicheng Qu",leisure,museum,39.939339,116.389542,225.0118194315936
39.93757315030032,116.38825309165168,14,Liuyin Street Jianshenyuan,ChIJ650GOhtT8DUR4KLBZ_jdybc,"Liu Yin Jie, Shi Cha Hai, Xicheng Qu",sport,gym,39.9384371,116.384904,301.2631940610028
39.93242569902992,116.39017972298036,15,Mushroom,ChIJQ6EQJRxT8DURCnfYPVXgubc,"2 Qian Gan Hu Tong, Shi Cha Hai, Xicheng Qu",restaurants,bar,39.9341119,116.3892608,203.20936441814092
39.93242569902992,116.39017972298036,15,Beihai Park （North Gate 1）,ChIJRdGf-h5T8DURvme0rn0n_Cc,"Di An Men Xi Da Jie, Shi Cha Hai, Xicheng Qu",leisure,park,39.9332886,116.3914247,143.08975071754617
39.93242569902992,116.39017972298036,15,万年青健身器材,ChIJfWp1Ph1T8DURLSdpKwb-xaQ,"地安门西大街105号,齐鲁饭店以西50米路北, Xicheng Qu, Beijing Shi",sport,gym,39.933443,116.385355,426.644275337736
39.94446475666767,116.37551311342524,16,Chuansao Spicy Hot Pot,ChIJ47s-rAdT8DUR3mD3-toLhOU,"Xin Jie Kou Dong Jie, Xicheng Qu",restaurants,restaurant,39.942093,116.374827,270.13625158606334
39.94446475666767,116.37551311342524,16,JJ迪厅,ChIJf_8W2gdT8DUR77Z2loSmDVg,"新街口北大街, Xicheng Qu, Beijing Shi",leisure,night_club,39.94388000000001,116.374305,121.79962183043487
39.94446475666767,116.37551311342524,16,523球吧,ChIJ1yZv_wdT8DURaBVFuuh6c1M,"新街口4条南40米（近万特珠宝城）, Xicheng Qu, Beijing Shi",sport,gym,39.94453,116.372228,280.14847003751976
39.93210533957406,116.38491004896852,17,好望角,ChIJhw2a5h5T8DURN-PWNM9O4YM,北京西城区什刹海南沿甲1号,restaurants,bar,39.93217,116.38611,102.56611011922033
39.93210533957406,116.38491004896852,17,Beihai Botanical Park,ChIJxaTIneJS8DURuKBPOjSB0eA,"文津街1号, Jiao Chang Hu Tong, Xicheng Qu",leisure,park,39.931703,116.385894,95.07988952768636
39.93210533957406,116.38491004896852,17,万年青健身器材,ChIJfWp1Ph1T8DURLSdpKwb-xaQ,"地安门西大街105号,齐鲁饭店以西50米路北, Xicheng Qu, Beijing Shi",sport,gym,39.933443,116.385355,153.50336923589882
39.99849173350082,116.32169783552366,19,疯狂烤翅,ChIJqymDowRU8DURyzw99T5Jdaw,"清华大学西门北500米, Haidian Qu, Beijing Shi",restaurants,restaurant,39.998968,116.324664,258.1541203243772
39.99849173350082,116.32169783552366,19,Tsinghua University Old Age Activity Center,ChIJuyzOn6dW8DUR4wzlmftDJOA,"X8WF+VCX, Haidian District",leisure,museum,39.997242,116.323618,214.62690523743407
39.99492597797345,116.32092738442978,20,小蜜蜂恋歌房,ChIJBxdtOqlW8DURtiT4C2zGO0g,"成府路兰旗营161号, Haidian Qu, Beijing Shi",restaurants,bar,39.992599,116.319832,275.0604539481844
39.99492597797345,116.32092738442978,20,清华大学二附中体育场,ChIJR5FEwadW8DUReLL3b55dUgw,"X8WF+97F, Haidian District",leisure,stadium,39.99594,116.323165,221.4657993556129
39.90770947348501,116.4723294313922,21,COSTA金地中心店,ChIJabjM66yt8TURG81aulNYn9k,"建国路91号, 金地中心B座, Chaoyang Qu",restaurants,cafe,39.909253,116.474632,260.8241498203506
39.90770947348501,116.4723294313922,21,万达国际电影城,ChIJMyjzDaut8TURMcV8GA_50JM,"93 Jian Guo Lu, Da Wang Lu, Chaoyang Qu",leisure,movie_theater,39.90928,116.471502,188.3565577900928
39.90770947348501,116.4723294313922,21,WILL'S Fitness,ChIJzeEClKut8TURD6xZjTkd6zE,"WF5C+2GX, Jianwai Street, Chaoyang",sport,gym,39.907611,116.471352,84.08644641682677
39.9517112743745,116.8016428071561,22,Huiniangjia,ChIJmyrVTlJ18TUR7Ep--UmxgNg,"Xue Yuan Da Jie, Sanhe Shi, Langfang Shi",restaurants,restaurant,39.951987,116.800835,75.37501906999476
39.9517112743745,116.8016428071561,22,Xing'anyuan,ChIJaS4lw1F18TUReozSHN7tfQc,"Xue Yuan Da Jie, Sanhe Shi, Langfang Shi",leisure,museum,39.952035,116.804563,251.5076741282932
39.9517112743745,116.8016428071561,22,燕鑫时代健身俱乐部,ChIJWZzp-lR18TURkXPIqay19-0,"WQXX+3JQ, Sanhe, Langfang",sport,gym,39.947705,116.799097,495.5250373842593
39.94699079224053,116.78315726436225,23,韩氏蛋糕,ChIJn3zgOwig8TURX81eFanxyyA,燕郊海洋局北门西侧,restaurants,bakery,39.94791,116.78307,102.48172828338978
39.94699079224053,116.78315726436225,23,Meilianfu Living Supermarket,ChIJi7XkiAeg8TURGY6gFuJW0Mk,"Xing Gong Xi Da Jie, Sanhe Shi, Langfang Shi",leisure,shopping_mall,39.94762,116.787055,339.5529572026348
39.8630795632069,116.45665460072412,24,旮旯里的小茶馆,ChIJpYN6KY-y8TURKNhm8nCvIQ8,"吕营大街程田家园古玩市场, Chaoyang Qu, Beijing Shi",restaurants,cafe,39.863497,116.460283,313.1455840026802
39.8630795632069,116.45665460072412,24,大家美术馆,ChIJ60Mu1Y6y8TUR3tvkcVHiP-w,"千鹤年华画家城, Chaoyang Qu, Beijing Shi",leisure,museum,39.863105,116.460667,342.47365390146234
39.8630795632069,116.45665460072412,24,Chengtian Antique Cheng Art Gallery Club,ChIJLyQ7I4-y8TURcVIxV3q1auw,"十八里店, Lv Ying Da Jie, Chaoyang Qu",sport,gym,39.8641614,116.4598187,295.6374412759041
39.86380393803351,116.45427891644395,25,重庆小吃,ChIJY_XtJZCy8TUR9tsDUaEjpuE,"东三环南路, Chaoyang Qu, Beijing Shi",restaurants,cafe,39.86540600000001,116.454353,178.25359291153663
39.86380393803351,116.45427891644395,25,烟酒百货,ChIJAX0jYoWy8TUR2K9Czas0HN0,"左安路, Chaoyang Qu, Beijing Shi",leisure,shopping_mall,39.867009,116.454505,356.90911523844227
39.86380393803351,116.45427891644395,25,Chengtian Antique Cheng Art Gallery Club,ChIJLyQ7I4-y8TURcVIxV3q1auw,"十八里店, Lv Ying Da Jie, Chaoyang Qu",sport,gym,39.8641614,116.4598187,474.48727871466247
39.94560713967815,116.7949152377072,26,Zhuxiangge Tea House,ChIJJTNX1KoK8TURGZsqxvchrRI,"Xing Gong Xi Da Jie, Sanhe Shi, Langfang Shi",restaurants,cafe,39.9477475,116.7965716,276.73124376703913
39.94560713967815,116.7949152377072,26,云画廊,ChIJM6vw3KoK8TURE_aAS4tCZ_0,"行宫西大街, Sanhe Shi, Langfang Shi",leisure,museum,39.947621,116.795543,230.2370350287337
39.94560713967815,116.7949152377072,26,燕鑫时代健身俱乐部,ChIJWZzp-lR18TURkXPIqay19-0,"WQXX+3JQ, Sanhe, Langfang",sport,gym,39.947705,116.799097,426.02262140735775
39.90677455506822,116.41504374512672,27,金凤成祥,ChIJmYb7Y8pS8DURJJrc0yixgC0,"大华路口西（近黄庄）, Dongcheng Qu, Beijing Shi",restaurants,bakery,39.906154,116.416102,113.61911391416136
39.90677455506822,116.41504374512672,27,Dongdan Sports Center Tennis Hall,ChIJPXmT98pS8DUREtIn06xEGng,"108 Chong Wen Men Nei Da Jie, Dongcheng Qu",leisure,stadium,39.906766,116.416687,140.16722345958968
39.90677455506822,116.41504374512672,27,东方君悦大酒店绿洲健身房,ChIJ-7gW7stS8DURRpW2-u2sUB8,"东方广场, 1 Dong Chang An Jie, Dongcheng Qu, Beijing Shi",sport,gym,39.909805,116.414513,339.99782204848606
39.90253871167928,116.40972260503848,28,Laoxiang Midnight Bar,ChIJ0fm2VbdS8DURcFQO4KDuQ-Y,"东交民巷甲23号东交民巷饭店, Dong Jiao Min Xiang, Dongcheng Qu",restaurants,bar,39.902743,116.407738,170.80743609757056
39.90253871167928,116.40972260503848,28,首都大酒店游泳馆,ChIJ70W_yrBS8DUR1nsRRKXdWUs,"前门东大街3号首都大酒店, Dongcheng Qu, Beijing Shi",leisure,stadium,39.901803,116.409006,102.12301054434636
39.90253871167928,116.40972260503848,28,健身场,ChIJY8gHFLFS8DURlLnhIi7pT7c,"前门东大街,与正义路路口以西50米路南, Dongcheng Qu, Beijing Shi",sport,gym,39.90007499999999,116.411684,321.00448585964665
39.90164268819777,116.40795466019846,29,Laoxiang Midnight Bar,ChIJ0fm2VbdS8DURcFQO4KDuQ-Y,"东交民巷甲23号东交民巷饭店, Dong Jiao Min Xiang, Dongcheng Qu",restaurants,bar,39.902743,116.407738,123.7372695874047
39.90164268819777,116.40795466019846,29,首都大酒店游泳馆,ChIJ70W_yrBS8DUR1nsRRKXdWUs,"前门东大街3号首都大酒店, Dongcheng Qu, Beijing Shi",leisure,stadium,39.901803,116.409006,91.4367183726966
39.90164268819777,116.40795466019846,29,健身场,ChIJY8gHFLFS8DURlLnhIi7pT7c,"前门东大街,与正义路路口以西50米路南, Dongcheng Qu, Beijing Shi",sport,gym,39.90007499999999,116.411684,362.75636721796207
39.94113149114521,116.3471065697308,30,金柜,ChIJZ9zV0cpT8DURy_jQVMZ0NH8,"西直门外大街135号展览馆宾馆8楼, Xicheng Qu, Beijing Shi",restaurants,bar,39.9419,116.346338,107.68348003511352
39.94113149114521,116.3471065697308,30,金柜,ChIJZ9zV0cpT8DURy_jQVMZ0NH8,"西直门外大街135号展览馆宾馆8楼, Xicheng Qu, Beijing Shi",leisure,night_club,39.9419,116.346338,107.68348003511352
39.94113149114521,116.3471065697308,30,Tera Wellness Club,ChIJ62wJ7LRT8DURWbTtpb2ycQQ,"1 Xi Zhi Men Wai Da Jie, Xicheng Qu",sport,gym,39.941017,116.3527942,485.05941126809614
39.99496087429271,116.31830096557756,31,银梦西餐酒吧,ChIJG3yxhqVW8DURAOAkyT724D8,"X8W8+QH5, Haidian District",restaurants,bar,39.996877,116.316481,263.49933150226224
39.99496087429271,116.31830096557756,31,小蜜蜂恋歌房,ChIJBxdtOqlW8DURtiT4C2zGO0g,"成府路兰旗营161号, Haidian Qu, Beijing Shi",leisure,night_club,39.992599,116.319832,293.2316908339126
39.94839091055503,116.7987063221134,32,Zhuxiangge Tea House,ChIJJTNX1KoK8TURGZsqxvchrRI,"Xing Gong Xi Da Jie, Sanhe Shi, Langfang Shi",restaurants,cafe,39.9477475,116.7965716,195.5334496478478
39.94839091055503,116.7987063221134,32,Lieyan Entertainment Town,ChIJlXpU2FR18TURvhv8i_UJiAw,"Xing Gong Xi Da Jie, Sanhe Shi, Langfang Shi",leisure,night_club,39.94778830000001,116.7976796,110.22822987273392
39.94839091055503,116.7987063221134,32,燕鑫时代健身俱乐部,ChIJWZzp-lR18TURkXPIqay19-0,"WQXX+3JQ, Sanhe, Langfang",sport,gym,39.947705,116.799097,83.22386046243844
39.9391765637945,116.31595886649394,33,军乐食府,ChIJDWi8DIVR8DURnbgN5Nx9IKE,"Zizhu Bridge, Haidian District",restaurants,restaurant,39.938889,116.316667,68.31786964928142
39.9391765637945,116.31595886649394,33,金紫竹文化苑有限公司,ChIJtQ0liYVR8DURFGKS2poDBNM,"紫竹院路, Haidian Qu, Beijing Shi",leisure,night_club,39.939279,116.317047,93.46670902831517
39.9391765637945,116.31595886649394,33,Hosa Fitness,ChIJNxYS-o9R8DUR8XgyTcmG28g,"豪柏大厦, 50 Xi San Huan Bei Lu, Zi Zhu Qiao, Haidian Qu",sport,gym,39.9393968,116.3135094,210.26286699936148
39.93954886928156,116.31052858165044,34,一日千里歌城,ChIJ61vXepBR8DURjQM5KbGAZ-4,"昌运宫3号楼, Haidian Qu, Beijing Shi",restaurants,bar,39.939991,116.310757,52.87920628520948
39.93954886928156,116.31052858165044,34,一日千里歌城,ChIJ61vXepBR8DURjQM5KbGAZ-4,"昌运宫3号楼, Haidian Qu, Beijing Shi",leisure,night_club,39.939991,116.310757,52.87920628520948
39.93954886928156,116.31052858165044,34,Hosa Fitness,ChIJNxYS-o9R8DUR8XgyTcmG28g,"豪柏大厦, 50 Xi San Huan Bei Lu, Zi Zhu Qiao, Haidian Qu",sport,gym,39.9393968,116.3135094,254.6940885131565
39.93671581409328,116.32283218198408,35,星巴克,ChIJvV5tiCdS8DURk7ExqOqypF8,首体南路9号主语国际4号楼1楼东南角(地铁白石桥南站A口出20米即是),restaurants,cafe,39.9353179,116.3250407,244.16859881434323
39.93671581409328,116.32283218198408,35,紫竹院公园南门,ChIJQwf8r4dR8DURPlCDP4x9xzo,"紫竹院路, Haidian Qu, Beijing Shi",leisure,park,39.939522,116.322765,312.08664254276044
39.93671581409328,116.32283218198408,35,新世纪饭店健身中心,ChIJQbVNvidS8DURhq6xd7bBtbA,"2 Shou Du Ti Yu Guan Nan Lu, Haidian Qu",sport,gym,39.9353433,116.3265245,349.8508980567488
39.95088966155695,116.3286771550051,36,大鸭梨烤鸭店,ChIJsQF60nhR8DUR1reMXW9PaaI,"大慧寺路乙18号, Haidian Qu",restaurants,restaurant,39.9505349,116.3259761,233.59773866035204
39.95088966155695,116.3286771550051,36,气象学院体育场,ChIJDz5CotZT8DURKxWr5t29AqE,"X82H+8Q5, Haidian District",leisure,stadium,39.950766,116.32947,68.96810626869306
39.95088966155695,116.3286771550051,36,Siji Sunny Leisure Fitness Club,ChIJZcq55NBT8DURll4OFdDqjYQ,"19 Da Hui Si Lu, Bei Xia Guan, Haidian Qu",sport,gym,39.95229399999999,116.332883,391.0415276917544
40.00526817890027,116.30339001609713,37,Fuyuanmen,ChIJ3xYX7rhW8DURUokyLhIbouQ,"2833+575, Haidian District",restaurants,restaurant,40.00288299999999,116.303248,265.49586968939
40.00526817890027,116.30339001609713,37,石舫遗迹,ChIJbVIp2L1W8DURYya5Cl982vE,"2844+MX2, Haidian District",leisure,tourist_attraction,40.006635,116.30739,373.0536727158189
40.01150137893404,116.3015951252044,38,Yuanmingyuan Park,ChIJ09grWqdW8DURTB0kM62Vn_A,"Haidian District, Beijing",leisure,tourist_attraction,40.0080982,116.2982148,475.4822613499717
39.92250919048968,116.36013396375374,39,金百万烤鸭店西城店,ChIJ3bKvYFtS8DURDOs85qX9khI,"阜内大街290号, Xicheng Qu, Beijing Shi",restaurants,restaurant,39.923578,116.361879,190.4440701946766
39.92250919048968,116.36013396375374,39,Songshuang Department Store,ChIJrzw6ZFtS8DUR7JOiuc1eidM,"阜成门内大街甲284, Fu Cheng Men Nei Da Jie, Xicheng Qu",leisure,shopping_mall,39.9235829,116.3623361,222.52945071525795
39.92250919048968,116.36013396375374,39,福浽境街文化健身园,ChIJd3WGaERS8DURvR7ZJxfMKFg,"阜成门北顺城街, Xicheng Qu, Beijing Shi",sport,gym,39.925615,116.356636,456.33699016036
39.92236413725399,116.35253901688448,40,Be For Time Tea House,ChIJIassokFS8DURzlS7rNS-JZQ,"1-3 Nan Li Shi Lu, Xicheng Qu",restaurants,cafe,39.922812,116.352795,54.37442295093432
39.92236413725399,116.35253901688448,40,京城射箭馆,ChIJB9pb1ENS8DUR6UyNppeuBRg,"W9F3+4VP, Xicheng District",leisure,stadium,39.922831,116.354708,192.11102670364588
39.92236413725399,116.35253901688448,40,宝迪沃英派斯健身中心阜成门店,ChIJ9_TJYEFS8DURyaxmL_Vtqnk,"阜成门外大街,华联商厦内,万通新世界商城北侧, Xicheng Qu, Beijing Shi",sport,gym,39.92392399999999,116.354118,219.5793820807612
39.908431063993866,116.36822156292313,41,相约酒吧,ChIJWwG0yHxS8DURGz42pCWIAWQ,"复兴门内大街62号,与佟麟阁路交岔口以东约150米路南, Xicheng Qu, Beijing Shi",restaurants,bar,39.906876,116.368092,173.26825323266465
39.908431063993866,116.36822156292313,41,Cultural Palace of Nationalities,ChIJzdExImNS8DUR7fnnVC4MnAc,"49 Fu Xing Men Nei Da Jie, Xicheng Qu, Beijing Shi",leisure,tourist_attraction,39.90820900000001,116.369134,81.64925070738983
39.908431063993866,116.36822156292313,41,浩沙健身,ChIJ_XUn7mJS8DUR-xtl8zSDNgs,"19 Hua Yuan Jie, Xicheng Qu",sport,gym,39.9086209,116.370243,173.70457746722758
31.168712409946234,121.39412068682796,42,Gloria Jean's Coffees,ChIJXQWlkmBksjUR6Pn5qyW49Oc,"Hong Mei Lu, Xuhui Qu",restaurants,cafe,31.16949499999999,121.396291,224.07807869955232
31.168712409946234,121.39412068682796,42,Yinfa Wuyou Old Age Life Home,ChIJqUKBHmFksjURjQc8rKRBZys,"1658 Gu Mei Lu, Xuhui Qu",leisure,amusement_park,31.168072,121.395953,188.31668057149705
31.168712409946234,121.39412068682796,42,新兴网球沙龙,ChIJc12d1l9ksjURHOMu-sQr3us,"宜山路1101号, Xuhui Qu, Shanghai Shi",sport,gym,31.17064199999999,121.397402,378.8152653663917
31.17139794226256,121.3931038364106,43,山水茶楼,ChIJuQbDsWdksjURhgFgmWgx_pU,"莲花路1733号15F, Minhang Qu, Shanghai Shi",restaurants,cafe,31.170122,121.390556,280.8734800740354
31.17139794226256,121.3931038364106,43,联谊会,ChIJefBG_mZksjURzhDdUkvLzB8,"莲花路1728号, Minhang Qu, Shanghai Shi",leisure,night_club,31.169271,121.391609,275.9745083157728
31.17139794226256,121.3931038364106,43,新兴网球沙龙,ChIJc12d1l9ksjURHOMu-sQr3us,"宜山路1101号, Xuhui Qu, Shanghai Shi",sport,gym,31.17064199999999,121.397402,417.4830735238718
31.194918307991323,121.43642306715611,44,Croissants De France,ChIJ-eBZ3jZlsjURsT_pS22bj7k,"2068 Hua Shan Lu, Xuhui Qu",restaurants,bakery,31.196829,121.437416,232.5054393178692
31.194918307991323,121.43642306715611,44,Grand Gateway Shanghai,ChIJT1CuIzFlsjURTEQJ2CzP3FA,China,leisure,shopping_mall,31.1944205,121.4372385,95.28859840581468
31.194918307991323,121.43642306715611,44,邱艳舞蹈培训中心,ChIJmRu_3jZlsjURsvo8vxrdoTc,"汇银广场, 2088 Hua Shan Lu, Xu Jia Hui, Xuhui Qu",sport,gym,31.1973273,121.4372011,277.9025436995786
31.196622243437123,121.4328311640126,45,85 degrees C,ChIJ8ay4VDdlsjURwe7xcEUuycw,"广元西路98号名仕1楼第98-8室, Xuhui Qu, Shanghai Shi",restaurants,restaurant,31.195943,121.434126,144.47443684177964
31.196622243437123,121.4328311640126,45,Leshan Greenland,ChIJ32DXSTplsjURKb3bjs84FI0,"37 Le Shan Lu, Jiao Tong Da Xue, Xuhui Qu",leisure,park,31.195874,121.431825,126.81225660940436
31.196622243437123,121.4328311640126,45,邱艳舞蹈培训中心,ChIJmRu_3jZlsjURsvo8vxrdoTc,"汇银广场, 2088 Hua Shan Lu, Xu Jia Hui, Xuhui Qu",sport,gym,31.1973273,121.4372011,422.9770656158282
31.22103364088966,121.41560684201632,46,马车道,ChIJHVK9O2RlsjUR_lfZJr9kU0w,"Hui Chuan Lu, Zhong Shan Gong Yuan, Changning Qu",restaurants,bar,31.22033699999999,121.416107,90.8985694537847
31.22103364088966,121.41560684201632,46,双人沙发映画社,ChIJ14yUTmRlsjURjaIYof5NzUU,"凯旋路166号凯旋坊9幢, Changning Qu, Shanghai Shi",leisure,art_gallery,31.22010799999999,121.415152,111.64504071058592
31.22103364088966,121.41560684201632,46,Xingzhi Fitness,ChIJR1prYmZlsjURelKqL_fMNPs,"988 Chang Ning Lu, Zhong Shan Gong Yuan, Changning Qu",sport,gym,31.2188121,121.4180317,337.9210248904988
31.224985915069976,121.42211790394312,47,Baiweilin,ChIJ6-tMSGBlsjURmvPvguIZtOw,"1465 Wan Hang Du Lu, Changning Qu",restaurants,bakery,31.22460499999999,121.420458,163.42028314276317
31.224985915069976,121.42211790394312,47,Zhongshan Park （North Gate 2）,ChIJoZ9xBmFlsjURrSbXBk-T1Bo,"1550 Wan Hang Du Lu, Zhong Shan Gong Yuan, Changning Qu",leisure,park,31.223446,121.419306,317.5076962024885
31.224985915069976,121.42211790394312,47,白玉健身室,ChIJQfDA9opvsjURCUQiia1F4NY,"隆德路157弄, Putuo Qu, Shanghai Shi",sport,gym,31.227771,121.420185,360.1192560838832
31.223264372717228,121.4222963456096,48,Baiweilin,ChIJ6-tMSGBlsjURmvPvguIZtOw,"1465 Wan Hang Du Lu, Changning Qu",restaurants,bakery,31.22460499999999,121.420458,229.7368275285533
31.223264372717228,121.4222963456096,48,Zhongshan Park （North Gate 2）,ChIJoZ9xBmFlsjURrSbXBk-T1Bo,"1550 Wan Hang Du Lu, Zhong Shan Gong Yuan, Changning Qu",leisure,park,31.223446,121.419306,285.06473122506986
31.223264372717228,121.4222963456096,48,英派斯健身,ChIJXdsfbl5lsjURmjGDOzQe4VU,Changning District,sport,gym,31.220367,121.424629,391.14807169181466
31.224092311278195,121.42070798766916,49,Baiweilin,ChIJ6-tMSGBlsjURmvPvguIZtOw,"1465 Wan Hang Du Lu, Changning Qu",restaurants,bakery,31.22460499999999,121.420458,61.76580882038191
31.224092311278195,121.42070798766916,49,上海市长宁区伟岸杂货商店,ChIJt6HopWFlsjURfaZ9QLCJ6yk,"万航渡路1542号, Changning Qu, Shanghai Shi",leisure,shopping_mall,31.22414999999999,121.419117,151.41983853360824
31.224092311278195,121.42070798766916,49,Shanghai Jianlibao Jianmei Leyuan Changning Branch Daochang,ChIJPTlE02BlsjURHzjZT6gGiV0,"780 Chang Ning Lu, Changning Qu",sport,gym,31.2208274,121.420467,363.764582872527
31.23083814678992,121.46992193126052,50,Costa Coffee,ChIJdSVM0GpwsjURehzrLqwat_U,"Xian Le Si Guang Chang, 1F, 388 Nan Jing Xi Lu, Huangpu Qu",restaurants,cafe,31.2313474,121.4690841,97.73723293621568
31.23083814678992,121.46992193126052,50,CIROS plaza,ChIJK9bKxGpwsjURnCw_kRAyFcQ,"388 Nan Jing Xi Lu, Huangpu Qu",leisure,shopping_mall,31.2312158,121.469416,63.85506936362189
31.23083814678992,121.46992193126052,50,海仑健身俱乐部,ChIJSbCC3BRwsjUR51aqg1VwcbA,"6FJ8+8X2, Nanjing West Road, Huangpu",sport,gym,31.230772,121.467396,240.2814714576345
31.23682316930368,121.47153807020784,51,王朝(酒品店NO.1),ChIJs3U-OkFwsjUR2EZZZTAOd5E,"61号甲 Bei Jing Xi Lu, Huangpu Qu",restaurants,liquor_store,31.236944,121.47233,76.48227548471833
31.23682316930368,121.47153807020784,51,Lavipeditum Card & Chess Room,ChIJDRVqlEBwsjURwsPLnSNhsNQ,"240 Huang He Lu, Huangpu Qu",leisure,casino,31.236869,121.469646,179.9611958959693
31.23682316930368,121.47153807020784,51,亚力山大会馆,ChIJnZuxYUZwsjURBDPBpQ3rKO8,"728 Xi Zang Zhong Lu, Huangpu Qu",sport,gym,31.240188,121.472959,397.7942600890034
31.237392156572703,121.47551743600388,52,The Lounge,ChIJf7adUEFwsjUR7EB7qfXw_gI,"555 Xi Zang Zhong Lu, Huangpu Qu",restaurants,bar,31.2366299,121.4735176,208.17124420342228
31.237392156572703,121.47551743600388,52,Great Shanghai Cinema,ChIJkWlt4ENwsjURXHvWgzdIbd8,"500 Xi Zang Zhong Lu, Nan Jing Lu, Huangpu Qu",leisure,movie_theater,31.236004,121.474266,194.89036405237795
31.237392156572703,121.47551743600388,52,亚力山大会馆,ChIJnZuxYUZwsjURBDPBpQ3rKO8,"728 Xi Zang Zhong Lu, Huangpu Qu",sport,gym,31.240188,121.472959,394.7328895657889
31.23898873941064,121.47907850530449,53,宜芝多,ChIJ0fNSc1twsjURAGUSK6XYcaE,"Shang Hai Zhi Di Guang Chang, 409 Nan Jing Lu Bu Xing Jie, Huangpu Qu",restaurants,restaurant,31.2381387,121.4778388,151.0820542342876
31.23898873941064,121.47907850530449,53,金逸国际影城,ChIJF37II1twsjURM1Hb07bak1w,"Tian Jin Lu, Huangpu Qu",leisure,movie_theater,31.2374735,121.4811008,255.6455627232677
31.23898873941064,121.47907850530449,53,索菲特海仑宾馆健身中心,ChIJ2TG4OlpwsjUR1PRE0Fad6TE,"505 Nan Jing Lu Bu Xing Jie, Nan Jing Lu, Huangpu Qu",sport,gym,31.2358036,121.4808586,392.53092778328016
39.88312531769558,116.45335865937462,54,茅台集团,ChIJUYuyQmSt8TURn0RtfSiBeHQ,"广和东街, Chaoyang Qu, Beijing Shi",restaurants,liquor_store,39.883581,116.451098,199.43640360586156
39.88312531769558,116.45335865937462,54,明珠商场,ChIJV8-LXWSt8TURKn2mwQRg4jA,"劲松南路, Chaoyang Qu, Beijing Shi",leisure,shopping_mall,39.883484,116.451366,174.64042929862163
39.88312531769558,116.45335865937462,54,Chaoyang Kangti Center,ChIJx8q-Pnut8TURtq5x71scE4I,"劲松中街四区405楼甲朝阳区社区服务中心甲楼, Jing Song Zhong Jie, Chaoyang Qu",sport,gym,39.8826003,116.4560388,236.02052589651652
39.87925609054656,116.42860250028782,55,马兰拉面快餐连锁有限责任公司龙潭湖连锁店,ChIJDwa3iKiy8TURg4XGShrrJao,"龙潭路1号, Dongcheng Qu, Beijing Shi",restaurants,restaurant,39.879954,116.430375,169.99521948775268
39.87925609054656,116.42860250028782,55,Longtan Xihu Park （West Gate）,ChIJsd6dBqmy8TURG5gX8wp5P-Q,"龙潭西里对面, Long Tan Xi Li, Dongcheng Qu",leisure,park,39.880569,116.427756,162.8811001321862
39.87925609054656,116.42860250028782,55,Fitness Center of National Sports General Bureau Training Center,ChIJYc5T6Vet8TURfQKMyxZ32oE,"体育馆路甲2号, Ti Yu Guan Lu, Dongcheng Qu",sport,gym,39.8836747,116.4282173,492.4258209458116
39.87310822297337,116.43301601967508,56,原始森林,ChIJ8ch_VaGy8TURHacOMvMQAJc,"19 Zuo An Men Nei Da Jie, Dongcheng Qu",restaurants,restaurant,39.87218,116.43284,104.3011788429778
39.87310822297337,116.43301601967508,56,Beijing Teenagers Science & Technology Museum,ChIJ_3gE76Sy8TUR0aPGLgJPbcM,"11 Zuo An Men Xi Jie, Dongcheng Qu",leisure,museum,39.873513,116.435041,178.57351824944985
39.87310822297337,116.43301601967508,56,Youji Lotus Yoga Fangzhuang Assembly Hall,ChIJsRuc87qy8TUR8W3PWISibzg,"芳城园一区17号日月天地B座3102室, Zuo An Men Xi Bin He Lu, Fengtai Qu",sport,gym,39.8705431,116.4329023,285.3941183977649
39.86466881513416,116.42963725044837,57,麦咖啡,ChIJx0jhnLey8TURtOkxlQ-iwiU,"Pu Fang Lu, Fang Zhuang, Fengtai Qu",restaurants,cafe,39.865684,116.4303436,127.9729330463557
39.86466881513416,116.42963725044837,57,Beijing Fangzhuang Shopping Center,ChIJfyyhurey8TURHqSHs8TsrpI,"24 Pu Fang Lu, Fang Zhuang, Fengtai Qu",leisure,shopping_mall,39.865567,116.4289883,114.2036385278626
39.86466881513416,116.42963725044837,57,Fitness First,ChIJPdfF47qy8TURask1oZBvtX8,"VC8M+972, Fangzhuang, Fengtai District",sport,gym,39.865898,116.433126,327.6298923975944
39.86458234565218,116.42698582536232,58,味多美,ChIJdxc_s7ey8TURJ36ywI7m-dU,"蒲方路, 方庄环岛购物中心一层, Fengtai Qu",restaurants,bakery,39.8654831,116.4279901,131.82827204546956
39.86458234565218,116.42698582536232,58,北京中侨免税外江商场,ChIJZelqSbay8TURrrHQGo8YAHE,"蒲芳路, Fengtai Qu, Beijing Shi",leisure,shopping_mall,39.865496,116.427788,122.50995483388866
39.86458234565218,116.42698582536232,58,Liangzi Foot Massage,ChIJ1wrTwrWy8TURO3IBp8VS9gE,"Pu Fang Lu, Fang Zhuang, Fengtai Qu",sport,gym,39.86595519999999,116.4241851,283.62314098278705
39.87483236175549,116.43539246833856,59,Daoxiangcun,ChIJueUWyKOy8TURwb6KRGBKh_w,"73 Zuo An Men Nei Da Jie, Dongcheng Qu",restaurants,bakery,39.874477,116.4393878,343.2299139772752
39.87483236175549,116.43539246833856,59,Beijing Teaching Botanical Garden （Northwest Gate）,ChIJAeeCcqSy8TURPZov_XAG6E4,"Zuo An Men Nei Da Jie, Dongcheng Qu",leisure,tourist_attraction,39.875511,116.435979,90.55176012248316
39.87441273395594,116.43713654525862,60,Daoxiangcun,ChIJueUWyKOy8TURwb6KRGBKh_w,"73 Zuo An Men Nei Da Jie, Dongcheng Qu",restaurants,bakery,39.874477,116.4393878,192.24773017229657
39.87441273395594,116.43713654525862,60,Beijing Teaching Botanical Garden （Northwest Gate）,ChIJAeeCcqSy8TURPZov_XAG6E4,"Zuo An Men Nei Da Jie, Dongcheng Qu",leisure,tourist_attraction,39.875511,116.435979,157.07103417436463
39.878904461790015,116.43660288255882,61,Shanshui Jian Lamb Spine Hot Pot,ChIJsVscX6ey8TUR-igg8z58gWw,"22 Long Tan Lu, Dongcheng Qu",restaurants,restaurant,39.881155,116.435896,257.4154954128883
39.878904461790015,116.43660288255882,61,娱乐城堡,ChIJma042Kay8TURs8sprnXk51Y,"北京游乐园内, Dongcheng Qu, Beijing Shi",leisure,night_club,39.878687,116.436267,37.49902468123782
39.878904461790015,116.43660288255882,61,灵水泉健康中心,ChIJQQ06n1-t8TURS4I1F4nA_UE,"龙潭路, Dongcheng Qu, Beijing Shi",sport,gym,39.88127599999999,116.440365,415.4440053455076
39.96060371670033,116.32903290344557,62,味多美网络订购,ChIJoamoBNlT8DUR4NArro1ghjo,"中关村南大街12号, Haidian Qu, Beijing Shi",restaurants,restaurant,39.95840400000001,116.328287,252.72451408905783
39.96060371670033,116.32903290344557,62,Library,ChIJo02Nv9hT8DUR5vnxyzlL-eI,"X85G+RHJ, Haidian District",leisure,museum,39.95958,116.326377,253.3732460255304
39.96060371670033,116.32903290344557,62,Tianxia Hotel Fitness Billiards,ChIJn1f6F95T8DURDSeawZn_Oao,"Li Ba Fang Lu, Bei Xia Guan, Haidian Qu",sport,gym,39.963935,116.3294336,371.9932050371254
39.93695245592191,116.33390053792304,63,茗立茶艺馆,ChIJr3LdbC5S8DURNdeuRn8RyoY,"西外大街141号, Xicheng Qu, Beijing Shi",restaurants,cafe,39.938616,116.33519,215.1812007304504
39.93695245592191,116.33390053792304,63,Weilan Yihai'an Night Club,ChIJC72-3y5S8DURO8-i_fpBqjg,China,leisure,night_club,39.937814,116.332212,172.9237561368397
39.93695245592191,116.33390053792304,63,Beijing Isis International Beauty & Fitness Club,ChIJm2Uyg2BR8DUR5klOtp6SdUA,"中关村南大街甲56号方圆大厦商务楼2-3层, Zhong Guan Cun Nan Da Jie, Haidian Qu",sport,gym,39.939034,116.330355,380.720862872715
39.94213933546512,116.33300713895348,64,Chongqing Snack,ChIJgzLFsy5S8DURZChVtmRyBko,"Xi Zhi Men Wai Da Jie Fu Lu, Dong Wu Yuan, Xicheng Qu",restaurants,restaurant,39.939581,116.33117,324.74082972651485
39.94213933546512,116.33300713895348,64,小动物爱心俱乐部,ChIJ-cUj8CxS8DURmX1_ql2eD9E,"西直门外大街137号动物园院内, Xicheng Qu, Beijing Shi",leisure,night_club,39.94291200000001,116.332955,86.03140219336045
39.94213933546512,116.33300713895348,64,Beijing Isis International Beauty & Fitness Club,ChIJm2Uyg2BR8DUR5klOtp6SdUA,"中关村南大街甲56号方圆大厦商务楼2-3层, Zhong Guan Cun Nan Da Jie, Haidian Qu",sport,gym,39.939034,116.330355,412.74077388263873
39.90242041234541,116.42123382874244,65,Xinqiao Sapporo West Restaurant,ChIJAwM187RS8DURGN4fJnbbuqY,"2 Dong Jiao Min Xiang, Dongcheng Qu",restaurants,restaurant,39.9019429,116.4175343,320.01392361080696
39.90242041234541,116.42123382874244,65,Fuyuanwei Supermarket,ChIJ13_7ukqt8TURJ32xKf-07_s,"8 Chuan Ban Hu Tong, Dongcheng Qu",leisure,shopping_mall,39.90355299999999,116.4203025,148.90164300787347
39.90242041234541,116.42123382874244,65,Otso Fitness,ChIJ3WOSYkut8TURhz-gy7sXn90,"78 Guo Rui Bei Lu, Chong Wen Men, Dongcheng Qu",sport,gym,39.89923700000001,116.421468,354.5429881502748
40.01255846428572,116.47611277466449,66,鹤一,ChIJ1fq4FGSq8TURnKF5dvKdWi4,China,restaurants,cafe,40.01199,116.473698,215.1494956044917
40.01255846428572,116.47611277466449,66,Beijing Old Age Activity Center,ChIJ_xbgqmaq8TUR9xBeuLWINlo,"Li Ze Zhong Er Lu, Wang Jing, Chaoyang Qu",leisure,museum,40.010952,116.472595,348.80573435694095
40.01255846428572,116.47611277466449,66,Beijing Jingshi Health Sports Center,ChIJv9UA9maq8TURcgLNmcKPViE,"来广营, Li Ze Zhong Jie, Chaoyang Qu",sport,gym,40.0089579,116.4754256,404.6199410152092
40.00942854459135,116.47218666045671,67,味中天酒楼,ChIJ8dDRKmeq8TURy1SCgkFO17I,"Guang Ze Lu, Wang Jing, Chaoyang Qu",restaurants,restaurant,40.0084838,116.4724085,106.73650858347608
40.00942854459135,116.47218666045671,67,Qiushi Xinpu Tennis Hall,ChIJy_Lesmaq8TUR0SrdZMDLO3I,"Li Ze Zhong Er Lu, Wang Jing, Chaoyang Qu",leisure,stadium,40.01036999999999,116.472576,109.8113458718477
40.00942854459135,116.47218666045671,67,Beijing Jingshi Health Sports Center,ChIJv9UA9maq8TURcgLNmcKPViE,"来广营, Li Ze Zhong Jie, Chaoyang Qu",sport,gym,40.0089579,116.4754256,280.7771930225334
40.129240440015,116.48559934231332,68,Chunhuiyuan Resort Robust Center,ChIJecrBnZgD8TURfxZHy3C6jRE,"4FHR+Q43, Shunyi District",leisure,stadium,40.129387,116.490296,399.6368274629019
39.99962656569151,116.33312904237778,69,Judian Coffee,ChIJCxME0xlU8DURuRWXzNB5w_E,"学研大厦, Shuang Qing Lu, Haidian Qu",restaurants,cafe,39.9987391,116.3359972,263.49055111969034
39.99962656569151,116.33312904237778,69,Tsinghua University Art Museum,ChIJ6Q0CNBhU8DUR-tDqpsEDL4I,"清华大学内, Haidian Qu, Beijing Shi",leisure,tourist_attraction,39.99944,116.335617,212.93955158070327
39.99962656569151,116.33312904237778,69,Sailebao Billiards,ChIJnTmZMBpU8DURiq9RDh2ZJWw,"88 Shuang Qing Lu, Haidian Qu",sport,gym,39.9962023,116.3342406,392.3579056764908
39.91134505055555,116.42809953166666,70,Xi'an Snacks,ChIJtdoE6S-t8TURJOmtK_o-FCo,"Dong Zong Bu Hu Tong, Chao Yang Men, Dongcheng Qu",restaurants,restaurant,39.912246,116.429944,186.5056492570624
39.91134505055555,116.42809953166666,70,长安电影院,ChIJC23k_TCt8TURICzpp15vmko,"建国门大街7号, Dongcheng Qu, Beijing Shi",leisure,movie_theater,39.90915800000001,116.428305,243.8198952382825
39.91134505055555,116.42809953166666,70,Beijing International Hotel Fitness Center,ChIJ4WfuWzCt8TURRj_M47rZG3w,"9 Jian Guo Men Nei Da Jie, Chao Yang Men, Dongcheng Qu",sport,gym,39.90979799999999,116.428296,172.8386576927334
40.09313325279405,116.08223118326862,72,Beijing Fenghuangling Nature Park （South Gate）,ChIJxRQZtKZf8DURzeqhyw-WAdE,"33WM+8H8, Haidian District",leisure,park,40.095781,116.083944,328.49426992347594
40.09964573372153,116.0739587706004,75,Jin'gang Stone Pagoda,ChIJ5ZRE5qJf8DURUuRV2kgPkRI,"432H+3CW, Haidian District",leisure,tourist_attraction,40.100234,116.078577,398.21532633244993
40.09941871669398,116.07803107198497,76,Jin'gang Stone Pagoda,ChIJ5ZRE5qJf8DURUuRV2kgPkRI,"432H+3CW, Haidian District",leisure,tourist_attraction,40.100234,116.078577,101.8555983876718
40.10064452926588,116.08318968948412,77,Huangpuyuan,ChIJs67l0aFf8DURSUJLACrZqYA,"33XP+X4F, Haidian District",leisure,tourist_attraction,40.099948,116.085287,194.4750051789098
40.102581033456126,116.0837872067719,78,Biyutan,ChIJfQ4bZZ5f8DURFQvCMtz1rc8,"433P+PGV, Haidian District",leisure,tourist_attraction,40.104351,116.086299,290.4702692181911
40.1049505577591,116.08595332175072,79,Biyutan,ChIJfQ4bZZ5f8DURFQvCMtz1rc8,"433P+PGV, Haidian District",leisure,tourist_attraction,40.104351,116.086299,72.86257867495692
40.10351046498203,116.09215971319696,80,蒙古包,ChIJleBZqXZf8DURDpS7-L7IvKA,"凤凰岭自然风景区, Haidian Qu, Beijing Shi",restaurants,restaurant,40.10341400000001,116.094194,173.35065323387408
40.10351046498203,116.09215971319696,80,Phoenix Ridge natural scenic South Gate,ChIJpQR1HnVf8DUR1nIUqLE5jRI,"聂各庄, Haidian Qu, Beijing Shi",leisure,tourist_attraction,40.10046000000001,116.091554,343.08670110963874
40.124366886370574,116.1859376909595,81,蜀乡悦食府,ChIJZ1dd9K738DURvIOqD-qFbvI,"沙阳路, Haidian Qu, Beijing Shi",restaurants,restaurant,40.125435,116.190819,431.68985786713233
40.069829081652685,116.31341148506114,82,Xiaosichuan Restaurant,ChIJNzW8iK_48DURHhWkecgk-AQ,"Hui Long Guan Bei Lu, Changping Qu",restaurants,restaurant,40.072167,116.313424,259.9672075200639
40.069829081652685,116.31341148506114,82,Xinshixian Movie Bar,ChIJ0cVD4qX48DUR8Y1dp2NpURk,"3896+RV6, Changping District",leisure,casino,40.069526,116.312148,112.67244490427068
39.89471208809332,116.31471119828764,83,吉野家,ChIJ8YHgehJO8DURr5C-37GNm5U,"V8W6+2XH, Haidian District",restaurants,restaurant,39.89506,116.31249,193.40211866644185
39.89471208809332,116.31471119828764,83,Lianhuachi Park,ChIJd4ZsDXNO8DURSQVkuXGqalw,"广外莲花池路48号, Guang Lian Lu, Fengtai Qu",leisure,tourist_attraction,39.892561,116.317436,333.54170564931906
39.96585266105505,116.31745050020032,84,Caomu Renhe Tea House,ChIJ82obLGdR8DURUjOiuRfnyBs,"1 Zhong Guan Cun Nan Da Jie, Haidian Qu",restaurants,cafe,39.96523,116.3188778,139.96375287448748
39.96585266105505,116.31745050020032,84,Beijing Science Hall,ChIJfZUH32ZR8DURJseZpFrZkfM,"1 Zhong Guan Cun Nan Da Jie, Haidian Qu",leisure,museum,39.965078,116.317754,89.93806170848215
39.96585266105505,116.31745050020032,84,Beijing Friendship Hotel Workers Club,ChIJPYM3sGdR8DURd6Qodk840eg,"47 Bei San Huan Xi Lu, Haidian Qu",sport,gym,39.9662133,116.3153216,185.8096059082124
31.29646663281832,121.54678255381138,85,天天奶茶汉堡,ChIJydn62XJ0sjURGEtVqpW1zvw,"延吉东路115弄, Yangpu Qu, Shanghai Shi",restaurants,cafe,31.295502,121.545879,137.38906340097068
31.29646663281832,121.54678255381138,85,Yangpu Bureau Of Education Retire Jiaogong Activity Center,ChIJhVX3IQ10sjURNWnzdcxpePQ,"延吉东路131弄19, Yan Ji Dong Lu, Yangpu Qu",leisure,museum,31.2935526,121.5458711,335.3998484453792
31.294010818850577,121.54584710390805,86,凡仔汉堡,ChIJidGD7Ax0sjURlwhg0Ujv4mM,"Yan Ji Dong Lu, Yangpu Qu",restaurants,restaurant,31.2936443,121.5442903,153.4357588066538
31.294010818850577,121.54584710390805,86,Yangpu Bureau Of Education Retire Jiaogong Activity Center,ChIJhVX3IQ10sjURNWnzdcxpePQ,"延吉东路131弄19, Yan Ji Dong Lu, Yangpu Qu",leisure,museum,31.2935526,121.5458711,51.002673571212085
31.302196725308644,121.50939721604938,87,Taowu Japanese Restaurant,ChIJk-pkKcdzsjURUJaE-BpVEHM,"230 Zheng Min Lu, Wu Jiao Chang, Yangpu Qu",restaurants,restaurant,31.302456,121.507592,173.91846201181832
31.302196725308644,121.50939721604938,87,上海九五会馆,ChIJs7iNosBzsjURGFAH2-PaScc,"五角场大学路33号301室, Yangpu Qu, Shanghai Shi",leisure,stadium,31.304138,121.509806,219.32626562812115
31.302196725308644,121.50939721604938,87,Weider-Tera Fitness Club Chamber,ChIJ3ao8rsBzsjUR2ry1D2U24Ss,"11 Jin Chuang Lu, Yangpu Qu",sport,gym,31.304368,121.508988,244.54542407289267
31.30366201364692,121.50910891898955,88,Taowu Japanese Restaurant,ChIJk-pkKcdzsjURUJaE-BpVEHM,"230 Zheng Min Lu, Wu Jiao Chang, Yangpu Qu",restaurants,restaurant,31.302456,121.507592,196.8608782293137
31.30366201364692,121.50910891898955,88,上海九五会馆,ChIJs7iNosBzsjURGFAH2-PaScc,"五角场大学路33号301室, Yangpu Qu, Shanghai Shi",leisure,stadium,31.304138,121.509806,84.77888259092958
31.30366201364692,121.50910891898955,88,Weider-Tera Fitness Club Chamber,ChIJ3ao8rsBzsjUR2ry1D2U24Ss,"11 Jin Chuang Lu, Yangpu Qu",sport,gym,31.304368,121.508988,79.33836665990692
31.296037130000546,121.54472335864676,89,Shuangyuan Leisure Tea Workshop,ChIJDyLZv3R0sjURHWmd51afCWY,"65 Bao Tou Nan Lu, Yangpu Qu",restaurants,cafe,31.29737600000001,121.541402,348.93252483658705
31.296037130000546,121.54472335864676,89,Yangpu Bureau Of Education Retire Jiaogong Activity Center,ChIJhVX3IQ10sjURNWnzdcxpePQ,"延吉东路131弄19, Yan Ji Dong Lu, Yangpu Qu",leisure,museum,31.2935526,121.5458711,297.012946719751
31.296037130000546,121.54472335864676,89,胜佳撞球游艺,ChIJxd4I73R0sjURvRwjSfcglHc,"包头南路, Yangpu Qu, Shanghai Shi",sport,gym,31.29802699999999,121.540766,436.2784000157756
31.28837543323188,121.54962719256554,90,Shanghai Xiangtian Entertainment Limited Company,ChIJn48UGxJ0sjURsMNHsqB4UAU,"71 Kong Jiang Lu, Yangpu Qu",restaurants,bar,31.289108,121.549381,84.7505385829294
31.28837543323188,121.54962719256554,90,广一里委图书室,ChIJAb2hHRJ0sjURY37k8X3cRsk,"图们路, Yangpu Qu, Shanghai Shi",leisure,museum,31.288837,121.549326,58.76450717545221
31.28837543323188,121.54962719256554,90,Xiangtian Youyi Cheng,ChIJn48UGxJ0sjURwqY4erVk3Ac,"71 Kong Jiang Lu, Yangpu Qu",sport,gym,31.289108,121.549381,84.7505385829294
31.113726059531285,121.05107697945088,91,Fashions Bar and Lounge,ChIJc6TTRbH5sjURqX2aiTpILUA,"Zhu Hu Lu, Qingpu Qu",restaurants,bar,31.11313900000001,121.049827,135.7259656485787
31.113726059531285,121.05107697945088,91,Shanghai Zhujiajiao Ancient Town Tourist Zone,ChIJrWDlybX5sjURIN1UyXg53qM,"朱家角翔宁浜763号, Ke Zhi Yuan Lu, Qingpu Qu",leisure,tourist_attraction,31.1143702,121.053999,287.245529081485
31.112462088537704,121.05064398413302,92,Fashions Bar and Lounge,ChIJc6TTRbH5sjURqX2aiTpILUA,"Zhu Hu Lu, Qingpu Qu",restaurants,bar,31.11313900000001,121.049827,108.23438786374666
31.112462088537704,121.05064398413302,92,Book Town,ChIJeespMLT5sjUR0XwpsBA7vaA,"朱家角翔宁浜763号上海朱家角古镇旅游区课植园内, Xi Jing Jie, Qingpu Qu",leisure,tourist_attraction,31.113883,121.053012,275.2887966248736
31.1109789402368,121.0497563628299,93,Fashions Bar and Lounge,ChIJc6TTRbH5sjURqX2aiTpILUA,"Zhu Hu Lu, Qingpu Qu",restaurants,bar,31.11313900000001,121.049827,240.28214569965024
31.1109789402368,121.0497563628299,93,Hexinyuan,ChIJNYVTh7b5sjURdoJYwX4RI6g,"79 Xi Jing Jie, Qingpu Qu",leisure,tourist_attraction,31.112754,121.053551,411.6568805022818
31.11538212349495,121.04856078543898,94,Laojiefang,ChIJSYUSX7H5sjURIXc1WSR8rqE,"Zhu Hu Lu, Qingpu Qu",restaurants,restaurant,31.114079,121.049503,170.4165669843669
31.11538212349495,121.04856078543898,94,Majia Garden Kezhi Garden,ChIJ0VvzBLL5sjURdBo0zbtG2yY,Qingpu District,leisure,park,31.1149545,121.0453351,310.7367549068116
31.116848630335365,121.04602155030489,95,Laojiefang,ChIJSYUSX7H5sjURIXc1WSR8rqE,"Zhu Hu Lu, Qingpu Qu",restaurants,restaurant,31.114079,121.049503,452.42356600097713
31.116848630335365,121.04602155030489,95,Majia Garden Kezhi Garden,ChIJ0VvzBLL5sjURdBo0zbtG2yY,Qingpu District,leisure,park,31.1149545,121.0453351,220.52272807334597
31.19606727992248,121.34180731306633,96,Pacific Coffee,ChIJ4d8FL5tmsjUROhKq8KzoK8w,"虹桥国际机场1号航站楼出发公众区, Ying Bin Yi Lu, Changning Qu",restaurants,cafe,31.194077,121.346099,464.3447733088013
39.95964710142952,116.35915191190684,97,味多美,ChIJAR2q3JdT8DURlIGh5zJpOKc,"9 Xue Yuan Nan Lu, Bei Tai Ping Zhuang, Haidian Qu",restaurants,bakery,39.95820990000001,116.3585225,168.57348628269796
39.95964710142952,116.35915191190684,97,Xingjing Hongda Commerce And Trade,ChIJNTv5DL1T8DURy195voujlM0,"Wen Hui Yuan Xi Lu, Bei Tai Ping Zhuang, Haidian Qu",leisure,shopping_mall,39.9564908,116.3579505,365.5984645876581
39.95964710142952,116.35915191190684,97,浩沙健身,ChIJVSfiQZZT8DURIXznTErsiBk,"10 Xi Tu Cheng Lu, Bei Tai Ping Zhuang, Haidian Qu",sport,gym,39.961658,116.35953,225.91208786936795
39.96020557212668,116.36404169123053,98,金色楼兰,ChIJx1nlDNVK8DURQV4dXvfHp3Y,"Shun Xin Jie Er Tiao, Bei Tai Ping Zhuang, Daxing Qu",restaurants,restaurant,39.96,116.36477,66.14891282672264
39.96020557212668,116.36404169123053,98,北京师范大学-体育场,ChIJLQkUcplT8DURDbUIZYhvHQc,"X967+5CX, Beitaipingzhuang, Haidian District",leisure,stadium,39.96048599999999,116.363602,48.75131504005887
39.96020557212668,116.36404169123053,98,浩沙健身,ChIJVSfiQZZT8DURIXznTErsiBk,"10 Xi Tu Cheng Lu, Bei Tai Ping Zhuang, Haidian Qu",sport,gym,39.961658,116.35953,417.0664812041983
39.99595487545336,116.30944507425411,99,鲜果时间,ChIJ_VZYe7pW8DURbeThdSu-CoA,"5 Yi He Yuan Lu, Haidian Qu",restaurants,bakery,39.99880369999999,116.309805,318.2555625267384
39.99595487545336,116.30944507425411,99,Peking University No.1 Gymnasium,ChIJVXjdtbFW8DURsahpeB3ws5g,"北京大学, Wei Ming Bei Lu, Haidian Qu, Beijing Shi",leisure,stadium,39.995148,116.311629,206.54434436457817
39.99595487545336,116.30944507425411,99,四季旱冰馆,ChIJhRKBKrFW8DUROVaN8s6dFrk,"镜春路, Haidian Qu, Beijing Shi",sport,gym,39.996433,116.307399,182.22323024150012
39.99852255555556,116.3125644821256,100,半打啤酒屋,ChIJI8hXxLpW8DURtWoQ-rx8s2I,"银锭桥西北20米, Haidian Qu, Beijing Shi",restaurants,bar,39.99931599999999,116.312177,94.19897611903086
39.99852255555556,116.3125644821256,100,"Center for Research on Ancient Chinese History, Peking University Library",ChIJN6mZhLBW8DUR6NPIDCDj0Pc,"Qing Hua Xi Lu, Haidian Qu",leisure,museum,39.99799999999999,116.309578,260.9476227880856
39.99852255555556,116.3125644821256,100,良子健身清华店,ChIJMWBJA6VW8DURTB3WAYndlOE,"清华南路华清家园8号楼, Haidian Qu, Beijing Shi",sport,gym,39.999051,116.315373,246.34549971432017
40.08036231734729,116.23635337099697,101,阳坊胜利涮羊肉-永丰店,ChIJyVmgZAf48DURZCszBd8Pnbs,"丰润中路, Haidian Qu, Beijing Shi",restaurants,restaurant,40.082875,116.238501,333.8393615514028
40.01430115174578,116.30624114372569,102,Shejian Shangde Breakfast,ChIJbxY6xpNW8DURiPDJGpdjyR0,"S 50 Bei Wu Huan, Haidian Qu",restaurants,restaurant,40.01528,116.305991,110.90820202448198
40.01430115174578,116.30624114372569,102,黄花阵,ChIJYWQ2SZFW8DURrJYeMlpJNw8,"2875+89M, Haidian District",leisure,tourist_attraction,40.013348,116.308428,214.2851982745557
39.9938420276705,116.1985545552504,103,Esquires Coffee,ChIJt1R_l0Za8DUR1zKHm5Q6h7w,"买卖街甲9, Mai Mai Jie, Haidian Qu",restaurants,cafe,39.992197,116.199266,192.69822185944133
39.9938420276705,116.1985545552504,103,香山健锐营八旗营房,ChIJoeIPEUda8DURtux46kkFtbU,"X5VX+WHP, Haidian District",leisure,tourist_attraction,39.994842,116.198944,116.03575321737426
39.9938420276705,116.1985545552504,103,Baisuile Fitness Center,ChIJK13jFkFa8DURwtkcifC1kuY,"Mai Mai Jie, Haidian Qu",sport,gym,39.9924981,116.2026518,379.68475228367896
40.00110507565408,116.17190726696955,104,老望京楼,ChIJHzJ3nJxb8DURTljLLW66HQc,"Unnamed Road, Haidian Qu, Beijing Shi",leisure,tourist_attraction,40.0047882,116.1691967,470.1400082165331
40.00253296989287,116.16990302460972,105,老望京楼,ChIJHzJ3nJxb8DURTljLLW66HQc,"Unnamed Road, Haidian Qu, Beijing Shi",leisure,tourist_attraction,40.0047882,116.1691967,257.88618141316687
39.99355300823623,116.18723414374584,106,Old Beijing Flavor Snack,ChIJYViDd05a8DURiRJPm5tdgQc,"香山公园内, 40 买卖街, Haidian Qu",restaurants,restaurant,39.99097099999999,116.189276,335.6893666001123
39.99355300823623,116.18723414374584,106,Xiangshan Park,ChIJC3E87U1a8DUR5z_FM4H9gBw,Haidian District,leisure,park,39.9923587,116.1861605,161.25013427309733
39.99004531264226,116.18687896929475,107,Old Beijing Flavor Snack,ChIJYViDd05a8DURiRJPm5tdgQc,"香山公园内, 40 买卖街, Haidian Qu",restaurants,restaurant,39.99097099999999,116.189276,228.6832427727604
39.99004531264226,116.18687896929475,107,Xiangshan Park,ChIJC3E87U1a8DUR5z_FM4H9gBw,Haidian District,leisure,park,39.9923587,116.1861605,264.4189309535596
39.99015641523586,116.19135593765616,108,Old Beijing Flavor Snack,ChIJYViDd05a8DURiRJPm5tdgQc,"香山公园内, 40 买卖街, Haidian Qu",restaurants,restaurant,39.99097099999999,116.189276,199.0029659522892
39.99015641523586,116.19135593765616,108,Liulita,ChIJb3ZlO0la8DURlDCglXmEy90,"X5VR+QF4, Haidian District",leisure,tourist_attraction,39.99439700000001,116.191202,471.7145010287837
39.99015641523586,116.19135593765616,108,香山饭店健身中心,ChIJmQGreEVa8DURkmWOmxXx0X4,"香山公园内, Haidian Qu, Beijing Shi",sport,gym,39.990112,116.195401,344.6450979068898
40.01505099611547,116.31110335320768,109,成都小吃,ChIJ5zXZFJBW8DURmlpsCFMCpmc,"圆明园二河开, Haidian Qu, Beijing Shi",restaurants,cafe,40.015753,116.311861,101.27371635621294
40.01505099611547,116.31110335320768,109,篮球场,ChIJfV74m5pW8DURZywNxJ6xAoU,"2877+XCJ, Haidian District",leisure,stadium,40.014969,116.313512,205.32686474204377
40.07512957135796,116.34186476745695,110,Tasty Shashlik Spicy Hot Pot,ChIJizDvoUD_8DUR-dwH8N15a_g,"Long Teng Jie, Changping Qu",restaurants,restaurant,40.075751,116.344077,200.5130516190148
40.07512957135796,116.34186476745695,110,Jinbaobao Ying'er Swimming,ChIJI-TaFEf_8DURmb7oGkJcYpI,"Long Teng Jie, Changping Qu",leisure,stadium,40.0756139,116.3409588,94.03465264011992
40.06962781469977,116.32998865428056,111,Xinlongcheng （South Gate 2）,ChIJA9uDxqz48DURTSaBqqrCb-Q,"龙城 回龙观新, Changping Qu, Beijing Shi",restaurants,restaurant,40.06874,116.325923,359.7722013822733
40.06962781469977,116.32998865428056,111,龙鑫源休闲俱乐部,ChIJDcOHRVL_8DURGtbQK5vhV5o,"回龙观, Changping Qu, Beijing Shi",leisure,night_club,40.06836,116.328862,170.4854388911861
40.06962781469977,116.32998865428056,111,Huayin Yoga Life Hall,ChIJ84RJ_07_8DURZoWm_tLvu_k,"40 Tong Cheng Jie, Changping Qu",sport,gym,40.0713819,116.3334554,353.64391241017904
40.03148178896059,116.31367902937492,112,上岛咖啡,ChIJt-luX2NW8DURqVd6-H5Iu0w,"19 Xin Xi Lu, Haidian Qu",restaurants,cafe,40.03118699999999,116.311907,154.39262279248467
40.03148178896059,116.31367902937492,112,七花茶商业休闲馆,ChIJY47oo2RW8DURN_W-kEoca2Y,"信息路19-6号, Haidian Qu, Beijing Shi",leisure,night_club,40.031567,116.31195,147.51596339719617
40.03148178896059,116.31367902937492,112,康美乐体育健身会,ChIJ3zala2NW8DURZHZ9eDzFnG8,"信息路19号,科贸大厦西侧,实创商服中心内, Haidian Qu, Beijing Shi",sport,gym,40.030345,116.311422,230.01451204281105
39.96828296484018,116.32900551176446,113,Dikaile Karaoke,ChIJ7wEC7uBT8DUR-RMNo0XnWW0,"北下关, Li Ba Fang Lu, Haidian Qu",restaurants,bar,39.9664582,116.3286349,205.3483250879949
39.96828296484018,116.32900551176446,113,Dikaile Karaoke,ChIJ7wEC7uBT8DUR-RMNo0XnWW0,"北下关, Li Ba Fang Lu, Haidian Qu",leisure,night_club,39.9664582,116.3286349,205.3483250879949
39.96828296484018,116.32900551176446,113,悦盛台球俱乐部,ChIJ0U8a3-BT8DURr1dVHOgIq5g,"Shuang Tian Da Sha, Bei San Huan Xi Lu, Bei Xia Guan, Haidian Qu",sport,gym,39.96697500000001,116.329617,154.4933168056548
39.96640488260734,116.36112158246785,114,味多美,ChIJqwFqOYVT8DUR3S-2hOw4DyA,"北太平桥西车站附近, 路南",restaurants,bakery,39.96717,116.36214,121.53553945466408
39.96640488260734,116.36112158246785,114,Jiaoke Complex Shop,ChIJr_pEVJBT8DURd8IJUgKZw7k,"Shi Da Bei Lu, Bei Tai Ping Zhuang, Haidian Qu",leisure,shopping_mall,39.9652032,116.3576609,323.7873015122432
39.94952495912911,116.33073591172425,115,Liky.19酒吧,ChIJmQu6h9RT8DURuXzwttb7uak,"W8XJ+33H, Beixiaguan Subdistrict, Haidian District",restaurants,bar,39.94767700000001,116.33023,209.9607788827369
39.94952495912911,116.33073591172425,115,China Meteorological Administration Library,ChIJzQ_bG9RT8DURTjEoJqlKdzQ,"Da Hui Si Lu, Bei Xia Guan, Haidian Qu",leisure,museum,39.94989400000001,116.329778,91.386597042653
39.94952495912911,116.33073591172425,115,Siji Sunny Leisure Fitness Club,ChIJZcq55NBT8DURll4OFdDqjYQ,"19 Da Hui Si Lu, Bei Xia Guan, Haidian Qu",sport,gym,39.95229399999999,116.332883,358.19194479233994
39.908520641318354,116.41044756744002,116,仙踪林,ChIJATtHuslS8DUR2Jdzaw5M-8g,"王府井（未开业）, Dongcheng Qu, Beijing Shi",restaurants,bakery,39.908005,116.411393,98.94634499069464
39.908520641318354,116.41044756744002,116,宝德龙健康生活馆,ChIJu2fDIshS8DURk34C8n-rWcA,"东四环中路82号金长安大厦A座607, Dongcheng Qu, Beijing Shi",leisure,stadium,39.907505,116.409194,155.5207414324776
39.908520641318354,116.41044756744002,116,北京饭店康乐中心,ChIJ0yG1sslS8DURzxdowq3E4PQ,"33 Dong Chang An Jie, Dong Dan, Dongcheng Qu",sport,gym,39.9083573,116.407687,236.160653810161
39.960723377048495,116.43884928217447,117,Golden Phoenix,ChIJ68La8V6r8TUR_p1y7HvoPjY,"西坝河南里17-7, Zuo Jia Zhuang Xi Jie, Chaoyang Qu",restaurants,bakery,39.96023479999999,116.4394155,72.6660197177333
39.960723377048495,116.43884928217447,117,Nanli Central Garden,ChIJnQD7vV6r8TURuDZXRqIiLgI,"Qi Sheng Nan Lu, Chaoyang Qu",leisure,park,39.960988,116.438128,68.1535468423885
39.960723377048495,116.43884928217447,117,Liangzi Foot Massage,ChIJz67kll6r8TURXkhLA3dqcB0,"西坝河南里13-2, Qi Sheng Nan Lu, Chaoyang Qu",sport,gym,39.9615324,116.4391806,94.28713877609604
39.92649128342923,116.33745508191828,118,北京蛋糕网,ChIJp-9IgiJS8DURmxDzNNzzV2c,"北京三里河路39号甘家口8号院乙楼1门8号, Haidian Qu, Beijing Shi",restaurants,bakery,39.92536399999999,116.334276,298.66606734197603
39.92649128342923,116.33745508191828,118,南馨园保龄,ChIJO5v4tCJS8DURR_eGUeoebzE,"1 Bai Wan Zhuang Nan Jie, Xicheng Qu",leisure,bowling_alley,39.9257289,116.3367722,102.84631264707016
39.89862047410536,116.37881209649032,119,好利来,ChIJ__8v2YNS8DURQw8vv9FDaIg,"Zhuang Sheng Shang Zhu Lou, Xicheng Qu",restaurants,bakery,39.8985974,116.3783044,43.38585653069927
39.89862047410536,116.37881209649032,119,万达百货,ChIJu8xc4YNS8DURSCbpK7gXj-w,"Chun Shu Jie Dao, Xicheng Qu",leisure,shopping_mall,39.8991815,116.3783662,73.06540599065146
39.89862047410536,116.37881209649032,119,花园健身场,ChIJHRzuQ4FS8DURKuTcgy2ZXdo,"宣武门外大街,与宣武门西大街路口西南角, Xicheng Qu, Beijing Shi",sport,gym,39.899506,116.377032,180.9833439782042
39.92667005970875,116.33350543992007,120,Starbucks Coffee,ChIJvcUEUSJS8DURvHGdrTaFG7E,"Gan Jia Kou Da Sha, 17 San Li He Lu, Haidian Qu",restaurants,cafe,39.9275046,116.3336067,93.19762770296032
39.92667005970875,116.33350543992007,120,北京歌友娱乐餐饮服务中心,ChIJFzp6XCJS8DURFq_sq1990pM,"车公庄西路10号, Haidian Qu, Beijing Shi",leisure,night_club,39.926962,116.333284,37.5546633696248
39.92667005970875,116.33350543992007,120,Weikai Sports,ChIJKfPEHSJS8DUR8m2AN2qcHa4,"甘家口12, 阜成路北一街, Haidian Qu",sport,gym,39.9269121,116.3312459,194.54529135322556
39.90612497235622,116.2075869480855,121,吉野家,ChIJo_bOXm1F8DURzv1049V8fyU,"You Le Yuan Ting Che Chang Lu, Shijingshan Qu",restaurants,restaurant,39.9081845,116.2079733,231.368252183498
39.90612497235622,116.2075869480855,121,松林公园,ChIJHxii13JF8DURoR2LvMIE9Tk,"W644+5XP, Shijingshan District",leisure,tourist_attraction,39.90546399999999,116.207459,74.3027551999344
39.90612497235622,116.2075869480855,121,Huaqing Chikangti Club,ChIJ5c4mzHNF8DUReV0zK8SD_i4,"61 Lu Gu Lu, Shijingshan Qu",sport,gym,39.9042001,116.2117933,417.7869947912205
39.89690374291459,116.20892254214893,122,Daoxiangcun,ChIJDSbgyaFF8DURbPEG32PT0vk,"Guo Lu Chang Nan Lu, Shijingshan Qu",restaurants,bakery,39.89626,116.20536,312.23368014889144
39.89690374291459,116.20892254214893,122,京源歌厅,ChIJDYoWNHRF8DURhqcdnRCFcQo,"五环, Shijingshan Qu, Beijing Shi",leisure,night_club,39.90013499999999,116.211644,427.77821620267207
39.89690374291459,116.20892254214893,122,Beijing Zhanlong Zichuan Sports Fitness Center,ChIJK6hLJnRF8DURogzHnax4j4w,"Lu Gu Nan Lu, Shijingshan Qu",sport,gym,39.9003878,116.2125465,495.63988043322775
39.87991965505726,116.2608480569652,123,Sichuan Flavor Home Cooking,ChIJ8_xCqg5P8DURhXso-b4BWR0,"Mei Shi Kou Lu, Fengtai Qu",restaurants,restaurant,39.880763,116.260094,113.72756821087674
39.87991965505726,116.2608480569652,123,Tianyuan Park,ChIJvQWUeBJP8DUR27IvZWGNAkU,"Shuang Lin Dong Lu, Fengtai Qu",leisure,tourist_attraction,39.876736,116.257951,431.7804613514503
39.87991965505726,116.2608480569652,123,金三角健身广场,ChIJvRNhNAxP8DURDZ6WFXBi0F4,"小屯村, Fengtai Qu, Beijing Shi",sport,gym,39.879034,116.258809,199.930632189875
39.90027705955666,116.24568244582365,124,庆丰包子铺,ChIJU4uXF5BP8DURCSiq2Q_aOyM,"Diao Su Yuan Nan Jie, Shijingshan Qu",restaurants,restaurant,39.9005594,116.2430986,222.63826095954937
39.90027705955666,116.24568244582365,124,Letian Supermarket,ChIJs8KDqZpP8DURPJPgF6sMNXM,"雕塑园南街, Diao Su Yuan Nan Jie, Shijingshan Qu",leisure,shopping_mall,39.89944,116.242669,273.39429936175446
39.92486694813297,116.19120793215237,125,仟雨林啤酒屋,ChIJoUbTsSNF8DUR5w5JyHuOAS8,"阜石路, Shijingshan Qu, Beijing Shi",restaurants,restaurant,39.924461,116.191303,45.86163575111791
39.92486694813297,116.19120793215237,125,Shiji Hualian Supermarket,ChIJk25v4iFF8DURGgY_Fx6XGPU,"杨庄路, Shijingshan Qu",leisure,shopping_mall,39.922431,116.188141,376.52130468766177
39.92486694813297,116.19120793215237,125,中腾三英健身俱乐部,ChIJWbpHEyJF8DURFcElt2Voi_c,"杨庄路,与杨庄大街路口以东100米路北,石景山社区服务中心二层, Shijingshan Qu, Beijing Shi",sport,gym,39.922633,116.190538,254.88873159746112
39.921972539775766,116.33337933330994,126,Casserole Pot Restaurant,ChIJz_nUYhhS8DUREw5YC-hG-tA,"San Li He Lu, Haidian Qu",restaurants,restaurant,39.92471099999999,116.33397,308.6411668451986
39.921972539775766,116.33337933330994,126,大森林硕达歌舞厅,ChIJN_UWWBhS8DUR23sMhELiiqI,"阜成路, Haidian Qu, Beijing Shi",leisure,night_club,39.923596,116.33388,185.5010369402091
39.939300017214215,116.3630400733299,127,嘉和一品,ChIJpRvS-6xT8DURoXTciBvicAY,"11 Nan Cao Chang Jie, Xicheng Qu",restaurants,restaurant,39.9390934,116.363858,73.42054003409912
39.939300017214215,116.3630400733299,127,博迪娅量贩式KTV,ChIJSwuJDaxT8DUR6p3HWJ5UoPI,"西直门内大街,西桥宾馆内, Xicheng Qu, Beijing Shi",leisure,night_club,39.940578,116.365544,256.44614610401965
39.939300017214215,116.3630400733299,127,Sunny Fitness,ChIJfeeecE1S8DURUsxxyeLb0zE,"66 Xi Zhi Men Nan Xiao Jie, Xicheng Qu",sport,gym,39.93621150000001,116.3595222,455.9592080645381
39.936633481317934,116.35171926875483,128,翼Wing咖啡,ChIJB-Z1DE1S8DUR5_qeGveLLZ4,"68 Xi Zhi Men Nan Xiao Jie, Xicheng Qu",restaurants,cafe,39.93502,116.35244,189.6429678573879
39.936633481317934,116.35171926875483,128,北京盛泽云洲餐饮娱乐有限公司,ChIJ6zsk4EtS8DUREJF_iSd21wg,"北礼士路101号, Xicheng Qu, Beijing Shi",leisure,night_club,39.935049,116.35311,212.3712454477656
39.936633481317934,116.35171926875483,128,Tera Wellness Club,ChIJ62wJ7LRT8DURWbTtpb2ycQQ,"1 Xi Zhi Men Wai Da Jie, Xicheng Qu",sport,gym,39.941017,116.3527942,495.96638015680577
39.9307863226385,116.34671790233048,129,圣玥洋酒家,ChIJ3xw1hjdS8DUR6asUjccyv5E,"6 Che Gong Zhuang Da Jie, Dong Wu Yuan, Xicheng Qu",restaurants,restaurant,39.932274,116.347373,174.5984544120121
39.9307863226385,116.34671790233048,129,外交学院图书馆,ChIJN7IlAD9S8DURkZLVMnirDl8,"24 Zhan Lan Guan Lu, Xicheng Qu",leisure,museum,39.929423,116.3443138,254.95610780255845
39.9307863226385,116.34671790233048,129,悠季瑜伽中心,ChIJL3q-fjdS8DURGoM5lOlJ8D4,"Che Gong Zhuang Da Jie, Dong Wu Yuan, Xicheng Qu",sport,gym,39.9323701,116.3453087,213.19409389498077
39.931215237478696,116.34347438118417,130,Xinhuaguan Karaoke,ChIJ842JdzlS8DUR3exO1oYq3cM,"3 Zhan Lan Guan Lu, Xicheng Qu",restaurants,bar,39.930115,116.3434441,122.3682415867238
39.931215237478696,116.34347438118417,130,Xinhuaguan Karaoke,ChIJ842JdzlS8DUR3exO1oYq3cM,"3 Zhan Lan Guan Lu, Xicheng Qu",leisure,night_club,39.930115,116.3434441,122.3682415867238
39.931215237478696,116.34347438118417,130,悠季瑜伽中心,ChIJL3q-fjdS8DURGoM5lOlJ8D4,"Che Gong Zhuang Da Jie, Dong Wu Yuan, Xicheng Qu",sport,gym,39.9323701,116.3453087,202.36751470676663
39.922487630914944,116.33801446462188,131,柠檬茶语,ChIJlzPGbBZS8DURpuLoL5zNSec,"32 Fu Cheng Men Wai Da Jie, Xicheng Qu",restaurants,cafe,39.9207253,116.3417952,377.2956823576304
39.922487630914944,116.33801446462188,131,鼎鑫湖娱乐餐饮,ChIJX8KhtRdS8DUROUU4dfedkmk,"阜成门外大街, Xicheng Qu, Beijing Shi",leisure,night_club,39.92269599999999,116.339503,129.0348493604354
39.93405379022392,116.3494089265133,132,Leliang Yihao Self-help KTV,ChIJD2m33DdS8DURvoJwsH7IZWk,"Che Gong Zhuang Da Jie, Dong Wu Yuan, Xicheng Qu",restaurants,bar,39.93293,116.347848,182.5592040175842
39.93405379022392,116.3494089265133,132,Duocai Xiyang Veteran Cadre Club,ChIJnffiNkhS8DURxFMJn9e6gEE,"车公庄大街乙5号鸿儒大厦5层DEFG, Che Gong Zhuang Da Jie, Xicheng Qu",leisure,casino,39.9329282,116.3497882,129.27027268357682
39.93405379022392,116.3494089265133,132,悠季瑜伽中心,ChIJe_6AwkhS8DURPNU44_TJDlA,"车公庄大街五栋大厦, Xicheng Qu, Beijing Shi",sport,gym,39.931919,116.352999,387.3601521607964
39.930848202016286,116.33801082488584,133,三好丁酒吧,ChIJ_c114yRS8DURSPnTnwQkziU,"车公庄大街18号, Xicheng Qu, Beijing Shi",restaurants,bar,39.93197500000001,116.334928,291.193995526971
39.930848202016286,116.33801082488584,133,Windsor Sauna Center,ChIJEU1YSiVS8DURRtgPxmZkp0U,"首创股份新大都饭店B1层, 21 Che Gong Zhuang Da Jie, Xicheng Qu",leisure,spa,39.933089,116.3366693,274.1670429876269
39.930848202016286,116.33801082488584,133,Shouchuang International Conference Center Fitness Center,ChIJ8TeoWiVS8DUROU6Iat-7Jl0,"首创国际会议中心B1, Wen Xing Xi Jie, Xicheng Qu",sport,gym,39.9338157,116.336422,356.6977734587849
39.90558889493276,116.3921675944531,134,小肥羊,ChIJ__8PXZdS8DURfhzckYXwgd8,"Lv Ke Zhi Jia ( Qian Hong Jing Hu Tong ), Xicheng Qu",restaurants,restaurant,39.9022593,116.3912162,379.02457627174346
39.90558889493276,116.3921675944531,134,National Centre for the Performing Arts,ChIJc6LnIo5S8DURh6oaL1vsdIs,"2 Xi Chang An Jie, Xicheng Qu, Beijing Shi",leisure,tourist_attraction,39.904799,116.3896712,230.3420414725708
39.94898836378589,116.33449495103484,135,Yuxiang Restaurant,ChIJZ1KP4NNT8DUR0EOvf4PLz1Y,"Da Hui Si Nan Lu, Bei Xia Guan, Haidian Qu",restaurants,restaurant,39.949516,116.332275,198.12312475118785
39.94898836378589,116.33449495103484,135,Beijing Zoo Community Activity Center,ChIJO9oukNJT8DURO28Ac_-JzHw,"西外太平庄9号楼前平房, Qi Xiang Lu, Haidian Qu",leisure,amusement_park,39.94579600000001,116.335862,373.6145942702042
39.94898836378589,116.33449495103484,135,Central Garden Hotel Fitness Center,ChIJAR6puM1T8DURUFtJia7MxJY,"西直门外高粱桥斜街18号中苑宾馆, Qi Xiang Lu, Haidian Qu",sport,gym,39.94705010000001,116.3385936,410.5175214236396
39.90580463963583,116.3829338228846,136,大提琴咖啡厅,ChIJK5MiNY5S8DURcyaA-wLtr_U,"西长安街六部口北新华街1号北京音乐厅二层, Xicheng Qu, Beijing Shi",restaurants,cafe,39.906331,116.382648,63.403386302045575
39.90580463963583,116.3829338228846,136,Shiji Hualian Supermarket,ChIJMXpBro9S8DURh2zcHgoSA18,"8 Da Liu Bu Kou Jie, Xicheng Qu",leisure,shopping_mall,39.9061245,116.3815961,119.51921680629022
39.938306482178575,116.33906733513824,137,富隆酒窖,ChIJXXeH5DFS8DUR58LLYsxVQV4,"工体北路66号瑞士公寓1层, Xicheng Qu, Beijing Shi",restaurants,bar,39.93817,116.337154,163.8303493422433
39.938306482178575,116.33906733513824,137,Beijing Zoo,ChIJPRYRTDJS8DUR5fFsHhL_tW4,"137 Xi Zhi Men Wai Da Jie, Xicheng Qu",leisure,zoo,39.938864,116.33955,74.40784881743792
39.90651198095238,116.32610736190476,138,五月花酒吧,ChIJqQ0zZf9N8DUR43z3eHqeNsQ,"北蜂窝路1-3, Haidian Qu, Beijing Shi",restaurants,bar,39.906772,116.328531,208.74046007617315
39.90651198095238,116.32610736190476,138,北京阿塔卡美食娱乐有限公司,ChIJmwAbOwBO8DURQ2bkED0CYVI,"复兴路9号, Haidian Qu, Beijing Shi",leisure,night_club,39.90813199999999,116.322948,324.14428773850466
39.90651198095238,116.32610736190476,138,雪婷舍宾好健康中心,ChIJWVegwwBO8DURQwT9In391SM,"羊坊店路,玉渊潭中学北侧, Haidian Qu, Beijing Shi",sport,gym,39.90502800000001,116.322924,317.74102885899856
39.90553080013834,116.30206406229308,139,Xiaoqiyuan Tea House,ChIJG-pS1xhO8DURXssWTO5m40k,"22 Fu Xing Lu, Gong Zhu Fen / Wan Shou Lu, Haidian Qu",restaurants,cafe,39.90668000000001,116.30186,128.9653837759183
39.90553080013834,116.30206406229308,139,天虹商场,ChIJ31R5lxhO8DUR2m5ckVmVb2k,"Cui Wei Lu, Gong Zhu Fen / Wan Shou Lu, Haidian Qu",leisure,shopping_mall,39.9077498,116.3020882,246.75046506756703
39.90553080013834,116.30206406229308,139,生日派对网,ChIJ0wWKixhO8DURdeLN1T8Q38M,"翠微路18号（近翠微大厦）, Haidian Qu, Beijing Shi",sport,gym,39.906906,116.302547,158.36673783400934
39.90331574422307,116.2147317603783,140,茅台集团,ChIJldxJbnFF8DURFpkIqQuazm4,"鲁谷路, Shijingshan Qu, Beijing Shi",restaurants,liquor_store,39.90352699999999,116.213695,91.50305493398668
39.90331574422307,116.2147317603783,140,Xi Longduoxin International Shopping Center,ChIJo0fRDnFF8DUR9LdZt3KrqAY,"Cui Yuan Xi Jie, Shijingshan Qu",leisure,shopping_mall,39.90362499999999,116.214746,34.40916735063378
39.90331574422307,116.2147317603783,140,Huaqing Chikangti Club,ChIJ5c4mzHNF8DUReV0zK8SD_i4,"61 Lu Gu Lu, Shijingshan Qu",sport,gym,39.9042001,116.2117933,269.2511731294311
39.90572447978975,116.3442592615966,141,Wedome,ChIJ7fI69glS8DUR0DqLZYpu_eY,"Bai Yun Lu, Xicheng Qu",restaurants,bakery,39.9049485,116.3426105,164.99633446179394
39.90572447978975,116.3442592615966,141,China Workers Home Bowling Hall,ChIJK72lVQpS8DUREGIcAE5UktI,"1 Zhen Wu Miao Lu, Xicheng Qu",leisure,bowling_alley,39.905567,116.345475,105.16808791555208
39.90572447978975,116.3442592615966,141,浩沙长安商场店,ChIJP4YQjgtS8DUR0necGf0Weg8,"复兴门外大街15号长安商场, Xicheng Qu, Beijing Shi",sport,gym,39.907823,116.344938,240.41978094455104
39.90451761199314,116.36718048521828,142,Xi'an Snacks,ChIJxb28L3xS8DURx8g5LmwNZcc,"佟麟阁路甲48, Tong Lin Ge Lu, Xicheng Qu",restaurants,restaurant,39.902993,116.368593,207.98449916040877
39.90451761199314,116.36718048521828,142,北京景遥饮食娱乐宫,ChIJvzquDXxS8DUR2ZoeDMdS7gc,"新文化街60号地下室, Xicheng Qu, Beijing Shi",leisure,night_club,39.903941,116.366853,69.93744257608707
39.90451761199314,116.36718048521828,142,健身场,ChIJi00kAXtS8DURPwPUFt4Nf84,"W947+GF6, Xicheng District",sport,gym,39.906286,116.363628,361.23034895585926
39.90741048759042,116.46604814878896,143,SPR COFFEE,ChIJtV95OAet8TURmqwzUkd4tkg,"Jian Guo Lu, Jian Wai Da Jie, Chaoyang Qu",restaurants,cafe,39.9070535,116.4650578,93.33469150951574
39.90741048759042,116.46604814878896,143,礼想商城,ChIJjw99sACt8TURuzjFNMemS_8,"建国路2, Chaoyang Qu, Beijing Shi",leisure,shopping_mall,39.908081,116.465684,80.7687074172163
39.90741048759042,116.46604814878896,143,进步健身中心,ChIJwSuPCKqt8TURWPDe5whDDaE,"建国门外大街, Chaoyang Qu, Beijing Shi",sport,gym,39.90764600000001,116.465416,59.94261448612494
39.91114633658123,116.35338444736792,144,Malan Noodles,ChIJuUtZvG1S8DUR_lCKbtGl1jg,"15 Nan Li Shi Lu, Xicheng Qu",restaurants,restaurant,39.912559,116.35245,176.14335149293436
39.91114633658123,116.35338444736792,144,Nanlishilu Park,ChIJ7TqPcnJS8DURP3hi_gC51X8,"南礼士路, Nan Li Shi Lu, Xicheng Qu",leisure,tourist_attraction,39.911046,116.35392,47.02073066878211
39.91114633658123,116.35338444736792,144,蝉舟瑜伽馆,ChIJUeHpKm5S8DURhR8lMQAUzVU,金融街丰汇园13 号楼1楼,sport,gym,39.910141,116.35732,353.79529046658007
39.965476376322336,116.3251107368468,145,金凤成祥北三环店,ChIJNc7L8F9R8DURTbgPAaeZX0g,"北三环西路48-2, Haidian Qu, Beijing Shi",restaurants,bakery,39.966579,116.324679,128.00818802190653
39.965476376322336,116.3251107368468,145,双安商场,ChIJl370IeBT8DURY-NlZ4fhXQI,"38 Bei San Huan Xi Lu, Haidian Qu, Beijing Shi",leisure,shopping_mall,39.9668717,116.3253301,156.27535355354698
39.965476376322336,116.3251107368468,145,北京蝉舟瑜伽馆,ChIJI1Dlit9T8DUR6I8rdAnxMNk,"中关村南大街甲6号铸诚大厦B座603, Haidian Qu, Beijing Shi",sport,gym,39.964498,116.325085,108.81274608233008
39.92346758464227,116.34823508070646,149,Costa Coffee （West Gate）,ChIJxTtj5kNS8DUReQ1x3aSDP4s,"1 Fu Cheng Men Wai Da Jie, Xicheng Qu",restaurants,cafe,39.9229368,116.3485026,63.27613579251911
39.92346758464227,116.34823508070646,149,Guobin Club,ChIJlXAS9UBS8DURw2DNx9VG3Lg,"5 Fu Cheng Men Wai Da Jie, Fu Cheng Men, Xicheng Qu",leisure,night_club,39.923908,116.34978,140.5513348233041
39.92346758464227,116.34823508070646,149,浩沙健身,ChIJO4hwgkFS8DUR4Ap_XOagXy4,北京市西城区阜成门外大街2号万通新世界大厦A座6楼,sport,gym,39.92281500000001,116.353958,493.3939219255482
39.94881462921,116.349198283584,150,京凯迪酒吧,ChIJqeg6PshT8DURTVPYeACoW-w,"交大东路,伯金ktv广场西侧,交大嘉园交通大学路1号院6号楼底商, Haidian Qu, Beijing Shi",restaurants,bar,39.94956699999999,116.347323,180.4244328254548
39.94881462921,116.349198283584,150,Beijing Jiaotong University Tianjing Playground,ChIJzzNRyMlT8DURRNUtZEdMtDo,"Jiao Da Dong Lu, Bei Xia Guan, Haidian Qu",leisure,stadium,39.94795799999999,116.347243,191.97539910278468
39.94881462921,116.349198283584,150,Feili Pool Room,ChIJhTd94rdT8DURaXtj4RycR00,"Jiao Tong Da Xue Lu, Bei Xia Guan, Haidian Qu",sport,gym,39.94968989999999,116.3480519,137.91985589328817
39.86485363667148,116.34667978122502,151,Hualusiyu Singing Hall Karaoke,ChIJt7gqbTVM8DURptPYq_0N5qE,"菜户营桥向南辅路西侧200米, Cai Hu Ying Qiao, Fengtai Qu",restaurants,bar,39.8632955,116.3471664,178.16567121132292
39.86485363667148,116.34667978122502,151,Hualusiyu Singing Hall Karaoke,ChIJt7gqbTVM8DURptPYq_0N5qE,"菜户营桥向南辅路西侧200米, Cai Hu Ying Qiao, Fengtai Qu",leisure,night_club,39.8632955,116.3471664,178.16567121132292
39.86485363667148,116.34667978122502,151,冰上世界溜冰场,ChIJgRK47cpN8DURSeBNYbQ3zwc,"菜户营甲362号, Fengtai Qu, Beijing Shi",sport,gym,39.866356,116.346809,167.41905712875206
39.89526223680072,116.41187686463442,152,咖世家咖啡,ChIJNwaAxEyt8TURmBkrYr1r_m0,"18 Chong Wen Men Wai Da Jie, Chong Wen Men, Dongcheng Qu",restaurants,cafe,39.8974212,116.4132773,268.15094884749453
39.89526223680072,116.41187686463442,152,Beijing Labor Protect Utensils Company,ChIJ1fx0Ia9S8DUR3NSunGKPJO0,"9 Zhu Shi Kou Dong Da Jie, Dongcheng Qu",leisure,shopping_mall,39.893394,116.41029,247.9572027932918
39.89526223680072,116.41187686463442,152,Beijing Quanshuntang Fitness Leisure Club,ChIJQ96aya5S8DUR9QElxq8ZlVc,"6 Zhu Shi Kou Dong Da Jie, Dongcheng Qu",sport,gym,39.8923819,116.4118633,320.28138236782627
39.906883284167726,116.40818239079285,153,真锅咖啡馆,ChIJr13DIshS8DURKufAVjxZSzA,"WC55+2M4, Dongcheng",restaurants,cafe,39.907505,116.409194,110.56453335265684
39.906883284167726,116.40818239079285,153,宝德龙健康生活馆,ChIJu2fDIshS8DURk34C8n-rWcA,"东四环中路82号金长安大厦A座607, Dongcheng Qu, Beijing Shi",leisure,stadium,39.907505,116.409194,110.56453335265684
39.906883284167726,116.40818239079285,153,北京饭店康乐中心,ChIJ0yG1sslS8DURzxdowq3E4PQ,"33 Dong Chang An Jie, Dong Dan, Dongcheng Qu",sport,gym,39.9083573,116.407687,169.26236509072987
40.05144653826201,116.29441857161888,154,Shihuiju,ChIJN5FWQTlW8DURQ99khDD4z3k,"Hou Chang Cun Lu, Haidian Qu",restaurants,restaurant,40.05375,116.294288,256.3746147569417
40.05144653826201,116.29441857161888,154,Zhongguancun Software Park,ChIJ80lLjT5W8DURpT1ZRBs0AgQ,"Ruan Jian Yuan San Hao Lu, Haidian Qu",leisure,park,40.052681,116.296558,228.03894805432455
40.05144653826201,116.29441857161888,154,中关村软件园康体中心,ChIJZana1EZW8DURlYlOL0hGzTU,"东北旺8号院中关村软件园3号楼, Haidian Qu, Beijing Shi",sport,gym,40.047035,116.295375,497.2508868815172
39.92714978172715,116.32768544431582,155,好利来,ChIJobvmtCFS8DURjm-AzFqKPrw,"Zeng Guang Lu, Haidian Qu",restaurants,bakery,39.9281405,116.3280075,113.5343174162128
39.92714978172715,116.32768544431582,155,北京古夜郎美食娱乐城,ChIJ0dEEFiBS8DURlkV8j3yHETY,"增光路30号, Haidian Qu, Beijing Shi",leisure,night_club,39.928029,116.326389,147.57691799037067
39.92714978172715,116.32768544431582,155,威凯体育运动健身会所,ChIJk8-rHiJS8DUR1LQPURtDBHo,"甘家口12, Haidian Qu, Beijing Shi",sport,gym,39.92690399999999,116.331196,300.59475385264113
40.00674467870085,116.1978071718462,156,水杉栈道,ChIJC_fIy8db8DURsRtg2zkoPIc,"Unnamed Road, Haidian Qu, Beijing Shi",leisure,museum,40.007636,116.1970264,119.35273501624876
40.011144743502605,116.19362604854608,157,石上松,ChIJOUK-FZNb8DURmZa6EfiYug8,"Unnamed Road, Haidian Qu, Beijing Shi",leisure,museum,40.01053810000001,116.1943583,91.8667183176217
39.97172461068566,116.3162415831756,158,密斯蒂卡酒吧,ChIJfUkY91xR8DURmcN7g-st9ZU,"双榆树人大东门对面, Haidian Qu, Beijing Shi",restaurants,bar,39.97117100000001,116.315821,71.23214943164523
39.97172461068566,116.3162415831756,158,中国人民大学法学院图书馆,ChIJ5SYIG11R8DURPS8i2p6x8j0,"中关村大街59号, Haidian Qu, Beijing Shi",leisure,museum,39.970209,116.315166,191.8409298984892
39.97172461068566,116.3162415831756,158,良子健身,ChIJpekXQVlR8DURBPlG_6O-fg4,"知春里27号楼, Haidian Qu, Beijing Shi",sport,gym,39.972739,116.320281,362.2283901870184
39.9065559128524,116.183193735553,159,在线KTV,ChIJFYP9pwFF8DURsHlmxYyR5qk,"古城南街1号,与石景山路路口西南侧,好世界宾馆二层, Shijingshan Qu, Beijing Shi",restaurants,bar,39.906683,116.186127,250.5966939583526
39.9065559128524,116.183193735553,159,Wu Mart Living Supermarket,ChIJz6xmOf5E8DURo7PyIeAD2P0,"老古城大楼9, Nan Hu Tong, Shijingshan Qu",leisure,shopping_mall,39.907869,116.182076,174.37886368003515
39.9065559128524,116.183193735553,159,Sanzu Fitness Center,ChIJ48f3MAJF8DURMicSecIuUHA,"Lao Gu Cheng Qian Jie, Shijingshan Qu",sport,gym,39.909339,116.18555,369.0000575310742
39.90696235133021,116.1863810725128,160,在线KTV,ChIJFYP9pwFF8DURsHlmxYyR5qk,"古城南街1号,与石景山路路口西南侧,好世界宾馆二层, Shijingshan Qu, Beijing Shi",restaurants,bar,39.906683,116.186127,37.87522016794644
39.90696235133021,116.1863810725128,160,Haoshijie Club,ChIJmxw5CAFF8DURFx_Ar4yAz14,"古城南大街1号, Gu Cheng Nan Jie, Shijingshan Qu",leisure,night_club,39.906754,116.18624,26.106176365599485
39.90696235133021,116.1863810725128,160,Sanzu Fitness Center,ChIJ48f3MAJF8DURMicSecIuUHA,"Lao Gu Cheng Qian Jie, Shijingshan Qu",sport,gym,39.909339,116.18555,273.61351840823914
40.002972410942505,116.4015109205885,161,Tokugawa,ChIJHc-zW99U8DURkukZ7KrfWZU,"Bei Chen Dong Lu, Ao Yun Cun, Chaoyang Qu",restaurants,restaurant,40.00439609999999,116.4008178,168.95725716905508
40.002972410942505,116.4015109205885,161,Huaxia Liangzi,ChIJO8TQ5NhU8DURXA3MzuHqOdo,"Da Tun Lu, Chaoyang Qu",leisure,spa,40.00215069999999,116.4038355,218.06641206518623
40.002972410942505,116.4015109205885,161,第五大道青岛健身店,ChIJeURYbdhU8DURVXBwegtonOU,"大屯路慧忠北里309号,与安立路路口以西约50米路北, Chaoyang Qu, Beijing Shi",sport,gym,40.002875,116.406056,387.2864944673522
39.93538991136819,116.3263044188488,162,Shanxi Pasta,ChIJnx2XvydS8DURCbHFYOzVqeA,"Shou Du Ti Yu Guan Nan Lu, Haidian Qu",restaurants,restaurant,39.9354443,116.326524,19.674265019491315
39.93538991136819,116.3263044188488,162,海阔天空歌舞广场,ChIJW3sJnidS8DURQ6HdINigld4,"首都体育馆南路, Haidian Qu, Beijing Shi",leisure,night_club,39.934487,116.326066,102.4365453233018
39.93538991136819,116.3263044188488,162,新世纪饭店健身中心,ChIJQbVNvidS8DURhq6xd7bBtbA,"2 Shou Du Ti Yu Guan Nan Lu, Haidian Qu",sport,gym,39.9353433,116.3265245,19.46697278051121
40.04088242892699,116.30368109317932,163,Wushan Roast Whole Fish,ChIJgdph8mtW8DUR7lt3ZegvPdQ,"Shang Di Xi Lu, Haidian Qu",restaurants,restaurant,40.0421403,116.3029508,153.06312659434428
40.04088242892699,116.30368109317932,163,完美风暴,ChIJf1sWkmlW8DUR5LGxI_KCyvY,"28R3+Q7R, Haidian District",leisure,night_club,40.041987,116.303155,130.73335071053322
40.04088242892699,116.30368109317932,163,Zuxia Shiguang Leisure Fitness Chamber,ChIJU0c5HGpW8DURljwfVfcQt5I,"Shang Di Xi Lu, Haidian Qu",sport,gym,40.0433319,116.3023592,294.6997210123289
40.00585397044112,116.34261903074884,164,巴山隆快餐,ChIJO-q8qKBW8DURNZ_3MBBSdNY,"30 Shuang Qing Lu, Haidian Qu",restaurants,restaurant,40.0053812,116.3409392,152.4288728085688
40.00585397044112,116.34261903074884,164,Hualian Supermarket,ChIJl2-eJTpU8DUR2pJLc-VWn5I,"Lin Ye Da Xue Bei Lu, Haidian Qu",leisure,shopping_mall,40.007788,116.34211,219.38125816318805
39.834058341269845,116.279992431167,165,好利来,ChIJzRD80ChJ8DURlkUiH3X2b80,"Kan Dan Qiao, Fengtai Qu",restaurants,restaurant,39.83417,116.28304,260.5186563838085
39.834058341269845,116.279992431167,165,Xiezi Park,ChIJh4hD8yhJ8DURpJlIq9ZgyfE,Fengtai District,leisure,park,39.8339133,116.2810751,93.84223791683468
39.834058341269845,116.279992431167,165,Mingweicheng Fitness Center,ChIJo8QexC5J8DUR4rhpD_rn4lk,"4 Fu Feng Lu, Fengtai Qu",sport,gym,39.8351049,116.2847794,424.985223997836
39.97304465868969,116.38189263015036,166,Xuanzhuan Coffee Shop,ChIJfcEB4YJU8DURP8kGvq-CU_w,"中国国际科技会展中心C座, 12 Yu Min Lu, Chaoyang Qu",restaurants,cafe,39.97296499999999,116.3823254,37.92690289922277
39.97304465868969,116.38189263015036,166,Xinqidian Karaoke,ChIJ_RirHYNU8DURjpx0yQdykak,"中国国际科技会展中心B座, 12 Yu Min Lu, Chaoyang Qu",leisure,night_club,39.97373899999999,116.382461,91.14116107340844
39.97304465868969,116.38189263015036,166,裕中健身俱乐部,ChIJHSWwRp1U8DURs5tQqW9TQvA,"裕中西里35号楼迤北, Xicheng Qu, Beijing Shi",sport,gym,39.97126799999999,116.385046,333.5204100764849
39.936016770201874,116.31977351261072,167,新世纪日航饭店金诚园中餐厅,ChIJvyBA6IdR8DURH1SA0arV_xY,北京海淀区首体南路6号新世纪日航饭店3楼,restaurants,restaurant,39.93615,116.3218,173.41238541436678
39.936016770201874,116.31977351261072,167,和风KTV,ChIJCcXt8ItR8DURai6zgTooCVU,"车公庄西路21号, Haidian Qu, Beijing Shi",leisure,night_club,39.93293,116.319612,343.50981146620114
39.936016770201874,116.31977351261072,167,鑫龙辉健身时尚,ChIJpekx-oVR8DURU4oMbL9RJBs,"紫竹院路, Haidian Qu, Beijing Shi",sport,gym,39.93902,116.318458,352.2759507494869
39.81994658864805,116.27683714096928,168,Dacha Art Gallery,ChIJu-7qRh5J8DURYlPv6yOjqEY,"南四环西路188号十区37, Liu Quan Xi Lu, Fengtai Qu",restaurants,cafe,39.820249,116.279453,225.92235401298856
39.81994658864805,116.27683714096928,168,Yukang Park （East Gate）,ChIJS0GHgx5J8DURd3Phegs_WCo,"Liu Quan Xi Lu, Fengtai Qu",leisure,park,39.818543,116.281186,402.8753175102903
39.81994658864805,116.27683714096928,168,衡湘会馆,ChIJYyjRFh9J8DURQoLsOE6qZuI,"南四环西路188号十一区, Fengtai Qu, Beijing Shi",sport,gym,39.821269,116.281801,448.71024911816033
39.820919374384594,116.2835477818832,169,臻·咖啡,ChIJgRQROx9J8DURviJasGi6nUo,"南四环西路188号十一区22号楼, Fengtai Qu, Beijing Shi",restaurants,cafe,39.82099700000001,116.282627,79.11011949635716
39.820919374384594,116.2835477818832,169,China Geography Symbol Cultural Museum,ChIJIeWcEB9J8DUR86lzNBIp7lo,"南四环西路188号十一区28, 七号路(临), Fengtai Qu",leisure,museum,39.821149,116.281637,165.1723818174016
39.820919374384594,116.2835477818832,169,衡湘会馆,ChIJYyjRFh9J8DURQoLsOE6qZuI,"南四环西路188号十一区, Fengtai Qu, Beijing Shi",sport,gym,39.821269,116.281801,154.16310393322135
39.95690227227005,116.4265536825976,170,北京万家渔火饮食文化有限公司,ChIJ_xtg2Kus8TURNoH50_TrHrw,"He Ping Li Dong Jie, Dongcheng Qu",restaurants,restaurant,39.95737359999999,116.4250853,135.6861333246135
39.95690227227005,116.4265536825976,170,Zhongqing Xinghe Club Karaoke,ChIJhdIje6ms8TURfW3tlInNOOw,"12 He Ping Li Dong Jie, Dongcheng Qu",leisure,night_club,39.957438,116.425818,86.49010144626432
39.95690227227005,116.4265536825976,170,轩隆台球俱乐部,ChIJNY6Eaams8TURN9p5ySapVkc,"XC4G+PG5, Dongcheng",sport,gym,39.95676999999999,116.42636,22.11001286333098
39.95812807123184,116.42735387421024,171,北京万家渔火饮食文化有限公司,ChIJ_xtg2Kus8TURNoH50_TrHrw,"He Ping Li Dong Jie, Dongcheng Qu",restaurants,restaurant,39.95737359999999,116.4250853,210.7729748714276
39.95812807123184,116.42735387421024,171,博金时代俱乐部,ChIJrZ-ECKms8TUR1AeieXlPp84,"和平里中街, Dongcheng Qu, Beijing Shi",leisure,night_club,39.957384,116.427481,83.44354808318081
39.95812807123184,116.42735387421024,171,轩隆台球俱乐部,ChIJNY6Eaams8TURN9p5ySapVkc,"XC4G+PG5, Dongcheng",sport,gym,39.95676999999999,116.42636,173.1481487008712
39.98125145589555,116.38521960958796,172,Wedome,ChIJ47fReI9U8DUR-pGd2R750o0,China,restaurants,bakery,39.98124599999999,116.380881,369.6663612664639
39.98125145589555,116.38521960958796,172,Jingmin Hotel Sauna Bathroom,ChIJ6ZURMJBU8DURFSWYIaHKJ8E,"华严里10号京民大厦, Min Zu Yuan Xi Lu, Chaoyang Qu",leisure,spa,39.9819093,116.3847632,82.84339477904372
39.98125145589555,116.38521960958796,172,红山火,ChIJ2dxhR5FU8DURxe6nMsvBlro,"1 Min Zu Yuan Lu, Chaoyang Qu, Beijing Shi",sport,gym,39.9810394,116.3816512,304.9553541396535
40.05412659217553,116.60861363401231,173,上岛咖啡,ChIJlVm586AI8TUR1YYOze0_9h8,"3J25+QX4, Shunyi District",restaurants,cafe,40.0518922,116.6099392,272.8707994217607
39.93009813143551,116.42127041514972,174,乐宝小吃系列,ChIJpzfzTdKs8TURNOyd9aPFkeg,"东四六条27号, Dongcheng Qu, Beijing Shi",restaurants,cafe,39.930134,116.423107,156.6517631513878
39.93009813143551,116.42127041514972,174,东四奥林匹克社区中老年生殖器官俱乐部,ChIJMVikwdSs8TURAp1VJ_KI5BQ,"东四三条47号东10米, Dongcheng Qu, Beijing Shi",leisure,stadium,39.926703,116.420714,380.4916043253325
39.93009813143551,116.42127041514972,174,蝉舟瑜伽馆,ChIJsSMunitT8DUR4rEoso0v5Zo,Dongcheng,sport,gym,39.928131,116.416394,469.82931685967617
39.99674946366328,116.29179808869138,175,Weiduomei,ChIJyyHYDs5W8DURsi_bTL7GUhc,"Yi He Yuan Lu, Haidian Qu",restaurants,bakery,39.9978049,116.2912997,124.80227675473034
39.99674946366328,116.29179808869138,175,Liangliyuan,ChIJ_9T90s1W8DURDIILBBYug_Y,"中直路, Haidian Qu",leisure,park,39.997265,116.292309,71.97423780635607
39.99674946366328,116.29179808869138,175,吾乐汇娱乐场地,ChIJ6ZKhIktR8DURFq6rjluH9Zs,"8 Yi He Yuan Lu, Haidian Qu",sport,gym,39.9984923,116.2903603,229.25252780485056
39.71386638644689,116.35769425746336,176,Lihua Restaurant,ChIJm7q6vLA18DUR9cB8Mowu4FI,"Xi Sheng Jie Wu Tiao, Daxing Qu",restaurants,restaurant,39.7178207,116.355483,478.6535210479632
39.71386638644689,116.35769425746336,176,Haizijiaocun Culture Courtyard （East Gate）,ChIJVbeG6LY18DUR1aAMb-Ho1LA,"Hai Zi Jiao Dong Jie, Daxing Qu",leisure,amusement_park,39.716139,116.352783,490.23393593821856
39.89839572066887,116.59607340222954,177,Tianchengju,ChIJSQjNQWav8TURkwYLceComvw,"管庄, Shuang Qiao Zhong Lu, Chaoyang Qu",restaurants,restaurant,39.8952961,116.5980632,384.19592263445634
39.89619399406643,116.59774000808802,178,Tianchengju,ChIJSQjNQWav8TURkwYLceComvw,"管庄, Shuang Qiao Zhong Lu, Chaoyang Qu",restaurants,restaurant,39.8952961,116.5980632,103.57846890406988
39.95555130330644,116.31671746440038,179,Old Bike Cafe,ChIJ8XoGp3tR8DURbLpk3HwBHv8,"魏公村5号3层, Min Zu Da Xue Xi Lu, Haidian Qu",restaurants,cafe,39.955673,116.317031,29.95517274277967
39.95555130330644,116.31671746440038,179,北京大富豪餐饮娱乐有限公司,ChIJQX_-DHtR8DURU5dAYI7R5Go,"魏公村路5号, Haidian Qu, Beijing Shi",leisure,night_club,39.956143,116.317402,87.93835963359024
39.95555130330644,116.31671746440038,179,利龙跆拳道俱乐部,ChIJKfzKn3BR8DURfdugAV5r8Is,"2 Xi San Huan Bei Lu, Haidian Qu",sport,gym,39.95487,116.31353,282.0518905569578
39.88507556520224,116.43659855079862,180,Xiaoxiang Home,ChIJGWN8s16t8TURPfngVJEeQo4,"Guang Ming Zhong Jie, Dongcheng Qu",restaurants,restaurant,39.8848609,116.4372758,62.5213313799988
39.88507556520224,116.43659855079862,180,Chongwen District Library,ChIJy5ysul6t8TURpqYIN6O4xck,"光明23号楼, Dongcheng Qu, Beijing Shi",leisure,museum,39.88497499999999,116.437855,107.78643803781554
39.88507556520224,116.43659855079862,180,Beijing Kaidehua Club,ChIJC5jcbFmt8TURVjuVJ5msVrE,"1 Guang Ming Xi Jie, Dongcheng Qu",sport,gym,39.8851,116.435,136.42109528756623
39.99897504614576,116.33820901039472,181,Kure Pub,ChIJuXoryBdU8DUR35m6EeyYpwI,"1 Wang Zhuang Lu, Wu Dao Kou, Haidian Qu",restaurants,bar,39.999497,116.339141,98.34105708983948
39.99897504614576,116.33820901039472,181,Xianshuigong Karaoke,ChIJ4YgLNxZU8DURH-ljqWWpWnc,"东王庄33-8, Wang Zhuang Lu, Haidian Qu",leisure,night_club,39.9993524,116.3403064,183.5198526128855
39.99897504614576,116.33820901039472,181,East Beauty Women's Club,ChIJswGa0RVU8DUR_CrNQL36fW0,"西郊宾馆9号楼B1层, 18 Wang Zhuang Lu, Haidian Qu, Beijing Shi",sport,gym,39.99761579999999,116.343053,439.43329241711217
39.88195489374356,116.4068403129812,182,天坛餐厅,ChIJe2o5bFpN8DURTpffIbcTwY8,"VCJ4+J26, Dongcheng",restaurants,restaurant,39.88153,116.405005,163.5747969523154
39.88195489374356,116.4068403129812,182,Temple of Heaven,ChIJ65H_GWBN8DURag4RO0UVLDc,"1 Tian Tan Dong Lu, Dongcheng Qu, Beijing Shi",leisure,tourist_attraction,39.88218029999999,116.4066056,32.082789035653335
39.876220835591,116.40675075816884,183,西安小吃,ChIJ2cE4K0RN8DUR_Wa990CXT6g,"永定门东街天坛南里西区, Dongcheng Qu, Beijing Shi",restaurants,cafe,39.874766,116.404571,246.51513243700296
39.876220835591,116.40675075816884,183,天坛南里影剧院,ChIJiYw5FEZN8DURwJK7_PpMFXg,"永内东街中里1号, Dongcheng Qu, Beijing Shi",leisure,movie_theater,39.873093,116.406408,349.02771954042606
39.89050730357439,116.39277553416768,184,开菲尔现酿酸奶屋,ChIJZ5f_KmJN8DUR7bh2spB542c,"两广大道陕西巷（近晋阳饭庄）, Xicheng Qu, Beijing Shi",restaurants,bakery,39.890307,116.389703,263.0837011605338
39.89050730357439,116.39277553416768,184,红前纺商场,ChIJc4GjsWFN8DURIjr4ddJaGO0,"珠市口西大街131号,太丰惠中大厦北侧, Xicheng Qu, Beijing Shi",leisure,shopping_mall,39.890238,116.392348,47.193325243351794
39.91964587341313,116.36735578157656,185,Koufuju Hot Pot Restaurant,ChIJOy0Mxl1S8DURgKAdQ9--wa0,"93 Bing Ma Si Hu Tong, Xicheng Qu",restaurants,restaurant,39.9193109,116.365129,193.51997075593653
39.91964587341313,116.36735578157656,185,萱梦缘歌厅,ChIJPxlzwV1S8DURrN5jgG3YmrU,"兵马司胡同, Xicheng Qu, Beijing Shi",leisure,night_club,39.919111,116.365077,203.2337854562551
39.91964587341313,116.36735578157656,185,竞之杰健身,ChIJZ3TOhWBS8DURHIG_916eWPY,"辟才胡同,宏汇园17号楼三层, Xicheng Qu, Beijing Shi",sport,gym,39.916359,116.368798,385.6250982323352
39.96701540043493,116.34355101110576,186,星巴克,ChIJLTmrCexT8DUR8JsV7m1eKo4,"Da Zhong Si Zhong Kun Guang Chang Bu Xing Jie, Bei Xia Guan, Haidian Qu",restaurants,cafe,39.96622190000001,116.3435819,88.27260716530832
39.96701540043493,116.34355101110576,186,hQ Shangke,ChIJl6OCFOxT8DURd-BpWcQ1FTM,China,leisure,shopping_mall,39.966871,116.343828,28.548758815180427
39.96701540043493,116.34355101110576,186,夜时尚,ChIJ8XpSyuhT8DURr9__sRjILRY,"大钟寺收藏品市场后门, Haidian Qu, Beijing Shi",sport,gym,39.967164,116.338399,439.3724960628384
40.03738992787745,116.33468131883632,187,斑鸠鸟量贩式KTV,ChIJt3Kybd1V8DURIV8gntdjf5k,"安宁庄东路,毛纺北小区南门北侧路东, Haidian Qu, Beijing Shi",restaurants,bar,40.039025,116.334705,181.82315876079943
40.03738992787745,116.33468131883632,187,Beijing FEOSO Qingchen Medicine Commercial Building,ChIJCx2K1txV8DUR5h_vSHNW_LQ,"An Ning Zhuang Dong Lu, Haidian Qu",leisure,shopping_mall,40.03715499999999,116.336342,143.77330441124235
40.03738992787745,116.33468131883632,187,Yazi Woman Fitness,ChIJD0FfKN1V8DURd5YqfrZzBBk,"清河小营, An Ning Zhuang Dong Lu, Haidian Qu",sport,gym,40.037362,116.336158,125.75372882117088
40.21957541143338,116.25189307885805,188,Milan Xidian,ChIJvfKMKLn68DURR_EqGTuARBc,"亢山路石油大学东门对面, Kang Shan Lu, Changping Qu",restaurants,restaurant,40.21859549999999,116.2507628,145.19787501932248
40.21957541143338,116.25189307885805,188,新世纪亢山商场,ChIJX_OMKLn68DURxRkqlf0fK50,"亢山路, Changping Qu, Beijing Shi",leisure,shopping_mall,40.218598,116.250919,136.57335860847712
40.21957541143338,116.25189307885805,188,Dazhaimen Kangti Center,ChIJ9dgrPLj68DURh0X2MkgeKPk,"Fu Xue Lu, Changping Qu",sport,gym,40.2214798,116.2524098,216.2555866128056
40.222685971542425,116.21882627008908,189,一帝亚咖啡店,ChIJ2_mraQ3w8DURf61OlGvGcK0,"政府街新新广场二区北侧圆角底商房三层, Changping Qu, Beijing Shi",restaurants,cafe,40.22223399999999,116.219592,82.17268278459044
40.222685971542425,116.21882627008908,189,Dalvshu Pub,ChIJD1p-Pg3w8DURgk_ANGDZrNk,"Zheng Fu Jie Xi Lu, Changping Qu",leisure,night_club,40.221878,116.2204354,163.51280360547997
40.222685971542425,116.21882627008908,189,Longshi Leisure Hall,ChIJbzdJuA3w8DURk-coIfTwN3M,"Xi Guan Lu, Changping Qu",sport,gym,40.2239754,116.2207606,218.0085365762872
40.219673758777446,116.2381329056144,190,Jiahe Yipin Zhou,ChIJp7A-g6P68DURv6FoalI1GWY,"新新公寓写字楼, 2 Zheng Fu Jie, Changping Qu",restaurants,restaurant,40.2206605,116.2395849,165.0364536457779
40.219673758777446,116.2381329056144,190,Changping Park （East Gate）,ChIJAYjxD6P68DURp784bQDwIOA,"东环路, Changping Qu",leisure,park,40.218331,116.239298,179.10588670220665
40.219673758777446,116.2381329056144,190,Dayi Billiards,ChIJz0zNqrz68DUREnfVttgO84w,"Fu Xue Lu, Changping Qu",sport,gym,40.2202024,116.2422652,355.7441695304806
40.22049563254678,116.2588858434756,191,Mouthful Su,ChIJU51hosj68DURIXgPVqlYEro,"Fu Xue Lu, Changping Qu",restaurants,bakery,40.221412,116.258587,105.00712066224514
40.22049563254678,116.2588858434756,191,Xinfeng Electric Bicycle Shopping Mall,ChIJh-u6TM_68DURtVkPYgDInyw,"Fu Xue Lu, Changping Qu",leisure,shopping_mall,40.2215628,116.2600386,153.81919316764282
40.22049563254678,116.2588858434756,191,七度台球俱乐部,ChIJFZ_21sf68DURNnydeAvKemY,"67C4+GJF, Changping District",sport,gym,40.221307,116.256553,217.6480053937716
34.26432094774928,117.20190834002209,192,Royal Yihao Pub,ChIJOWS5GcEHxjURWTOMzaEbinM,"Huang He Dong Lu, Yunlong Qu, Xuzhou Shi",restaurants,bar,34.2639991,117.2011795,75.93996213407272
34.26432094774928,117.20190834002209,192,Aoke Ballroom,ChIJsTGH-8MHxjURFEqB9f9Yc_U,"Da Ma Lu, Gulou Qu, Xuzhou Shi",leisure,night_club,34.26609699999999,117.20241,202.79764591511028
34.26432094774928,117.20190834002209,192,Mister Cultural Palace Fitness Club,ChIJ2w_2e-oHxjURI0JeSG2tx_Q,"Wen Hua Lu, Gulou Qu, Xuzhou Shi",sport,gym,34.2648197,117.1965047,499.6645020569635
32.01735792075528,120.83051577455292,193,Hongbaoshi Pub,ChIJUdTumrx5sTUR_bTGiXcN_fU,"Ren Min Xi Lu, Chongchuan Qu, Nantong Shi",restaurants,bar,32.0138353,120.8321008,419.2372630943645
32.01735792075528,120.83051577455292,193,Trust-Mart Supermarket,ChIJRxhHgrx5sTURj9BKhkFFQFU,"附近, 90 Ren Min Xi Lu, Chongchuan Qu, Nantong Shi",leisure,shopping_mall,32.014099,120.832548,409.9124804812847
32.0560704085175,121.27149008868572,194,Surun Shopping Plaza,ChIJ0_K2fMXqsTURPDB94EsEaVk,"375F+8PX, Haimen, Nantong",leisure,shopping_mall,32.05835699999999,121.274363,371.41443951848606
32.0601409893611,121.27050022581668,195,Surun Shopping Plaza,ChIJ0_K2fMXqsTURPDB94EsEaVk,"375F+8PX, Haimen, Nantong",leisure,shopping_mall,32.05835699999999,121.274363,414.5612868489471
32.05792764450477,121.27226128094634,196,Maiduozi Cake,ChIJ7RbGHcXqsTUR2W8ZyICIS7o,"Ren Min Lu, Haimen Shi, Nantong Shi",restaurants,bakery,32.057407,121.276812,432.7471128869083
32.05792764450477,121.27226128094634,196,Surun Shopping Plaza,ChIJ0_K2fMXqsTURPDB94EsEaVk,"375F+8PX, Haimen, Nantong",leisure,shopping_mall,32.05835699999999,121.274363,203.736533586318
31.999522200049885,120.8425986067278,197,Ziyan Baiwei Chicken,ChIJ-YPsh6l5sTUR14yU3ffc6U4,"Wai Huan Xi Lu, Chongchuan Qu, Nantong Shi",restaurants,restaurant,32.00051169999999,120.8439192,166.17417207400234
31.999522200049885,120.8425986067278,197,Hongqiao Sports Park,ChIJ3zAMtKt5sTURsTojZLpMGAg,China,leisure,park,32.001025,120.845939,356.5739725572152
31.999522200049885,120.8425986067278,197,南通市崇川区虹桥社区体育健身中心,ChIJDVJfu6t5sTURFcejkTKBOsc,"2R2W+JF5, Chongchuan District, Nantong",sport,gym,32.001522,120.846237,408.8533324524286
32.01740798132772,120.86146594542838,198,Yuanzu,ChIJ44Yohzd4sTURy6Nts2bcirQ,"环城西路, Huan Cheng Xi Lu, Chongchuan Qu, Nantong Shi",restaurants,bakery,32.0167704,120.8611947,75.36727324412225
32.01740798132772,120.86146594542838,198,Nantong Traditional Chinese Medicine Cultural Museum,ChIJnzcAaDd4sTURnzG2TjIv-0c,"Huan Cheng Xi Lu, Chongchuan Qu, Nantong Shi",leisure,museum,32.018515,120.860652,145.0560744752033
32.01740798132772,120.86146594542838,198,Tianhe Fitness,ChIJSeXf8zZ4sTURAo87O_Jv03I,"10 Hao Xi Lu, Chongchuan Qu, Nantong Shi",sport,gym,32.01862119999999,120.8577348,376.7539536323749
32.01488559920635,120.85853434988512,199,Ye Shanghai Entertainment Town,ChIJldP6LDZ4sTURgNFCvq2lp3o,"97 Ren Min Zhong Lu, Chongchuan Qu, Nantong Shi",restaurants,bar,32.015668,120.8583719,88.33705567685453
32.01488559920635,120.85853434988512,199,Longting No.8 Chamber,ChIJuQDhzzd4sTURLWJSw9iDVQo,"Ren Min Zhong Lu, Chongchuan Qu, Nantong Shi",leisure,casino,32.0156828,120.8591117,104.02403020161016
32.01488559920635,120.85853434988512,199,Jinshibao Fitness Chamber,ChIJTR8-GTZ4sTURVMfnU0748k0,"Ren Min Zhong Lu, Chongchuan Qu, Nantong Shi",sport,gym,32.01612889999999,120.8568,214.1293209229852
31.96898106571476,120.8935270832894,200,Starbucks,ChIJedFMX554sTUR8-wri3iefEI,"32 中南城, Chongchuan Qu, Nantong Shi",restaurants,cafe,31.9684168,120.8930122,79.34573590029196
31.96898106571476,120.8935270832894,200,Party Show KTV,ChIJBeNHd554sTUR2kpjwrzaNJU,"Wei San Lu, Chongchuan Qu, Nantong Shi",leisure,night_club,31.96953999999999,120.893758,65.85735081566249
32.23266454061241,120.7605405622482,201,Heji Restaurant,ChIJZ_91ktcMsTURJ35m3G9vlPg,"6QP5+FVF, Rugao, Nantong",restaurants,restaurant,32.236186,120.759668,400.0772757915493
32.23266454061241,120.7605405622482,201,Wei'erkang Shopping Mall,ChIJFzSHtSkNsTUR9Va2MMn0x-o,"6QM4+XJ7, Rugao, Nantong",leisure,shopping_mall,32.234923,120.756537,452.6228833026368
32.24138381775334,120.7571472708615,202,Wanjiafa Cake Shop,ChIJ0wbGeycNsTURq5AmbZh_eHo,"6QR4+4XX, Rugao, Nantong",restaurants,bakery,32.24036,120.757488,118.26777479829376
32.24138381775334,120.7571472708615,202,Center Shopping Mall,ChIJZdGTH9kMsTURX4n4SnPMoyg,"Pu Dong Lu, Rugao Shi, Nantong Shi",leisure,shopping_mall,32.2403389,120.7610975,389.2648915519376
32.23676205182689,120.75210826743104,203,华东酒楼,ChIJP_ttqSgNsTURpPkg50tsTgQ,"6QQ3+C33, Rugao, Nantong",restaurants,restaurant,32.238505,120.752665,200.75634136786744
32.23676205182689,120.75210826743104,203,Dafuhao Shopping Mall,ChIJPWN7RS8NsTURrFbNLwZZBVk,"Tong Yang Lu, Rugao Shi, Nantong Shi",leisure,shopping_mall,32.2382756,120.751578,175.53338630246654
32.00319263014415,120.84164857538111,204,Haoxianglai,ChIJffxaw6h5sTURVRuq9U5Yv_I,"Wai Huan Xi Lu, Chongchuan Qu, Nantong Shi",restaurants,restaurant,32.0036602,120.840453,124.1481507256033
32.00319263014415,120.84164857538111,204,Century Wenfeng,ChIJuYnb86h5sTURYKR_6iurtvg,"Zhong Yuan Lu, Chongchuan Qu, Nantong Shi",leisure,shopping_mall,32.0025765,120.8402215,151.00347091833896
32.00319263014415,120.84164857538111,204,南通市崇川区虹桥社区体育健身中心,ChIJDVJfu6t5sTURFcejkTKBOsc,"2R2W+JF5, Chongchuan District, Nantong",sport,gym,32.001522,120.846237,470.8649140873466
39.99412311351553,116.44540920580788,205,Hele Bento Wangcheng Shop,ChIJU0oEL-Cq8TURetjCPI3trWE,"Hu Guang Qiao, Chaoyang Qu",restaurants,restaurant,39.99428599999999,116.445358,18.63005225906483
39.99412311351553,116.44540920580788,205,Wangcheng Park,ChIJp5fYqeOq8TURGHz6Wr351Os,Chaoyang,leisure,park,39.9952133,116.4538742,731.2259597020883
39.98615921013607,116.44958287581872,206,星巴克,ChIJRdTGVhir8TURU-HcdwjkKRs,"Bei Si Huan Dong Lu, Wang Jing, Chaoyang Qu",restaurants,cafe,39.9864144,116.4454714,351.43482770567067
39.98615921013607,116.44958287581872,206,Wanghe Park South Park （South Gate 3）,ChIJ_SpVBhmr8TUR3MT9s3gUWYA,"Bei Si Huan Dong Lu Fu Lu, Wang Jing, Chaoyang Qu",leisure,tourist_attraction,39.986554,116.446509,265.53997934518696
39.98615921013607,116.44958287581872,206,蝉舟瑜伽馆,ChIJRdTGVhir8TURedvW1gDS7qs,"Bei Si Huan Dong Lu, Wang Jing, Chaoyang Qu",sport,gym,39.9864144,116.4454714,351.43482770567067
39.993395724356965,116.44155013713204,207,小毛驴,ChIJ--xyQCSr8TURyCPAl5spWcY,"亚运村北四环居然之家（近富成花园）, Chaoyang Qu, Beijing Shi",restaurants,restaurant,39.990459,116.438677,408.09776515261217
39.993395724356965,116.44155013713204,207,Fucheng Garden Club Tennis Court,ChIJyYwjlyGr8TURiKu8UCXVovc,"89 Bei Si Huan Dong Lu, Chaoyang Qu",leisure,stadium,39.99111500000001,116.440937,258.9285053587629
40.05002541471576,116.30101270420808,208,百度大厦员工食堂,ChIJm6DOLT5W8DURffwxPrPsuJE,"10 Shang Di Shi Jie, Haidian Qu",restaurants,restaurant,40.05095379999999,116.3008006,104.79865845023794
40.05002541471576,116.30101270420808,208,国际时尚幼儿健身房,ChIJ-zc4_hVW8DUR3qDfOf3_Tsc,"上地十街1号辉煌国际6号楼350号, Haidian Qu, Beijing Shi",leisure,stadium,40.052821,116.301564,314.3770390522421
40.0522288586068,116.40166264056592,209,楚园汉枫,ChIJZ9oVNfD_8DUREs44UMyOZM8,"3C23+6V5, Changping District",restaurants,restaurant,40.050517,116.404735,323.44940108987004
40.04052093164272,116.40829619550011,210,吉野家,ChIJq6qajVhV8DURmabbtrPyfzo,"Chen Ying He Xie Jia Yuan, Changping Qu",restaurants,restaurant,40.0412448,116.4039428,379.24186486554817
40.04052093164272,116.40829619550011,210,Wu Mart,ChIJF4yqDvn_8DURQbXUd3novTQ,"An Li Lu, Chaoyang Qu",leisure,shopping_mall,40.043831,116.410915,430.31348427292295
40.04374709647645,116.41333837398552,211,Weiduomei,ChIJU--2Kf__8DURxk0VYpZlYno,"北苑路5号, Chaoyang Qu",restaurants,bakery,40.04208000000001,116.41399,193.4945455913022
40.04374709647645,116.41333837398552,211,Jingkelong Supermarket,ChIJj4mFHPz_8DURrBwQcw209tA,"Bei Yuan Lu Fu Lu, Chaoyang Qu",leisure,shopping_mall,40.044743,116.414379,141.8107245293767
40.046048758475166,116.41455718882104,212,Xinjiang Talimu Restaurant,ChIJaQ6mafz_8DURt6l-CexHLMY,"Bei Yuan Lu Fu Lu, Chaoyang Qu",restaurants,restaurant,40.045981,116.414799,21.919288450340183
40.046048758475166,116.41455718882104,212,Jingkelong Supermarket,ChIJj4mFHPz_8DURrBwQcw209tA,"Bei Yuan Lu Fu Lu, Chaoyang Qu",leisure,shopping_mall,40.044743,116.414379,145.9840620708349
40.04030331757874,116.41648682736434,213,Weiduomei,ChIJU--2Kf__8DURxk0VYpZlYno,"北苑路5号, Chaoyang Qu",restaurants,bakery,40.04208000000001,116.41399,290.18579973478955
40.04030331757874,116.41648682736434,213,Xinchengshi Plaza,ChIJR0IPbf__8DURP3n8P8nMA8Y,"Bei Yuan Lu, Chaoyang Qu",leisure,shopping_mall,40.039882,116.4156605,84.5178694288187
40.04030331757874,116.41648682736434,213,英派斯健身,ChIJ__8_3gEA8TURH1SypaPYInw,"Bei Yuan Jia Yuan, Chaoyang Qu",sport,gym,40.0419179,116.4196656,324.7459123989334
39.957069345630046,116.30977206663492,214,KTV,ChIJ3XiMNXFR8DURrz1Aif3ZauE,"西三环北路19号-1, Haidian Qu, Beijing Shi",restaurants,bar,39.955632,116.308731,182.80644296530903
39.957069345630046,116.30977206663492,214,付食百货,ChIJUbkB_3NR8DURRnGtB0o7IQk,"X844+9RR, Haidian District",leisure,shopping_mall,39.955976,116.307031,263.3725437292382
39.957069345630046,116.30977206663492,214,利龙跆拳道俱乐部,ChIJKfzKn3BR8DURfdugAV5r8Is,"2 Xi San Huan Bei Lu, Haidian Qu",sport,gym,39.95487,116.31353,402.9955009336399
39.9374419150639,116.36657536194448,215,85°C,ChIJsTl5q1RS8DURxVwkGPXDEGE,"Xiao Cheng Xiang, Xicheng Qu",restaurants,bakery,39.9363877,116.3666107,117.26224463884655
39.9374419150639,116.36657536194448,215,比利亚娱乐城,ChIJqyeCq6xT8DURmc8RQHj2uaM,"东冠英胡同甲26号, Xicheng Qu, Beijing Shi",leisure,night_club,39.936849,116.365924,86.20163919263993
39.9374419150639,116.36657536194448,215,美体中心,ChIJ9_dNUaxT8DUR2ZoxpIhbEzg,"南草厂街甲11号, Xicheng Qu, Beijing Shi",sport,gym,39.939937,116.363732,368.4278897293927
39.95020673992064,116.36538495892285,216,Jinkewen Karaoke,ChIJ01fSgKRT8DURwBWHFnni0Sc,"Wen Hui Yuan Xie Jie, Bei Tai Ping Zhuang, Haidian Qu",restaurants,bar,39.9515177,116.3631094,242.64140704995728
39.95020673992064,116.36538495892285,216,Donghai Mingyue Club,ChIJgxhKQKRT8DUROLAE7haahsc,"北太平庄, Bin He Lu, Haidian Qu",leisure,casino,39.950084,116.364651,64.03584243776574
39.95020673992064,116.36538495892285,216,云川台球城,ChIJXwrOd6NT8DURFbf4oZiKUJI,"Wen Hui Yuan Lu, Bei Tai Ping Zhuang, Haidian Qu",sport,gym,39.95257549999999,116.3632461,320.3383562915096
39.90816168566242,116.30419219644382,217,北京新生代资产拍卖有限公司,ChIJRV9lvxhO8DUROxGJMW09kf8,"复兴路33号翠微大厦东塔14层, Haidian Qu, Beijing Shi",restaurants,bar,39.90817599999999,116.303899,25.058740322261784
39.90816168566242,116.30419219644382,217,北京新生代资产拍卖有限公司,ChIJRV9lvxhO8DUROxGJMW09kf8,"复兴路33号翠微大厦东塔14层, Haidian Qu, Beijing Shi",leisure,night_club,39.90817599999999,116.303899,25.058740322261784
39.90816168566242,116.30419219644382,217,科雯瑜伽,ChIJN-j7xBhO8DURfD64M2XhIfo,"复兴路33号翠微大厦b1都市丽人, Haidian Qu, Beijing Shi",sport,gym,39.90802999999999,116.303384,70.47305971735435
39.89056595577462,116.28845777201016,218,Drinking Bar,ChIJ2UGiFEVO8DUReN7Q5lkd814,"Dian Chang Lu, Fengtai Qu",restaurants,bar,39.889294,116.29108,264.67992282109896
39.89056595577462,116.28845777201016,218,Beijing Uranus Self-help KTV,ChIJAVhMyE9O8DURU46y5vRkVkw,"靛厂路商业街4号楼, Dian Chang Lu, Fengtai Qu",leisure,night_club,39.889878,116.28713,136.69158783489095
39.89056595577462,116.28845777201016,218,北京欧奕健身俱乐部,ChIJ_xETL0RO8DUR9vBuZPuElpM,"金家村288号院, Fengtai Qu, Beijing Shi",sport,gym,39.891723,116.293108,417.0786037275631
39.95391935359944,116.3037356609764,219,番呈番美食小吃,ChIJ26bYyXVR8DURYVNNOBnKDXY,"X834+986, Haidian District",restaurants,cafe,39.953412,116.305776,182.8360140676733
39.95391935359944,116.3037356609764,219,Qiyuan Park,ChIJ67U3-nNR8DURaLAALQqZTMQ,"Chang Wa Dong Er Jie, Haidian Qu",leisure,park,39.956285,116.306631,360.69207796220047
39.95391935359944,116.3037356609764,219,健身场,ChIJh9UWmwpR8DURdx61oxsLvR4,"厂洼街17号院2号楼, Haidian Qu, Beijing Shi",sport,gym,39.953343,116.299227,389.6171090446743
39.953833419258416,116.30728910412022,220,番呈番美食小吃,ChIJ26bYyXVR8DURYVNNOBnKDXY,"X834+986, Haidian District",restaurants,cafe,39.953412,116.305776,137.22317523206016
39.953833419258416,116.30728910412022,220,娱乐中心,ChIJf6FQt3ZR8DURhRH2c6NemHo,"西三环北路23号院, Haidian Qu, Beijing Shi",leisure,night_club,39.954928,116.308384,153.3738505512869
39.953833419258416,116.30728910412022,220,Beijing Foreign Studies University Tennis Court,ChIJL2MctHBR8DURaiEGm73_LxE,"19 Xi San Huan Bei Lu, Haidian Qu",sport,gym,39.955731,116.306378,224.83928359283075
31.25021164646792,121.45261422509644,221,滋味美汉堡奶茶屋,ChIJm0HeZS9wsjURi2xBZoM4CI4,"秣陵路330号, 闸北区, Shanghai Shi",restaurants,bakery,31.248839,121.453092,159.24579623533046
31.25021164646792,121.45261422509644,221,太阳城昆仑舞厅,ChIJHTmO9CVwsjURHtqNNbXbAEA,"恒丰路601号,机电大厦北侧路东,上海邮电大厦内, 闸北区, Shanghai Shi",leisure,night_club,31.24790100000001,121.452621,256.93333465283354
31.25021164646792,121.45261422509644,221,上海广场长城假日酒店健身中心,ChIJbdrVmyVwsjURR1TV4v-V5II,"585 Heng Feng Lu, Huo Che Zhan, 闸北区",sport,gym,31.2468313,121.4534727,384.63532291097135
39.9699175957124,116.4199561637804,222,Guizhou Mansion Peony Hall,ChIJpVnkOq1U8DUR8m0C37mrd0k,"18 樱花西街, Chaoyang Qu",restaurants,restaurant,39.970104,116.418458,129.3417734322942
39.9699175957124,116.4199561637804,222,蓝泊湾国际撞球馆,ChIJp-vVy1Kr8TURQJhDGS4ZE0w,"和平里15区11号楼, Chaoyang Qu, Beijing Shi",leisure,night_club,39.97006,116.419754,23.399545292416065
39.9699175957124,116.4199561637804,222,Shenqi Liliang Gymnasium,ChIJbUXrcLJU8DUR2tCDD4p4bNs,"Ying Hua Yuan Xi Jie, Chaoyang Qu",sport,gym,39.97282500000001,116.415605,491.9353479678181
40.008790236871896,116.32735717894414,223,小桥煎饼屋,ChIJswgZpCBU8DURrAah6hMWDMI,"双清路30号清华大学内23号楼旁, Haidian Qu, Beijing Shi",restaurants,restaurant,40.00799,116.325346,193.0253682948156
40.008790236871896,116.32735717894414,223,Archives Hall,ChIJ--uSCiBU8DURNmhvQ3lihIA,"284G+429, Haidian District",leisure,museum,40.00529,116.325115,433.5357784088988
39.98730684606161,116.3819876554869,224,Northeast Dumpling House,ChIJGUisDI5U8DURENgAcxz9Z9A,"Hua Ting Xi Jie, Chaoyang Qu",restaurants,restaurant,39.984982,116.382518,262.4305144006236
39.98730684606161,116.3819876554869,224,信息大学操场,ChIJiaVQBY1U8DURpUXagJZ1PyQ,"北三环中路, Chaoyang Qu, Beijing Shi",leisure,stadium,39.988453,116.381737,129.22337644815096
39.98730684606161,116.3819876554869,224,良子健身,ChIJGQ6bsY1U8DURyQZ8JPDYWN4,"8 Bei Si Huan Zhong Lu, Chaoyang Qu",sport,gym,39.987238,116.381449,46.52555710064543
39.99112024045196,116.3884382342069,225,Costa Coffee,ChIJCdOp9YlU8DURwwVsX4cGM-o,China,restaurants,cafe,39.989251,116.3866,260.2433002280696
39.99112024045196,116.3884382342069,225,Beijing National Aquatics Center,ChIJWefHV-lU8DUR9cx2VyFtB94,"11 Tian Chen Dong Lu, Chaoyang Qu, Beijing Shi",leisure,tourist_attraction,39.9929036,116.3903618,257.24761517501537
39.99112024045196,116.3884382342069,225,National Indoor Stadium （South Gate）,ChIJEb4JJelU8DUR0IggeB8H1tA,"慧忠路隧道, Chaoyang Qu",sport,gym,39.9948158,116.3907374,455.2192452926356
39.912416532110655,116.39074924102104,226,程府宴,ChIJpVdRy5RS8DURpralOV4EFQs,"38 Nan Chang Jie, Xicheng Qu",restaurants,restaurant,39.9125674,116.3917227,84.70363104172354
39.912416532110655,116.39074924102104,226,长安街百货商场,ChIJ2be_DetS8DURAwA_B-_hrkQ,"南长街, Xicheng Qu, Beijing Shi",leisure,shopping_mall,39.913133,116.391623,109.0893574224242
39.84727578813795,116.27682663546848,227,丰乐小吃,ChIJeXhr7NVO8DURuQUtMPC0k_k,"丰台西路, Fengtai Qu, Beijing Shi",restaurants,cafe,39.846657,116.278743,177.4820516515842
39.84727578813795,116.27682663546848,227,奥翔商场,ChIJJ1PiDCpP8DUReZEsq8fhL0M,"正阳大街, Fengtai Qu, Beijing Shi",leisure,shopping_mall,39.846927,116.277166,48.41000440202495
39.84727578813795,116.27682663546848,227,金宝路恒诚健身,ChIJ60u1ritP8DURkKJiw1IHsxw,"丰台西路,医院南侧以西约150米路南, Fengtai Qu, Beijing Shi",sport,gym,39.84662300000001,116.274299,227.66812481879472
39.950033876715146,116.31355438081135,228,Shengxiang Restaurant,ChIJOwtmN3hR8DUR2kDhhGS7s18,"Fa Hua Si Lu, Haidian Qu",restaurants,restaurant,39.951088,116.314357,135.7196868171346
39.950033876715146,116.31355438081135,228,民族合作社自选商场,ChIJJ5MsynlR8DURX7ucFRtFvYc,"法华寺路, Haidian Qu, Beijing Shi",leisure,shopping_mall,39.951912,116.314436,221.9480717036185
39.91334031182694,116.4051341043531,229,Subway Restaurant,ChIJIcO0DcVS8DURaNtcOQfZVxk,"17 Dong Hua Men Da Jie, Dongcheng Qu",restaurants,restaurant,39.915437,116.405833,240.6405765377916
39.91334031182694,116.4051341043531,229,Beijing Taxation Museum,ChIJpYi51MVS8DURzX4aHsyyF6M,"东华门, Pu Du Si Qian Xiang, Dongcheng Qu",leisure,museum,39.913098,116.404689,46.552217533911545
39.91334031182694,116.4051341043531,229,东华门社区菖蒲健身娱乐中心,ChIJH2c9wMdS8DUR9iZ-q-6mbb8,"南河沿大街, Dongcheng Qu, Beijing Shi",sport,gym,39.90893499999999,116.406204,498.276126071935
39.93580147577224,116.4259026773647,230,Gule Mingxuan,ChIJM1Jf8c6s8TUR4MsBacx-UDE,"北门仓6-12号, Dong Si Shi Tiao, Dongcheng Qu",restaurants,cafe,39.934052,116.427179,222.90172299213737
39.93580147577224,116.4259026773647,230,Liangqichao Former Residence,ChIJqatyk8us8TUR9Kvb3X34UdU,"23 Bei Gou Yan Hu Tong, Dong Zhi Men, Dongcheng Qu",leisure,tourist_attraction,39.93777499999999,116.423676,290.1682875153096
39.93580147577224,116.4259026773647,230,Xinxing 168 Pool Room,ChIJs6BXi86s8TURaoFHPIMlFZY,"Dong Si Shi Tiao, Dongcheng Qu",sport,gym,39.93404349999999,116.4264564,201.09861033012905
39.88967189008786,116.35694043307564,231,85 Du C Coffee Dangao Hongbei Franchise Store,ChIJp0_IT5BN8DUR47BJ2geOnMg,"广安门内大街甲306, Guang An Men Nei Da Jie, Xicheng Qu",restaurants,bakery,39.8890276,116.3580214,116.78284795083164
39.88967189008786,116.35694043307564,231,Beijing Cephalostachyum Museum,ChIJkVS5JJBN8DURJaoJf1KuYMg,"小星胡同, Xicheng Qu",leisure,tourist_attraction,39.89029540000001,116.3584497,146.24539266996206
39.88967189008786,116.35694043307564,231,胜利保龄球中心,ChIJOZr1p5ZN8DURjbhRv92m_Rk,"白广路二条宣武体育场, Xicheng Qu, Beijing Shi",sport,gym,39.886111,116.354465,448.7608806337235
38.88553056776558,121.5554514482222,232,棋牌茶艺,ChIJo9ArjkFhjzURWue20msJzdw,"龙江路, Shahekou Qu, Dalian Shi",restaurants,cafe,38.883191,121.557893,335.168382232821
38.88553056776558,121.5554514482222,232,Sunjiagou Store,ChIJ1a3LnmphjzUR8lA3v-XPc7E,"Xi Nan Lu, Shahekou Qu, Dalian Shi",leisure,shopping_mall,38.8852249,121.5602497,416.69939117421177
38.88553056776558,121.5554514482222,232,ceragem喜来健医疗器械免费体验中心,ChIJ965-x0FhjzURkqGeadBLPiI,"龙江路32号, Shahekou Qu, Dalian Shi",sport,gym,38.884056,121.558429,305.45960221070624
38.92919051819825,121.52940814167606,233,Daxigou Mutton Restaurant,ChIJE32DvTZnjzURvZNGrJKGaU4,"Hong Qi Xi Lu, Ganjingzi Qu, Dalian Shi",restaurants,restaurant,38.9296711,121.5303315,96.09937118348005
38.92919051819825,121.52940814167606,233,Lehaha Supermarket,ChIJxbLfbzRnjzURngv_FYYmQ6Q,"Hong Qi Xi Lu, Ganjingzi Qu, Dalian Shi",leisure,shopping_mall,38.92832019999999,121.5333624,355.4768959773831
38.92919051819825,121.52940814167606,233,Red Banner Fitness Assembly Hall,ChIJmfJ6vDNnjzURQuq-sMMCbLs,"Hong Qi Xi Lu, Ganjingzi Qu, Dalian Shi",sport,gym,38.926301,121.533215,460.0819090456355
38.92778648817081,121.52766621826794,234,Daxigou Mutton Restaurant,ChIJE32DvTZnjzURvZNGrJKGaU4,"Hong Qi Xi Lu, Ganjingzi Qu, Dalian Shi",restaurants,restaurant,38.9296711,121.5303315,311.5594191731583
38.92778648817081,121.52766621826794,234,Lehaha Supermarket,ChIJxbLfbzRnjzURngv_FYYmQ6Q,"Hong Qi Xi Lu, Ganjingzi Qu, Dalian Shi",leisure,shopping_mall,38.92832019999999,121.5333624,496.2956311441168
38.91813264686392,121.55208491838344,235,润合祥茶艺休闲会所,ChIJt24HTNtgjzURaToTuRxEn_8,"鹏程街32-2-1号, Shahekou Qu, Dalian Shi",restaurants,cafe,38.916805,121.55306,170.03095655248862
38.91813264686392,121.55208491838344,235,The iKa Place,ChIJVxN59sNgjzURp86HWv7qclw,"马栏南街, Ma Lan Nan Jie, Shahekou Qu, Dalian Shi",leisure,shopping_mall,38.919207,121.553167,151.7734359416654
38.91813264686392,121.55208491838344,235,Weide Wusi Fitness Chamber,ChIJUyxKv8NgjzURE5M853Qkn-4,"1107 Huang He Lu, Shahekou Qu, Dalian Shi",sport,gym,38.9195785,121.5558071,359.9229855867159
38.91878185941315,121.55894125765032,236,Space 8 Du Self-help KTV,ChIJ4yTqRsJgjzURiKTi6uR7YNI,"Lan Tian Jie, Shahekou Qu, Dalian Shi",restaurants,bar,38.91892960000001,121.5579749,85.20206420388072
38.91878185941315,121.55894125765032,236,Space 8 Du Self-help KTV,ChIJ4yTqRsJgjzURiKTi6uR7YNI,"Lan Tian Jie, Shahekou Qu, Dalian Shi",leisure,night_club,38.91892960000001,121.5579749,85.20206420388072
38.91878185941315,121.55894125765032,236,Weide Wusi Fitness Chamber,ChIJUyxKv8NgjzURE5M853Qkn-4,"1107 Huang He Lu, Shahekou Qu, Dalian Shi",sport,gym,38.9195785,121.5558071,285.249740690805
38.90752613172384,121.58076507090686,237,口福面包,ChIJXeL83fhgjzURi95TVzuVlq4,"Shahekou District, Dalian",restaurants,bakery,38.905365,121.580179,245.59983487701703
38.90752613172384,121.58076507090686,237,网络阵线,ChIJDUZOofdgjzURmzfB3akxQnU,"黄河路, Shahekou Qu, Dalian Shi",leisure,night_club,38.9104,121.580117,324.442605491006
38.90752613172384,121.58076507090686,237,Fu Ru Yuan Leisure Center,ChIJoSaqb_lgjzURpWgGm70RsGI,"Hong Ye Jie, Shahekou Qu, Dalian Shi",sport,gym,38.90654999999999,121.577828,276.34774237818715
38.90913156855089,121.58287627462114,238,Hesheng Self-help KTV,ChIJZ3mzgFhgjzURh6bUwgSDJLU,"732 Huang He Lu, Shahekou Qu, Dalian Shi",restaurants,bar,38.9105879,121.5830229,162.43309971352642
38.90913156855089,121.58287627462114,238,怡东娱乐广场,ChIJAUHEf1hgjzURhsNlSJyqv5o,"WH6M+54M, Shahekou District, Dalian",leisure,night_club,38.910457,121.582783,147.60226696174004
38.90913156855089,121.58287627462114,238,Dalian Taihe Pool Room,ChIJESQl5VhgjzURWs9-Z04XkTM,"Huang He Lu, Shahekou Qu, Dalian Shi",sport,gym,38.91055299999999,121.585022,243.82541930877963
38.91747320594617,121.62837731282012,239,Bread Talk,ChIJBe8w5amKhTURpen-h7q4FJ4,"大公街15-2号, Zhongshan Qu, Dalian Shi",restaurants,bakery,38.91751629999999,121.6286731,26.034951468307185
38.91747320594617,121.62837731282012,239,Dalian University of Technology Haichuan Athletic Field,ChIJLaPfYgJgjzURgoPDs9uWvhM,"Ying Hua Jie, Xigang Qu, Dalian Shi",leisure,stadium,38.916046,121.627515,175.35943148930696
38.91747320594617,121.62837731282012,239,爱杉瑜伽,ChIJHekRdqqKhTURfJInwPHwZT0,辽宁省大连市中山区长江路333号香榭里广场M层,sport,gym,38.91971199999999,121.628093,250.1551119347198
38.95191869823324,121.55369448587516,240,Jingyixuan,ChIJG71U2BtejzURiuYQaMbFSjw,"Guo Dong Jie, Ganjingzi Qu, Dalian Shi",restaurants,cafe,38.95147499999999,121.553982,55.24749950759711
38.95191869823324,121.55369448587516,240,Guodong Comprehensive Emporium,ChIJq6QK2RtejzURlEx5SZzhPCM,"Guo Dong Jie, Ganjingzi Qu, Dalian Shi",leisure,shopping_mall,38.9514691,121.5538353,51.45468008405951
39.98735905749253,116.416905370629,241,Golden Phoenix,ChIJkQICgcxU8DURdj74n4yFw2o,"9 Hui Xin Xi Jie, Chaoyang Qu",restaurants,bakery,39.9867627,116.4167049,68.47620052934263
39.98735905749253,116.416905370629,241,天富有缘夜总会,ChIJB26-WMxU8DURnZnf__hv5cc,"惠新西街1号,安徽大厦内, Chaoyang Qu, Beijing Shi",leisure,night_club,39.988169,116.416367,101.06860200189126
39.98735905749253,116.416905370629,241,Ruili 100 Fitness,ChIJKywtr8xU8DURugyiQi3w-qk,"Hui Xin Bei Jie, Chaoyang Qu",sport,gym,39.9861551,116.4188199,211.0161112963233
39.95065468313208,116.43928593598608,242,北京稻香村,ChIJJ3bWSqKs8TUR3KCBtR_kJbA,"左家庄西街5号院5号楼, Chaoyang Qu, Beijing Shi",restaurants,bakery,39.950751,116.440067,67.43523629513074
39.95065468313208,116.43928593598608,242,Shiji Hualian Supermarket,ChIJLy_kyqOs8TURRVLuocVnYjk,"Zuo Jia Zhuang Xi Jie, Chaoyang Qu",leisure,shopping_mall,39.951052,116.439927,70.27061505773825
39.95065468313208,116.43928593598608,242,第一会所,ChIJwZgcMqOs8TURuhf8TtKqFKk,"Xiang He Yuan Lu, Dongcheng Qu",sport,gym,39.9477336,116.4393742,324.89721477834763
39.949168681986656,116.43559004447562,243,库布里克,ChIJa55xh6Ss8TURrFs7D4mHIvc,China,restaurants,cafe,39.949891,116.436684,123.073238212246
39.949168681986656,116.43559004447562,243,Beijing Museum of Tap Water,ChIJ7U2ME7us8TUR7fO6FLSNa-E,"甲6号院内, Dong Zhi Men Bei Da Jie, Dongcheng Qu",leisure,tourist_attraction,39.946902,116.435317,253.1163435074354
39.949168681986656,116.43559004447562,243,第一会所,ChIJwZgcMqOs8TURuhf8TtKqFKk,"Xiang He Yuan Lu, Dongcheng Qu",sport,gym,39.9477336,116.4393742,359.8903917620159
39.9595916443903,116.29707784635306,244,北京宝月缘大连海鲜美食花园,ChIJa8vytHFW8DURl_YBEN-YyBk,Haidian District,restaurants,restaurant,39.95970999999999,116.298012,80.69891798717674
39.9595916443903,116.29707784635306,244,中间艺术馆,ChIJA9-HWQxR8DUR2PiRI1fjsl4,Haidian District,leisure,museum,39.95970999999999,116.298012,80.69891798717674
39.9595916443903,116.29707784635306,244,英派斯健身,ChIJL2k6VwxR8DURbIrUGP1YQNI,Haidian District,sport,gym,39.95991199999999,116.298056,90.66005661949714
39.914034357115376,116.400743292968,245,红百合餐吧,ChIJOcw09cRS8DURVqBVqPBdSzY,"北池子大街, Dongcheng Qu, Beijing Shi",restaurants,bakery,39.915713,116.40316,278.0703243351962
39.914034357115376,116.400743292968,245,北京好心情汽车俱乐部,ChIJ0y97XsRS8DURjBZcPi5mJ2c,"85 Dong Hua Men Da Jie, Dongcheng Qu",leisure,night_club,39.915325,116.403124,248.64101480838448
39.914034357115376,116.400743292968,245,武源合气武术健身俱乐部,ChIJKbmOwsBS8DUR51AncVCeRyM,"天安门东侧劳动人民文化宫三殿, Dongcheng Qu, Beijing Shi",sport,gym,39.91081399999999,116.400273,360.3273880339931
39.94244657060486,116.45590048388996,246,瑜舍咖啡厅,ChIJFU2SdZKs8TURQ6Bz5Vu8j0I,"三里屯路11号院1号瑜舍酒店1楼, Chaoyang Qu, Beijing Shi",restaurants,cafe,39.941319,116.455424,131.7965706865421
39.94244657060486,116.45590048388996,246,Beijing Friendship Supermarket,ChIJX4rL-o-s8TUR4QMuACw2Adw,"7 San Li Tun Lu, Chaoyang Qu",leisure,shopping_mall,39.94308669999999,116.4547627,120.31253166313284
39.95119207130026,116.22214492911031,247,巨杉银花金苹果啤酒屋量贩式KTV,ChIJPcQl-aFa8DURhOGCCei9Xs4,"杏石口路, Haidian Qu, Beijing Shi",restaurants,bar,39.951517,116.224767,226.40946663947284
39.95119207130026,116.22214492911031,247,General Merchandise,ChIJVYXpIqJa8DURzwZiATq3yt4,"X62F+8H3, Haidian District",leisure,shopping_mall,39.950773,116.223918,158.15971820038496
39.93200736276558,116.4087264538488,248,味多美西饼店美术馆店,ChIJARDklShT8DUR6t-ZIyXFZh0,"美术馆后街65-3, Dongcheng Qu, Beijing Shi",restaurants,bakery,39.929746,116.408757,251.46591083397772
39.93200736276558,116.4087264538488,248,Imperial City Wall Relics Park,ChIJN-eGlSVT8DURI7f3qkP2Jl4,"北河沿大街, Bei He Yan Da Jie, Dongcheng Qu",leisure,tourist_attraction,39.9330407,116.405962,262.22425694066766
39.93200736276558,116.4087264538488,248,Xuancai Pool Room,ChIJiSNx6C9T8DURb5CYkDAxpFc,"134 Jiao Dao Kou Nan Da Jie, Dongcheng Qu",sport,gym,39.935145,116.40904,349.9125899560463
39.91616042422181,116.30520755301946,249,北京颐源茶艺,ChIJOWgxqOFR8DURQ__0pdBdjow,"4 Cui Wei Lu, Haidian Qu",restaurants,cafe,39.915581,116.304859,70.95613081769959
39.91616042422181,116.30520755301946,249,CSF Market,ChIJj9MfqeFR8DURXUzARKTbO6c,"Cui Wei Lu, Haidian Qu",leisure,shopping_mall,39.915423,116.304831,88.06248535492696
39.91616042422181,116.30520755301946,249,Yiyuanju Sunny Fitness Club,ChIJc6QxqOFR8DURstcsUIk0jAI,"4 Cui Wei Lu, Haidian Qu",sport,gym,39.9154541,116.3046293,92.73949159058044
40.05025520023225,116.29217030418872,250,Shihuiju,ChIJN5FWQTlW8DURQ99khDD4z3k,"Hou Chang Cun Lu, Haidian Qu",restaurants,restaurant,40.05375,116.294288,428.3725975858216
40.05025520023225,116.29217030418872,250,Zhongguancun Software Park,ChIJ80lLjT5W8DURpT1ZRBs0AgQ,"Ruan Jian Yuan San Hao Lu, Haidian Qu",leisure,park,40.052681,116.296558,460.6877477856995
40.05025520023225,116.29217030418872,250,中关村软件园康体中心,ChIJZana1EZW8DURlYlOL0hGzTU,"东北旺8号院中关村软件园3号楼, Haidian Qu, Beijing Shi",sport,gym,40.047035,116.295375,450.1386408147127
39.96674079252151,116.29731953070724,251,Shanghai Tairyo Teppanyaki,ChIJs2CUvxNR8DURq0RlxI3nfIM,"15 Wan Liu Zhong Lu, Haidian Qu",restaurants,restaurant,39.966484,116.297031,37.68238087559212
39.96674079252151,116.29731953070724,251,Do Re MI Theatre,ChIJD3JF1RNR8DUR1CjtQpfolFM,"万柳星标家园甲6, Quan Zong Bei Lu, Haidian Qu",leisure,movie_theater,39.965868,116.29549,183.65417567053345
39.96674079252151,116.29731953070724,251,瑜伽苑NO.1,ChIJfZK7LhVR8DURbsZCLsZkK6s,"X892+V96, Haidian District",sport,gym,39.969652,116.300894,444.5003788713555
40.03521461200064,116.3304537684366,252,Missmilk酸奶吧,ChIJY8CNT9lV8DURuNW-wVfFXlQ,"28PH+8XQ, Haidian District",restaurants,bakery,40.03583,116.33,78.58016904647145
40.03521461200064,116.3304537684366,252,机关礼堂,ChIJMzDyUtlV8DURGTlXpflCkEE,"清河小营31号, Haidian Qu, Beijing Shi",leisure,movie_theater,40.03622299999999,116.330224,113.82132448733678
40.03521461200064,116.3304537684366,252,Jieshunxuan Chess And Cards Fitness,ChIJdYatyttV8DURl7KxXHDTYKY,"28MJ+9WJ, Haidian District",sport,gym,40.03346000000001,116.332279,249.42630840378132
39.92285043589739,116.30016745112827,253,Yulongwensha Pub,ChIJfRTNId1R8DUR1Hnl90a8iuc,"40 Fu Cheng Lu, Haidian Qu",restaurants,bar,39.9232793,116.2985794,143.57408019554347
39.92285043589739,116.30016745112827,253,凭海听风休闲瑜伽,ChIJSWAfBehR8DURtht8RfIWdzI,"紫竹桥北洼路世纪新景园B1-E, Haidian Qu, Beijing Shi",leisure,stadium,39.92406599999999,116.301898,200.118888316748
39.92290536281872,116.29395033874287,254,北京阜成鑫酒家有限公司,ChIJvRGuCNtR8DURgoh4h07M3Nc,"阜成路44号1层, Haidian Qu, Beijing Shi",restaurants,restaurant,39.923528,116.29325,91.43362753998564
39.92290536281872,116.29395033874287,254,Caiyunfei Singing Hall,ChIJa_YardtR8DURGyVthuwfY_o,"Fu Cheng Lu, Wu Ke Song, Haidian Qu",leisure,night_club,39.9233732,116.2926113,125.47959651594256
39.92290536281872,116.29395033874287,254,静之婵42℃高温瑜伽俱乐部,ChIJS0gfANxR8DURMd_6ooW2X9I,"甲1 Wan Shou Lu, Haidian Qu, Beijing Shi",sport,gym,39.921446,116.293442,167.9644202520769
39.92488666494476,116.30441082080004,255,KFC,ChIJ_YQW7-hR8DURPj9C7dpETwo,"51 Fu Cheng Lu, Wu Dao Kou, Haidian Qu",restaurants,restaurant,39.924392,116.305206,87.31235734898142
39.92488666494476,116.30441082080004,255,京城水系,ChIJ2UxWGOlR8DURPUgwStVdF-s,"航天桥-颐和园, Haidian Qu, Beijing Shi",leisure,tourist_attraction,39.92549200000001,116.305605,122.0673122860233
39.94777513966928,116.30363822730298,256,Ubc Coffee,ChIJYdh855hR8DURIxkuZUJuaD0,China,restaurants,cafe,39.9458959,116.3036567,208.96814587076665
39.94777513966928,116.30363822730298,256,北京纤姿丽人健美中心,ChIJhf6kK59R8DURKzAtmuRmI54,"紫竹院路33号美林花园4号楼1层西侧, Haidian Qu, Beijing Shi",leisure,stadium,39.947159,116.304037,76.4815454417408
39.94777513966928,116.30363822730298,256,Aomai Fitness Club,ChIJR2LxdplR8DUR0RftND4D1Vc,"Zi Zhu Yuan Lu, Zi Zhu Qiao, Haidian Qu",sport,gym,39.94424,116.30594,439.3432297774484
39.96364125811033,116.35997638220776,257,北京吉兴合餐饮有限公司,ChIJ7zxqToVT8DURdKaEb2Gf4ME,"Xing Tan Lu, Bei Tai Ping Zhuang, Haidian Qu",restaurants,restaurant,39.9626664,116.3610619,142.51106656067537
39.96364125811033,116.35997638220776,257,Beijing University of Posts and Telecommunications Student Activity Center,ChIJjeBdHpFT8DURn3k5ny8Xy-Y,"北京邮电大学, Shi Da Bei Lu, Haidian Qu",leisure,museum,39.964158,116.357242,240.01799225275136
39.96364125811033,116.35997638220776,257,浩沙健身,ChIJVSfiQZZT8DURIXznTErsiBk,"10 Xi Tu Cheng Lu, Bei Tai Ping Zhuang, Haidian Qu",sport,gym,39.961658,116.35953,223.78599687696777
22.162277439225505,113.55322231851316,258,Monsoon 季風,ChIJu6qyzKZ6ATQRCLnt9xGW_ak,"MO Monsoon, Level 3 Altira, Avenida de Kwong Tung",restaurants,cafe,22.1616422,113.5548687,183.6701789044544
22.162277439225505,113.55322231851316,258,Casino Ilha,ChIJL_72PaF6ATQRkSFxZu2ebyo,5H63+WC3,leisure,casino,22.16227,113.553536,32.31347751997512
22.162277439225505,113.55322231851316,258,Macau,ChIJkwRMji17ATQR2K80nLaT_QM,559 Rua de Seng Tou,sport,gym,22.1600091,113.5535429,254.37954935317296
39.85594737253856,116.4111309383646,259,名人坊酒吧,ChIJf3BWXi5N8DURSLL-74yA3wk,"元大都公园6号（水街华灯景区14号）, Fengtai Qu, Beijing Shi",restaurants,bar,39.856163,116.411837,64.8633808821727
39.85594737253856,116.4111309383646,259,元泰宏生活超市,ChIJIwRwtC9N8DURnb_0XQh5F38,"Sha Zi Kou Lu, Fengtai Qu",leisure,shopping_mall,39.8573682,116.4103819,170.43616713846023
39.85594737253856,116.4111309383646,259,木樨园体校跆拳道馆,ChIJzVOttS5N8DURGzBHZ7jo2fc,"光彩北路4, Fengtai Qu, Beijing Shi",sport,gym,39.853692,116.412195,266.72795456745007
39.96069830811111,116.3401814511256,260,Xi'an Snacks,ChIJiwg2mcJT8DUR3ihKclFLwoc,"Zao Jun Miao Dong Lu, Bei Xia Guan, Haidian Qu",restaurants,restaurant,39.962217,116.338501,221.4272884640211
39.96069830811111,116.3401814511256,260,财经大学图书馆,ChIJsdo2OcJT8DUR-NPefen5Qw8,"财经大学院内, Haidian Qu, Beijing Shi",leisure,museum,39.96029900000001,116.341437,115.85590655032148
39.96069830811111,116.3401814511256,260,Ligui Health Club,ChIJtclQdepT8DURqaX2J95CT0k,"11 Si Dao Kou Lu, Haidian Qu, Beijing Shi",sport,gym,39.96122999999999,116.344336,358.99004553911817
39.84700688586821,116.28263753946976,261,台湾呷哺呷哺涮涮锅,ChIJx22qqdZO8DURr8_1zN-U3DE,"西四环南路1号资和信百货B1楼, Fengtai Qu, Beijing Shi",restaurants,restaurant,39.846736,116.283076,48.04611433812377
39.84700688586821,116.28263753946976,261,Xuanfeng Yibai Self-help KTV,ChIJkwiLItFO8DUR03l3r6EpWos,"127 Zheng Yang Da Jie, Fengtai Qu",leisure,night_club,39.84802049999999,116.2850062,231.5026933619671
39.84700688586821,116.28263753946976,261,Xingpai Billiards Town,ChIJ17s5UNBO8DURnONxX_4RDoU,"正阳北里18, Zheng Yang Da Jie, Fengtai Qu",sport,gym,39.84843819999999,116.2872528,424.9355869377958
39.9851889976211,116.33310325508882,262,味多美,ChIJ7fhm8AZU8DURy4QuaLlcasM,保福寺桥恒星大厦1楼,restaurants,bakery,39.986032,116.333212,94.19447036948984
39.9851889976211,116.33310325508882,262,名柜KTV,ChIJs_3DpwdU8DURX93vTXl_0-c,"66 Zhong Guan Cun Dong Lu, Wu Dao Kou, Haidian Qu",leisure,night_club,39.98413350000001,116.3337694,130.36858181709076
39.9851889976211,116.33310325508882,262,Hosa Fitness,ChIJc0HOdgZU8DURlmTqSDXsrv0,"辽宁大厦, 甲2 Bei Si Huan Xi Lu, Wu Dao Kou, Haidian Qu",sport,gym,39.98527479999999,116.3372521,353.60532695632827
39.95176790489021,116.33798184349352,263,Yudouji Soybean Milk Yuhuoguo,ChIJJ5PMz9ZT8DURr246-wiNZwY,"Da Hui Si Lu, Bei Xia Guan, Haidian Qu",restaurants,restaurant,39.9523875,116.3352673,241.42715605189412
39.95176790489021,116.33798184349352,263,North China Jiaotong University Stadium Badminton Gym,ChIJeQE52c9T8DURk20h-_yAgIs,"西直门外上园村3号北方交大西, Gao Liang Qiao Xie Jie, Haidian Qu",leisure,stadium,39.95176,116.337006,83.18604974286981
39.95176790489021,116.33798184349352,263,Zhangbei Fitness Fuhai Branch,ChIJ3TOzmNpT8DURDIONMULSjkI,"大柳树富海中心2号富海大厦2层, Da Liu Shu Lu, Haidian Qu",sport,gym,39.954078,116.335297,344.0302047289805
40.434674165072536,115.9770005148409,264,皇冠蛋糕,ChIJqefG9ZCV8DURZRO42TaL7m8,百步亭百街茂现代城一区二期103栋8号商铺,restaurants,bakery,40.4382618,115.9805058,497.1445976049562
39.13569032431172,117.2035863618594,265,Costa,ChIJic2GIsT97TUR_xKcOv428zg,今晚报大酒店,restaurants,cafe,39.1378223,117.2044303,247.98780042237732
39.13569032431172,117.2035863618594,265,Tianjin Electric Power Science & Technology Museum,ChIJKVwD28D97TUR3JC3U5o0QRY,"29 Jin Bu Dao, Hebei Qu",leisure,museum,39.13507,117.201996,153.5341827094456
39.8129813655268,116.13841355767416,267,北京金久技术开发公司酒家,ChIJm1gznE5H8DUR4xmzJTcNjA4,"王佐乡东王佐141号, Fengtai Qu, Beijing Shi",restaurants,restaurant,39.811956,116.14204,330.06613090620345
40.56503642617527,116.70386328937325,269,云梦仙境京北第一漂,ChIJRZbK-KU08TURfAbFeJvgUYY,"HP85+GGC, Miyun District",leisure,tourist_attraction,40.56630099999999,116.708764,437.19578156012034
39.98734164191509,116.32512166967231,270,Zhongguancun Chadian,ChIJM4JLH6tW8DURJY-PdA0yPNA,"Zhong Guan Cun Bei Yi Jie, Haidian Qu",restaurants,restaurant,39.987099,116.321677,294.7107930421835
39.98734164191509,116.32512166967231,270,中科院电子学研剧院,ChIJl2HGTgBU8DUR3mxktoVxF3Y,"北四环西路19号, Haidian Qu, Beijing Shi",leisure,movie_theater,39.986532,116.326847,172.37123304219597
39.98734164191509,116.32512166967231,270,CSI-Bally Total Fitness,ChIJxaR6lf9T8DUR8HwwAbfhW9c,China,sport,gym,39.9835491,116.3264104,435.771281150619
40.088304805244846,116.10496034815026,273,京海汽车教练场,ChIJ_44rrBZf8DURhf9PfucSCGY,"34R4+2MX, Haidian District",leisure,stadium,40.09011699999999,116.106747,252.399847382739
39.9246265333688,116.17234662198344,274,Yoshinoya,ChIJO3OFLuZE8DURokSyKrT0t-U,"Bei Xin An Bei Cha, Shijingshan Qu",restaurants,restaurant,39.923704,116.1718862,109.83822965614374
39.9246265333688,116.17234662198344,274,保利国际影城,ChIJO3OFLuZE8DURcqasTmfMKaM,"300 Fu Shi Lu, Shijingshan Qu",leisure,movie_theater,39.923578,116.171909,122.41848733882786
39.9246265333688,116.17234662198344,274,Woman Health Club,ChIJD9JdON1E8DURLNiyenLBNLY,"Jin Ding Dong Jie, Shijingshan Qu",sport,gym,39.92749999999999,116.172289,319.5531413653636
39.97494048001381,116.16638886574792,275,双泉寺,ChIJPd0VsWxb8DUR8FqqoToqwvU,"X5F7+678, Shijingshan District",leisure,tourist_attraction,39.973049,116.163208,343.08053902455487
40.08901457386244,116.11327174980195,276,龙泉寺斋饭,ChIJtUk0DT1f8DURXE4m3OnULDo,"西山凤凰岭景区内, Haidian Qu, Beijing Shi",restaurants,restaurant,40.08594499999999,116.113802,344.28941761074697
39.98207075895063,116.35002257796846,277,必胜客,ChIJo7YAQGxU8DURk4EDNFWO900,"Xue Yuan Lu, Haidian Qu",restaurants,restaurant,39.9828317,116.3478258,205.4072123240304
39.98207075895063,116.35002257796846,277,Beihang Art Gallery,ChIJ54pSIwtU8DUR4dEZw0PJuek,"航空航天大学内, 37 Xue Yuan Lu, Haidian Qu, Beijing Shi",leisure,museum,39.982498,116.347411,227.52783265810567
39.98207075895063,116.35002257796846,277,北航健身,ChIJ28cqOnVU8DURBMfyOVjBlnc,"37 Xue Yuan Lu, Haidian Qu",sport,gym,39.981017,116.349966,117.2719362677868
39.95198030367047,116.40972965244625,279,麦乐迪,ChIJ322V7E9T8DUR4gsA8E-bORQ,China,restaurants,bar,39.953844,116.408624,227.6575500597825
39.95198030367047,116.40972965244625,279,Ditan Park （West Gate）,ChIJbetdeE9T8DURMc27_EfLAU0,"和平里, An Ding Men Wai Da Jie, Dongcheng Qu",leisure,park,39.953211,116.40864,165.39093750700712
39.95198030367047,116.40972965244625,279,幽然瑜伽,ChIJs-95D1BT8DUR3kneOLZIKl4,"116 An Ding Men Wai Da Jie, An Ding Men, Dongcheng Qu",sport,gym,39.9557609,116.4084299,434.7372690194921
39.95064322795108,116.40173140311713,280,好利来,ChIJrwZOKEFT8DUR1GtWoG_0xK4,"An Ding Men Xi Bin He Lu, An Ding Men, Dongcheng Qu",restaurants,bakery,39.9497626,116.4011057,111.5051547887698
39.95064322795108,116.40173140311713,280,Chaoshifa Supermarket,ChIJkyOSLURT8DURVk_A8s-z7ag,"15 Xi Ying Fang Hu Tong, An Ding Men, Dongcheng Qu",leisure,shopping_mall,39.9517947,116.4045316,270.8646776976188
39.95064322795108,116.40173140311713,280,安定门社区健身园,ChIJQWCGwEBT8DURg6LB0hXYTWU,"安定门西大街,钟鼓北桥以东约250米路南, Dongcheng Qu, Beijing Shi",sport,gym,39.948654,116.400411,248.18292783455328
39.51848577594094,116.70379488907112,281,上岛咖啡,ChIJoxoyYljD8TUR82mTRXKYIp0,"GP93+XCQ, Guangyang District, Langfang",restaurants,restaurant,39.519972,116.7036,166.10416532944987
39.51848577594094,116.70379488907112,281,Langfang National Archives Hall,ChIJcYCn9VjD8TURliBT0iUxkpY,"11 Jin Guang Dao, Guangyang Qu, Langfang Shi",leisure,museum,39.520076,116.704152,179.45871335531268
39.98540585795506,116.34111959813342,282,起点酒吧,ChIJaQfFOQlU8DURAkDcFjtspe8,"北四环展春2桥向南100米五道口小吃城内, Haidian Qu, Beijing Shi",restaurants,bar,39.985236,116.340939,24.361526775219183
39.98540585795506,116.34111959813342,282,Wudaokou Shopping Plaza,ChIJJXW4IAlU8DURbt95nShMj-U,"Da Yun Cun Xi Lu, Wu Dao Kou, Haidian Qu",leisure,shopping_mall,39.9852273,116.3398135,113.03526775156372
39.98540585795506,116.34111959813342,282,Hosa Fitness,ChIJc0HOdgZU8DURlmTqSDXsrv0,"辽宁大厦, 甲2 Bei Si Huan Xi Lu, Wu Dao Kou, Haidian Qu",sport,gym,39.98527479999999,116.3372521,329.8277628372049
39.850547883961305,116.21988284763088,283,Wangmazi Daojian,ChIJmYl7qgZG8DUR-6CIxLyH_H0,"Cheng Nei Jie, Fengtai Qu",restaurants,restaurant,39.851272,116.224345,389.33339682343154
39.850547883961305,116.21988284763088,283,Marco Polo Bridge,ChIJMUgmpQVG8DURVCJuO8V-mus,"Fengtai District, Beijing",leisure,tourist_attraction,39.8502497,116.2190658,77.22846654811548
39.78692267506309,116.38049487387032,284,Beijing Jingshi,ChIJDd163QVL8DURaFrNhc2rMWQ,"Tuan He Lu, Fengtai Qu",restaurants,restaurant,39.78849,116.378668,233.96418778070856
39.78692267506309,116.38049487387032,284,Beijing International Camping Park,ChIJiTjSdARL8DURac2MtjnIRcE,"Tuan He Lu, Fengtai Qu",leisure,tourist_attraction,39.78488100000001,116.379567,240.4702461292626
39.95413633452971,116.35767879546238,285,金凤成祥面包房,ChIJAQDwxrxT8DUR4RlsRMbVvdg,"Jin Feng Cheng Xiang ( Wen Hui Yuan Er Dian ), Bei Tai Ping Zhuang, Haidian Qu",restaurants,bakery,39.95403640000001,116.3593967,146.8511368445094
39.95413633452971,116.35767879546238,285,Maples International Shopping Center,ChIJJxe0jbtT8DUR_IekSUw0hnU,"32 西直门北大街, Haidian Qu, Beijing Shi",leisure,shopping_mall,39.9529191,116.3559741,198.57847235550813
39.95413633452971,116.35767879546238,285,Kewen Yoga,ChIJ5zyTMaNT8DUR64FfTjn4PzM,"Hui Jing Lu, Bei Tai Ping Zhuang, Haidian Qu",sport,gym,39.9542495,116.3607775,264.42538192806467
39.95306884202412,116.35504595825408,286,Jindingxuan,ChIJr4WFibtT8DUR-xNwstaDEjw,"院枫蓝国际购物中心, 32 西直门北大街, Haidian Qu",restaurants,bakery,39.953284,116.356339,112.78399468141482
39.95306884202412,116.35504595825408,286,Maples International Shopping Center,ChIJJxe0jbtT8DUR_IekSUw0hnU,"32 西直门北大街, Haidian Qu, Beijing Shi",leisure,shopping_mall,39.9529191,116.3559741,80.8470454304686
39.95306884202412,116.35504595825408,286,Golden Sunny Club,ChIJ0zkW3rpT8DURi6qoPgEJUy8,"36 Wen Hui Yuan Xi Lu, Haidian Qu",sport,gym,39.950152,116.358975,466.2221061421101
39.99213606119478,116.41406898678676,287,浴都城KTV俱乐部,ChIJN__SetJU8DURkljaWCFITTU,"北苑路176, Chaoyang Qu, Beijing Shi",restaurants,bar,39.992105,116.415849,151.67901839319936
39.99213606119478,116.41406898678676,287,Yuducheng Night Club,ChIJKWN9etJU8DURm8utyqXqpS0,"176 Bei Yuan Lu, Chaoyang Qu",leisure,night_club,39.9920402,116.4156613,136.06770999256986
39.99213606119478,116.41406898678676,287,北京市武术运动协会,ChIJSV5XJ9JU8DUR6HGmEufhVcY,"XCV7+CCR, Chaoyang",sport,gym,39.993621,116.413506,171.94220470374125
40.0443829749712,116.2858654519672,288,Spicy-hot Xianzhigong Restaurant,ChIJZ8z4JlBW8DURceyDNwSUrlY,"Dong Bei Wang Lu, Haidian Qu",restaurants,restaurant,40.041794,116.287495,319.55952138258306
40.0443829749712,116.2858654519672,288,中国管理软件学院图书馆,ChIJF5P6sk9W8DURSMm0TAnj2_0,"东北旺唐家岭, Haidian Qu, Beijing Shi",leisure,museum,40.043831,116.286711,94.59330068391748
40.0002927072284,116.41694235789,289,浪琴岛咖啡城堡,ChIJS280kdRU8DURajuFvF-P1CA,"XCX9+FX9, Chaoyang",restaurants,cafe,39.99867,116.419995,316.49908051508027
40.0002927072284,116.41694235789,289,天仁合源休闲,ChIJp6RryypV8DURkp0P16GUVII,"大屯路222号院4号楼, Chaoyang Qu, Beijing Shi",leisure,night_club,40.001677,116.419282,251.81218589033088
40.0002927072284,116.41694235789,289,Hosa Fitness,ChIJj_g-DNVU8DURbi3Qmi-ZsDU,"北苑路安惠北里逸园5号, Bei Yuan Lu, Chaoyang Qu",sport,gym,39.9993996,116.4169701,99.33724423688584
39.959146605622735,116.3170205698965,290,鲜果时间,ChIJWYEc3HxR8DURBFDrEpNnGmY,"北京理工大学11号楼（东）学生公寓, Wei Gong Cun Lu, Haidian Qu",restaurants,bakery,39.958075,116.3143308,258.3719216022981
39.959146605622735,116.3170205698965,290,Beijing Institute of Technology Jiaozhigong Culture Activity Center,ChIJx6voBWVR8DUR_oT2AnJa6Ig,"5 Zhong Guan Cun Nan Da Jie, Haidian Qu",leisure,casino,39.960643,116.31531,221.22761881163885
39.959146605622735,116.3170205698965,290,友谊和平,ChIJu9K61WNR8DURIruqsXkxG3U,"中关村南大街1号,北三环四通桥南侧150米路西,友谊宾馆内, Haidian Qu, Beijing Shi",sport,gym,39.961721,116.321761,495.15794478714
39.94657984614836,116.36661287296818,291,麦咖啡,ChIJKS3u-KVT8DURPNuXQRh9k7c,北京市德胜门西大街60号,restaurants,cafe,39.9464127,116.3657631,74.78691929235765
39.94657984614836,116.36661287296818,291,鑫旺推商业宾馆娱乐城,ChIJd269Vq9T8DURsf74fyPrI3g,"德胜门西大街, Xicheng Qu, Beijing Shi",leisure,night_club,39.946063,116.365846,87.04382550335947
39.94344214215899,116.36600590048674,292,凤凰巢练歌房,ChIJ75WFoK5T8DURWgeYxQ5fji8,"高井胡同11号, Xicheng Qu, Beijing Shi",restaurants,bar,39.94173799999999,116.365008,207.7130574931656
39.94344214215899,116.36600590048674,292,凤凰巢练歌房,ChIJ75WFoK5T8DURWgeYxQ5fji8,"高井胡同11号, Xicheng Qu, Beijing Shi",leisure,night_club,39.94173799999999,116.365008,207.7130574931656
39.94344214215899,116.36600590048674,292,美体中心,ChIJ9_dNUaxT8DUR2ZoxpIhbEzg,"南草厂街甲11号, Xicheng Qu, Beijing Shi",sport,gym,39.939937,116.363732,435.3035342362804
39.95657158144812,116.36086953642312,293,味多美,ChIJAR2q3JdT8DURlIGh5zJpOKc,"9 Xue Yuan Nan Lu, Bei Tai Ping Zhuang, Haidian Qu",restaurants,bakery,39.95820990000001,116.3585225,270.5650569397925
39.95657158144812,116.36086953642312,293,日用百货,ChIJPWFjEL1T8DUR45nrVDT9AMA,"X945+98P, Beitaipingzhuang, Haidian District",leisure,shopping_mall,39.955952,116.358314,228.45655044960367
39.95657158144812,116.36086953642312,293,Kewen Yoga,ChIJ5zyTMaNT8DUR64FfTjn4PzM,"Hui Jing Lu, Bei Tai Ping Zhuang, Haidian Qu",sport,gym,39.9542495,116.3607775,258.3231850172141
40.04884692611724,116.28134131412152,294,花溪牛肉粉,ChIJUzypHEtW8DUR1SFbjdVWs1Q,"Hou Chang Cun Lu, Haidian Qu",restaurants,restaurant,40.0502349,116.2778824,332.417451373918
39.89410616399869,116.37840127830832,295,如意阁,ChIJlSy9yn9N8DURg_lPa9hWsFE,"宣武门外大街20号北京海格国际酒店3层, Xicheng Qu, Beijing Shi",restaurants,restaurant,39.894977,116.375041,302.58392469696
39.89410616399869,116.37840127830832,295,Chunshu Community The Elderly Activity Center,ChIJhyH99H1N8DUR38iG8cKk2So,"7 Chun Shu Yuan, Xicheng Qu",leisure,casino,39.8949319,116.3791746,113.0619529499688
39.89410616399869,116.37840127830832,295,Shenghe Yoga Fitness Center,ChIJc_cXhn5N8DUR_9zFIpb3ij8,"椿树园小区15号楼2层A213, Chun Shu Yuan, Xicheng Qu",sport,gym,39.8929291,116.3773452,158.8964117118835
39.92543346660175,116.41118774102652,296,老窦酒吧,ChIJD3igT9ZS8DURY4Kuv4C9Qic,"王府井大街, Dongcheng Qu, Beijing Shi",restaurants,bar,39.923996,116.411174,159.84351404837085
39.92543346660175,116.41118774102652,296,当代美术馆,ChIJYbjTJtZS8DURyJGBYSefAAg,"隆福寺街123号, Dongcheng Qu, Beijing Shi",leisure,museum,39.925356,116.411626,38.35169251270946
39.92543346660175,116.41118774102652,296,千竹健身,ChIJ1xqb-SlT8DURDQx8yV4FFLg,"隆福寺街99, Dongcheng Qu, Beijing Shi",sport,gym,39.925535,116.413137,166.6026480295746
39.9636618478851,116.36428536688852,297,金色楼兰,ChIJx1nlDNVK8DURQV4dXvfHp3Y,"Shun Xin Jie Er Tiao, Bei Tai Ping Zhuang, Daxing Qu",restaurants,restaurant,39.96,116.36477,409.2690748938034
39.9636618478851,116.36428536688852,297,北京师范大学-体育场,ChIJLQkUcplT8DURDbUIZYhvHQc,"X967+5CX, Beitaipingzhuang, Haidian District",leisure,stadium,39.96048599999999,116.363602,357.9092408873725
39.9636618478851,116.36428536688852,297,浩沙健身,ChIJVSfiQZZT8DURIXznTErsiBk,"10 Xi Tu Cheng Lu, Bei Tai Ping Zhuang, Haidian Qu",sport,gym,39.961658,116.35953,462.49767593571113
39.95121215746477,116.36176179725793,298,味多美,ChIJqXfcnKRT8DURBdh_VweZRIU,"光彩路京深海鲜城对面（近首航超市光彩路店）, Haidian Qu, Beijing Shi",restaurants,bakery,39.951718,116.362509,84.97321769692353
39.95121215746477,116.36176179725793,298,Suojiafen Community Star Light Old Age Home,ChIJcSrhraRT8DUR4XqfMBoGVKE,"Wen Hui Yuan Lu, Bei Tai Ping Zhuang, Haidian Qu",leisure,casino,39.951876,116.360722,115.34573993014288
39.95121215746477,116.36176179725793,298,云川台球城,ChIJXwrOd6NT8DURFbf4oZiKUJI,"Wen Hui Yuan Lu, Bei Tai Ping Zhuang, Haidian Qu",sport,gym,39.95257549999999,116.3632461,197.45781441903728
40.04498182844928,116.29851917201358,299,Maixiangyuan Bakery,ChIJfww5CENW8DUR2aTecfmET1o,"Tang Jia Ling Lu, Haidian Qu",restaurants,bakery,40.041856,116.297511,358.01534830883736
40.04498182844928,116.29851917201358,299,Beihua Karaoke,ChIJS54ZHmpW8DURjS8YNeNWLmE,"Shang Di Xi Lu, Haidian Qu",leisure,night_club,40.0430875,116.3023587,388.8374121875361
40.04498182844928,116.29851917201358,299,中关村软件园康体中心,ChIJZana1EZW8DURlYlOL0hGzTU,"东北旺8号院中关村软件园3号楼, Haidian Qu, Beijing Shi",sport,gym,40.047035,116.295375,351.78670651676543
40.00268916925183,116.34355844557116,300,盈福楼烤鸭店,ChIJQ8WQaT5U8DUR-YHgyzjp_wA,"清华东路35-9号, Haidian Qu, Beijing Shi",restaurants,restaurant,40.001008,116.343875,188.87232350824132
40.00268916925183,116.34355844557116,300,林大体育馆,ChIJCQ3OQz5U8DUR1_szgeKo5Us,"清华东路35号林业大学, Haidian Qu, Beijing Shi",leisure,stadium,40.003005,116.342606,88.40139558139482
40.00268916925183,116.34355844557116,300,Saikang Billiards,ChIJBTnCLz5U8DURtpdQ6fa0zlU,"Qing Hua Dong Lu, Wu Dao Kou, Haidian Qu",sport,gym,40.00020610000001,116.3449393,300.1138119519848
40.000628037796055,116.34741604532353,301,雕刻时光咖啡馆,ChIJXyx6WUBU8DURxPlPK1Tzj1M,"16 Qing Hua Dong Lu, Wu Dao Kou, Haidian Qu",restaurants,cafe,40.000014,116.350563,276.6165547872813
40.000628037796055,116.34741604532353,301,Qinghua East Road Strip-shaped Park,ChIJQwDemT9U8DUROWjT24OCbF0,"Qing Hua Dong Lu, Wu Dao Kou, Haidian Qu",leisure,park,40.000493,116.346709,62.06951339368337
40.000628037796055,116.34741604532353,301,禅欣瑜伽馆,ChIJ3ZaGX0BU8DUR0e6z-McgfMo,"清华东路16号艺海大厦1071室, Haidian Qu, Beijing Shi",sport,gym,40.00036,116.350189,238.07260348069025
39.999682808355416,116.34263922231112,302,盈福楼烤鸭店,ChIJQ8WQaT5U8DUR-YHgyzjp_wA,"清华东路35-9号, Haidian Qu, Beijing Shi",restaurants,restaurant,40.001008,116.343875,181.09068220309845
39.999682808355416,116.34263922231112,302,Sixianyuan Karaoke,ChIJu8ISyRVU8DURyYoyg74Sa74,"西郊宾馆8号楼2层, 18 Wang Zhuang Lu, Haidian Qu",leisure,night_club,39.997504,116.343892,264.73389417648
39.999682808355416,116.34263922231112,302,East Beauty Women's Club,ChIJswGa0RVU8DUR_CrNQL36fW0,"西郊宾馆9号楼B1层, 18 Wang Zhuang Lu, Haidian Qu, Beijing Shi",sport,gym,39.99761579999999,116.343053,232.5280055904597
39.907557283192176,116.24511484087428,303,风味小吃,ChIJnToyPe1P8DURXczr-ShpCDg,"玉泉西街, Shijingshan Qu, Beijing Shi",restaurants,cafe,39.909824,116.244469,257.9972760073172
39.907557283192176,116.24511484087428,303,Shiji Hualian Supermarket,ChIJX3qoZutP8DUR46nM0tvUvNU,"Shi Jing Shan Lu, Shijingshan Qu",leisure,shopping_mall,39.909221,116.248593,349.6224369039341
39.907557283192176,116.24511484087428,303,没有,ChIJYbjgUJNP8DURpJSQR5LiCNc,"没看, Shijingshan Qu, Beijing Shi",sport,gym,39.907478,116.247713,221.7869126860711
39.118260158272186,117.24313218473328,304,Jinmaidi Self-help KTV,ChIJMyROG0L87TURkvP4_Gx-PlM,"103 Hong Xing Lu, Hedong Qu",restaurants,bar,39.117729,117.243102,59.11956702638381
39.118260158272186,117.24313218473328,304,Jinmaidi Self-help KTV,ChIJMyROG0L87TURkvP4_Gx-PlM,"103 Hong Xing Lu, Hedong Qu",leisure,night_club,39.117729,117.243102,59.11956702638381
39.118260158272186,117.24313218473328,304,Tianjin Hedong Quanmin Fitness Activity Center,ChIJLXrpIkP87TURCaQ1WicUF28,"52 Jin Tang Lu, Hedong Qu",sport,gym,39.1149642,117.2406051,426.4382775452191
39.7628267878788,98.25382053896104,306,Railway Hotel Foreign Restaurant,ChIJvwzdfIMmyDcRf83UgWjSBJI,"Zhan Qian Lu, Jiayuguan Shi",restaurants,restaurant,39.7646072,98.256242,286.4107870298811
39.7628267878788,98.25382053896104,306,Xinhong Wine & Cigarette Fair Price Supermarket,ChIJV2miRoMmyDcRiaE5yL2HwDE,"Zhan Qian Lu, Jiayuguan Shi",leisure,shopping_mall,39.765488,98.25506,314.30642084552795
39.932253651670266,116.46150323862705,307,Youpin Tea House,ChIJIRVgNous8TURbzy51m6-nf0,"Dong San Huan Bei Lu Fu Lu, Tuan Jie Hu, Chaoyang Qu",restaurants,cafe,39.93249170000001,116.4623586,77.58700733638997
39.932253651670266,116.46150323862705,307,Yingke Center Chamber,ChIJZ8FZR_Os8TURB5C0VsJW4UQ,"Gong Ren Ti Yu Chang Bei Lu, Chaoyang Qu",leisure,casino,39.93225220000001,116.4593073,187.236400957284
39.932253651670266,116.46150323862705,307,良子健身,ChIJn-Dxd4qs8TURE1fJD8n5NQg,"Rui Chen Guo Ji Zhong Xin, 13 Nong Zhan Guan Nan Lu, Tuan Jie Hu, Chaoyang Qu",sport,gym,39.9341257,116.4665421,477.4045623090232
39.921825304029305,116.47197819322344,308,Yiwanmian,ChIJtQtXMlis8TURejUR5ahsXn8,"Jin Tai Xi Lu, Chaoyang Qu",restaurants,restaurant,39.92169699999999,116.469351,224.4953024051714
39.921825304029305,116.47197819322344,308,Huaxing Supermarket,ChIJBXJn9Vms8TURbZEeBZLkm_0,"Jin Tai Bei Jie, Chaoyang Qu",leisure,shopping_mall,39.9213754,116.4726649,77.02018328955425
39.921825304029305,116.47197819322344,308,芳憩园健康城,ChIJrRsFqVes8TURBhEBSo0ySP4,"呼家楼南里1号楼旁, Chaoyang Qu, Beijing Shi",sport,gym,39.919013,116.469325,385.9861504600592
34.26663157162982,117.20164699595944,309,大娘水饺NO.1079,ChIJwYpLbMQHxjUR55b9Ps1763M,"7683+QGH, Gulou District, Xuzhou, Xuzhou",restaurants,restaurant,34.266926,117.203872,207.0698742535066
34.26663157162982,117.20164699595944,309,Aoke Ballroom,ChIJsTGH-8MHxjURFEqB9f9Yc_U,"Da Ma Lu, Gulou Qu, Xuzhou Shi",leisure,night_club,34.26609699999999,117.20241,91.9216637198656
34.26663157162982,117.20164699595944,309,Yunlong Natatorium,ChIJv5J4J8EHxjURhccKtqlyBDw,"50 Qing Nian Lu, Yunlong Qu, Xuzhou Shi",sport,gym,34.2631468,117.2024187,393.9254918606453
31.88737010262346,117.3116641211419,310,Chongqing Pickled Fish,ChIJaZl_Rv5kyzUR1SzwdW3oaoM,"Zhan Qian Lu, Yaohai Qu, Hefei Shi",restaurants,restaurant,31.886022,117.312803,184.47997962477783
31.88737010262346,117.3116641211419,310,金色年华音乐商务会所,ChIJR4kid_9kyzURdBnUXBdw1sQ,"V8M6+FHF, Yaohai District, Hefei",leisure,night_club,31.88368999999999,117.311417,409.8739583464192
32.91701833229438,115.86386092335032,311,Zhe'ou Coffee,ChIJ2Q0tGfDvzTURl5Jshi0OipU,"Xiang Yang Bei Lu, Yingdong Qu, Fuyang Shi",restaurants,cafe,32.9152106,115.8653612,244.9844247529035
39.86655677947636,116.35777980642295,312,绿家园冷饮销售站,ChIJZ3u_1rNN8DURhNqTrkt3W9g,"V984+PQ4, Fengtai District",restaurants,bakery,39.866753,116.356954,73.77969463174128
39.86655677947636,116.35777980642295,312,丰台百货商场艾宾超级市场,ChIJ9dMtAbJN8DUReOvse5kso60,"玉林东里二区14号, Fengtai Qu, Beijing Shi",leisure,shopping_mall,39.865928,116.360146,213.70825312395863
39.86655677947636,116.35777980642295,312,欧利康文体中心,ChIJw6dlnq1N8DURd5a9eLvvgo8,"V976+7HW, Fengtai District",sport,gym,39.86323,116.361438,484.0707664060792
39.873067866460765,116.38143332709896,313,真功夫,ChIJK0Pd7g1N8DURDE9T8mEfHGY,北京南站换乘层1号出站口南侧位置,restaurants,restaurant,39.871018,116.382959,262.5006540723221
39.873067866460765,116.38143332709896,313,Taoranting Park Ticket Office,ChIJV6VqMQxN8DUREogPsVwiQws,"You An Men Dong Jie, Xicheng Qu",leisure,park,39.8715351,116.3805819,185.2781325474741
39.13642957397005,117.21782205760869,314,Cuige Food,ChIJSWkYnM397TURUTl_sRK-Kgg,"李公楼, Hua Jie Dao, Hedong Qu",restaurants,bakery,39.1377,117.216673,172.56080852182217
39.13642957397005,117.21782205760869,314,Jingong Supermarket,ChIJTaBMVMz97TURWIPB8qMtlEk,"新开路美福园16号楼9号, Xin Kai Lu, Hedong Qu",leisure,shopping_mall,39.136288,117.217448,35.897634755450696
39.13642957397005,117.21782205760869,314,Ocean Fitness Gym,ChIJK5uly9L97TURDkkfXCLvjw8,"Hua Jie Dao, Hedong Qu",sport,gym,39.1394861,117.2203194,402.37194538385984
38.04038848240621,114.48504473133474,315,深度KTV,ChIJQV6z1Vve5jURcWqcrAM5p38,"南花园步行街D座, 6 Nan Xiao Jie, Qiaoxi Qu, Shijiazhuang Shi",restaurants,bar,38.042126,114.482863,271.7209523635658
38.04038848240621,114.48504473133474,315,JOYCE,ChIJLUcs51re5jURWipr3BQdOt8,"8号服装广场, 8 Zhan Qian Jie, Qiaoxi Qu, Shijiazhuang Shi",leisure,art_gallery,38.040677,114.486983,172.7480058754559
38.04038848240621,114.48504473133474,315,石家庄市桥西青峰健身中心,ChIJyxJ3W1ne5jURTAYKRAe8y5A,"中山西路121号, Luquan Qu, Shijiazhuang Shi",sport,gym,38.043679,114.482111,447.0796366021757
36.619400107211,101.81185601464058,316,Muslim Beef Noodles,ChIJNeiPlLIOUjYRH8z9olgFae4,"Qi Lian Lu, Chengdong Qu, Xining Shi",restaurants,restaurant,36.6212115,101.8106265,229.36798357936527
36.619400107211,101.81185601464058,316,建卫食品百货,ChIJIfkIIbIOUjYRdruEYmeUeiw,"JR96+39H, Chengdong District, Xining",leisure,shopping_mall,36.617687,101.810973,206.14720844040912
36.38280328543903,94.90609036017874,318,Laoma Kaoyangrou,ChIJ4_IpfZuFmDcRwORKia-VmO0,"Ying Bin Lu, Geermu Shi, Haixi Mengguzuzangzuzizhizhou",restaurants,restaurant,36.384705,94.9058739,212.34727394202253
36.38280328543903,94.90609036017874,318,Station Video Hall,ChIJSXOojJyFmDcRJtSwObTXiz8,"Ying Bin Lu, Geermu Shi, Haixi Mengguzuzangzuzizhizhou",leisure,casino,36.383324,94.906213,58.93255157689175
29.626632686291305,91.06703400397863,319,Shoujia Tasty Shashlik,ChIJT5nR6nIwYTcRzXjDcascumo,"Tong Zhan Lu, Duilongdeqing Qu, Lasa Shi",restaurants,restaurant,29.62406,91.066972,286.1328409995482
29.626632686291305,91.06703400397863,319,Deji Luobu Children's Paradise,ChIJ8bhS4W0wYTcRF3ZNFaRGsjM,"1 - 1 Hao Lu, Duilongdeqing Qu, Lasa Shi",leisure,tourist_attraction,29.627885,91.069123,245.2780824992952
36.52501104444444,102.03765604531591,320,Yiqingxiang Tujiguan,ChIJLYPmbNACUjYRapV390fq3Uc,"G2FP+R9X, Huzhu Tu Autonomous County, Haidong",restaurants,restaurant,36.52462399999999,102.035996,154.45268170846902
36.52630601906439,102.0377865925521,321,Yiqingxiang Tujiguan,ChIJLYPmbNACUjYRapV390fq3Uc,"G2FP+R9X, Huzhu Tu Autonomous County, Haidong",restaurants,restaurant,36.52462399999999,102.035996,246.13177608275504
39.895417254921824,116.36875645463635,323,陕西小吃,ChIJQUqhb4FN8DUR7k_6ZsEa4kM,"老墙根街107号, Xicheng Qu, Beijing Shi",restaurants,cafe,39.893676,116.368315,197.24777358402332
39.895417254921824,116.36875645463635,323,Kangleli Community Star Light Old Age Home,ChIJXeBfSoFN8DURvjDquLoJXIk,"Xia Xie Jie, Xicheng Qu",leisure,casino,39.8946109,116.3664349,217.4052194174651
39.895417254921824,116.36875645463635,323,育梅食品店,ChIJ-ZY2eoFN8DURaVH0B-HBD7w,"老墙根街北59号院, Xicheng Qu, Beijing Shi",sport,gym,39.893343,116.368775,230.65237605028045
39.132354629696295,117.20080112352318,324,Malan Noodles,ChIJ42KkqMD97TURDFwRw1tjYWU,"Wu Jing Lu, Hebei Qu",restaurants,restaurant,39.13333950000001,117.2021237,158.13352969765555
39.132354629696295,117.20080112352318,324,Haihe Culture Square,ChIJ_ccIub_97TURCM0EjLbW3Oc,Hebei District,leisure,park,39.1324139,117.1988934,164.67860787244226
39.132354629696295,117.20080112352318,324,三源电力阳光俱乐部,ChIJm4DhHMD97TURqfrbck5ZAQc,"自由道10号, Hebei Qu, Tianjin Shi",sport,gym,39.135034,117.197251,427.2283576320079
39.86279549930307,116.37346612009948,325,稻香村,ChIJN98ofwdN8DURCr6IUaHkBs0,开阳里,restaurants,bakery,39.865459,116.372505,307.3185941711195
39.86279549930307,116.37346612009948,325,Shiji Hualian Supermarket,ChIJN4VMhqpN8DUR1GMv1nYgfKg,"Kai Yang Lu, Fengtai Qu",leisure,shopping_mall,39.8608176,116.371655,268.824278393282
39.86279549930307,116.37346612009948,325,中民桌上运动,ChIJSQU2K6hN8DURrZDmBGDq3x0,"开阳里三街,开阳里七区4号楼地下一层, Fengtai Qu, Beijing Shi",sport,gym,39.865763,116.371897,356.11331732214313
32.08936449830112,118.7917806575454,326,快客奶茶,ChIJ5VmUMj_ztTURAYQ6_x5A5cE,"99 Long Pan Lu, Zhong Yang Men, Xuanwu Qu, Nanjing Shi",restaurants,cafe,32.08835419999999,118.7918686,112.64528267668835
32.08936449830112,118.7917806575454,326,Century Hongsheng Night Club,ChIJl4iANTnztTURQ_9RMXj_ggw,"曙光国际大酒店6-7层, 107 Long Pan Lu, Xuanwu Qu, Nanjing Shi",leisure,night_club,32.08744,118.794124,307.45598501343886
32.09711560484754,118.73679514938084,327,海底捞,ChIJh4TZ9MX0tTURGnpzDOM2VWs,龙江小区,restaurants,restaurant,32.09698,118.73589,86.58704839232932
32.09711560484754,118.73679514938084,327,金陵商厦,ChIJqxJyKs_0tTURRC4_AMkpgGI,"大马路, 下关区, Nanjing Shi",leisure,shopping_mall,32.093953,118.737036,352.3972318411296
32.09711560484754,118.73679514938084,327,Nanjing Galaxy Yacht Club,ChIJnWj3lM70tTUR-39mxD3tEtQ,"3 Jiang Bian Lu, Xia Guan Qu, Nanjing Shi",sport,gym,32.0927303,118.7356985,498.44711142568656
32.00394575798174,119.5868586629308,328,永和大王,ChIJq4rfqGQwtDUR459Vd2eQiC0,前艾镇京沪高铁站进口,restaurants,restaurant,32.00173,119.5914119,495.0216379906316
31.252391294232183,121.4500430788835,329,小天鹅卡拉,ChIJFQSsBCxwsjURKuSklc4rOHc,"恒丰北路35号3F, 闸北区, Shanghai Shi",restaurants,bar,31.253631,121.451994,231.0736762495256
31.252391294232183,121.4500430788835,329,Friends Circle Club,ChIJbWIcpSlwsjURJqeP1JV54ac,"Qing Shui Wan Lu, Putuo Qu",leisure,amusement_park,31.25281399999999,121.447883,210.6467056425398
31.252391294232183,121.4500430788835,329,Tera Wellness Club,ChIJWx8UVChwsjURZAqpxIjZRas,"远景路97弄23, Yuan Jing Lu, Putuo Qu",sport,gym,31.25177250000001,121.4482559,183.29395719823927
39.98688676076336,116.33453661106974,330,金凤成祥,ChIJF5hPfwZU8DUR9AjWxz6kMTs,"Zhong Guan Cun Dong Lu, Wu Dao Kou, Haidian Qu",restaurants,bakery,39.9874993,116.3342453,72.49221418606625
39.98688676076336,116.33453661106974,330,中国网络美术馆,ChIJKSAmKwRU8DURRkEiY5aZMiI,"中关村东路18号财智国际大厦A座301室, Haidian Qu, Beijing Shi",leisure,museum,39.98779500000001,116.333753,121.06327549975116
39.98688676076336,116.33453661106974,330,Hosa Fitness,ChIJc0HOdgZU8DURlmTqSDXsrv0,"辽宁大厦, 甲2 Bei Si Huan Xi Lu, Wu Dao Kou, Haidian Qu",sport,gym,39.98527479999999,116.3372521,292.6639411831079
40.40819539831127,116.68677388548822,331,Casserole Pot Restaurant,ChIJc_o-Zz068TURed0YlNyDiBA,"CM5Q+WMC, Huairou District",restaurants,restaurant,40.409802,116.689126,267.5345239284759
40.40819539831127,116.68677388548822,331,Laiyuan Kemeng Supermarket,ChIJg3ZBZz068TURqCNO9_iY04M,"CM5Q+WM7, Huairou District",leisure,shopping_mall,40.409793,116.689159,268.95879570863
40.40819539831127,116.68677388548822,331,Huaibei Railway Workers Club,ChIJc-2i3CI68TURQbjBCiGaSQQ,"32 北站一区, Huairou Qu, Beijing Shi",sport,gym,40.40763800000001,116.691849,434.153600132732
40.3592571556827,115.9947227246104,332,Badaling Wildlife World,ChIJQyMs5JyT8DURBei8G7wxP9c,"21 八达岭高速, Yanqing Qu",leisure,zoo,40.36065019999999,115.9905437,386.4864414675836
40.35697095049369,116.00793498505612,333,Youyuan Restaurant,ChIJnzhR9W-T8DURlrfZG6D5xOU,"216省道, Yanqing Qu",restaurants,restaurant,40.3579328,116.0073161,119.11704570541248
40.35697095049369,116.00793498505612,333,长城全周影院,ChIJSdsBfG-T8DUR0nJGseUUwBQ,"216省道, Yanqing Qu",leisure,movie_theater,40.357324,116.00925,118.13874954578762
39.91498238204314,116.45479443568496,334,Rose House Tea House,ChIJQ_hpeQKt8TURfu3ud4lhlXE,"光华路甲9号院4, Guang Hua Lu, Chaoyang Qu",restaurants,cafe,39.9154486,116.4532713,139.86454955342802
39.91498238204314,116.45479443568496,334,百合春天SPA,ChIJPRQdoOKs8TURdR1GW5mBei4,"光华路甲9号院4, Chaoyang Qu, Beijing Shi",leisure,spa,39.915371,116.453328,132.32142904419717
39.91498238204314,116.45479443568496,334,Jade Bird Yoga,ChIJBad_nuKs8TURe26PFanatCM,"8 Dong Da Qiao Lu, Guo Mao, Chaoyang Qu",sport,gym,39.9155723,116.4526156,197.06200885477185
39.90602152560182,116.44125681066652,335,I Brown,ChIJLSIMGj2t8TURqElwrCaOld8,"三里屯路19号三里屯VillageB1楼（近BHG超市）, Chaoyang Qu, Beijing Shi",restaurants,bakery,39.907273,116.440752,145.66723883942151
39.90602152560182,116.44125681066652,335,赛特俱乐部网球馆,ChIJBdz3cj2t8TUR81zQf9lTZeE,"22 Jian Guo Men Wai Da Jie, Chaoyang Qu, Beijing Shi",leisure,night_club,39.9065104,116.4416943,65.93622548802408
39.90602152560182,116.44125681066652,335,赛特饭店健身中心,ChIJBdz3cj2t8TURs2Y-gSBud0s,"22 Jian Guo Men Wai Da Jie, Jian Wai Da Jie, Chaoyang Qu",sport,gym,39.9068068,116.4418496,100.9018327821382
39.93387369390061,116.36716574008722,336,Xiangmingyuan Tea House,ChIJ6WHxGVRS8DURQKz6OFFihkE,"14 Ping An Li Xi Da Jie, Xicheng Qu",restaurants,restaurant,39.93214189999999,116.3674042,193.6373623326313
39.93387369390061,116.36716574008722,336,Xicheng Ping'an Department Store,ChIJdwzj8FNS8DURJmSXMzU3_kY,"育教胡同乙31, Ping An Li Xi Da Jie, Xicheng Qu",leisure,shopping_mall,39.9326608,116.3657729,179.70230404284584
39.93387369390061,116.36716574008722,336,新街口台球厅,ChIJ3_Sffv9S8DUR8HZ3MUTIXNw,"新街口丁字口麦当劳4楼, Xicheng Qu, Beijing Shi",sport,gym,39.93241,116.372447,478.8103501058991
39.93654216968592,116.34843535545004,337,Haizhong Zhou Seafood Restaurant,ChIJ-ZXY60lS8DUR4qJXQ7Ircc4,"车公庄北街新华里16-1, Che Gong Zhuang Bei Jie, Xicheng Qu",restaurants,restaurant,39.9348686,116.3497713,218.184489085019
39.93654216968592,116.34843535545004,337,Disabled Persons's Rehabilitate Center of Exhibition Road Street,ChIJK70rY0pS8DURsBLc-j1Nl9g,"北礼士路西四条, Xicheng Qu",leisure,casino,39.9382259,116.3493085,201.4795974070776
39.93654216968592,116.34843535545004,337,12th Xingzuo Fitness Leisure Club,ChIJR9GT00lS8DUR2zlK5DY7AQo,"9 Che Gong Zhuang Da Jie, Dong Wu Yuan, Xicheng Qu",sport,gym,39.933747,116.3491575,316.84900665566767
39.8589281229258,116.407033033046,338,Fulaiyin Recreation Center,ChIJLSeXqTpN8DURv73l57kH-pM,"沙子口路, Dongcheng Qu",restaurants,bar,39.8597515,116.4073923,96.5545222466396
39.8589281229258,116.407033033046,338,Fulaiyin Recreation Center,ChIJLSeXqTpN8DURv73l57kH-pM,"沙子口路, Dongcheng Qu",leisure,night_club,39.8597515,116.4073923,96.5545222466396
39.97930489673605,116.3602158585798,339,日月茶楼,ChIJI0oVdXdU8DURhwsu3FWjtwU,"迎春园, Haidian Qu, Beijing Shi",restaurants,cafe,39.979161,116.358988,105.8377395316322
39.97930489673605,116.3602158585798,339,Beijing Haidian Dongsheng Teenagers Activity Center,ChIJs_SZ3HlU8DURfkYWb08kK-w,"塔院朗秋园乙7, Hua Yuan Bei Lu, Haidian Qu",leisure,museum,39.979527,116.360989,70.3535480842654
39.97930489673605,116.3602158585798,339,（英派斯健身）龙翔店,ChIJ0QoZtHtU8DURSGLpC9DvOz8,"Hua Yuan Bei Lu, Haidian Qu",sport,gym,39.9817753,116.3636516,401.4419599926845
39.86436964490499,116.41561494731506,340,Lanmao,ChIJceEApjVN8DURcR8Psqi_oKY,"安乐林路, An Le Lin Lu, Fengtai Qu",restaurants,bar,39.865188,116.416083,99.37951461708458
39.86436964490499,116.41561494731506,340,Lanmao,ChIJceEApjVN8DURcR8Psqi_oKY,"安乐林路, An Le Lin Lu, Fengtai Qu",leisure,night_club,39.865188,116.416083,99.37951461708458
39.86436964490499,116.41561494731506,340,No.1 Fitness Jingtai Shop,ChIJ59fCoTZN8DURLbCQ2USvfkE,"10 An Le Lin Lu, Dongcheng Qu",sport,gym,39.8640892,116.4131853,209.70081691464455
39.93853153942753,116.34422078911128,341,百草园,ChIJBQQFUzRS8DURnN45xoZcCjo,"Xi Zhi Men Wai Da Jie, Xicheng Qu",restaurants,cafe,39.9385614,116.3447434,44.67977612326266
39.93853153942753,116.34422078911128,341,展览馆路广场,ChIJPRz2FTRS8DUREk7Lshf_17U,"展览馆路2号楼, Xicheng Qu, Beijing Shi",leisure,museum,39.938167,116.34413,41.26741842418279
39.93853153942753,116.34422078911128,341,Debao Hotel Natatorium,ChIJ62APp0pS8DURsErkL6KFHUY,"西直门外大街德宝新园22楼德宝饭店内, Xi Zhi Men Wai Da Jie, Xicheng Qu",sport,gym,39.94017299999999,116.348761,427.9549610122186
39.97498738325398,116.36263009814093,342,Xiangzhifu,ChIJ2VPZNH9U8DURV6B9ebt7-PQ,"北土城西路元大都公园小月河北畔, Bei Tu Cheng Xi Lu, Haidian Qu",restaurants,restaurant,39.9762666,116.3602925,244.76322678112592
39.97498738325398,116.36263009814093,342,Yuan Dynasty Earthen Wall Relics Park （North Gate 1）,ChIJg1TecnhU8DURPh_Zq6iTcXw,"Bei Tu Cheng Xi Lu, Haidian Qu",leisure,park,39.9764228,116.3619232,170.59909115913965
39.97498738325398,116.36263009814093,342,英派斯健身,ChIJY21RKHlU8DURg2tA9YoRUgo,"Hua Yuan Lu, Haidian Qu",sport,gym,39.9775744,116.3656865,388.0427272180906
39.97744503577954,116.36300413060478,343,Jimi Sunshine Jiapin Coffee,ChIJB8DF6XhU8DURVI0lJ3u1Zas,"Bei Tu Cheng Xi Lu, Haidian Qu",restaurants,cafe,39.9768776,116.3647333,160.28210243757238
39.97744503577954,116.36300413060478,343,Yuan Dynasty Earthen Wall Relics Park （North Gate 1）,ChIJg1TecnhU8DURPh_Zq6iTcXw,"Bei Tu Cheng Xi Lu, Haidian Qu",leisure,park,39.9764228,116.3619232,146.29998023665487
39.97744503577954,116.36300413060478,343,英派斯健身,ChIJY21RKHlU8DURg2tA9YoRUgo,"Hua Yuan Lu, Haidian Qu",sport,gym,39.9775744,116.3656865,229.01268127682144
40.06566108064891,116.4054258378786,344,Ubc Coffee,ChIJIYmXY9v_8DURkTtknvyI8OM,"天通西苑一区32, Li Shui Qiao Xi Lu, Changping Qu",restaurants,cafe,40.06501139999999,116.4094217,347.6321868249701
40.06566108064891,116.4054258378786,344,Tiantong Hongda Culture & Sports Activity Center,ChIJKXO1o9z_8DURjLpXn_jsFrs,"Zhong Tan Cun Bei San Jie, Changping Qu",leisure,casino,40.064571,116.408868,317.0129830949243
40.06566108064891,116.4054258378786,344,Traditional Taekwondo,ChIJ5zpk0tr_8DURcAmoIgjHTnE,"东小口, Tai Ping Zhuang Zhong Jie, Changping Qu",sport,gym,40.0680465,116.4067217,287.2564148098664
39.97383458904324,116.29746454312578,345,COSTA COFFEE,ChIJZSEokhNR8DURpiuCcvCM-EU,"2 Ba Gou Lu, Haidian Qu",restaurants,cafe,39.97383509999999,116.2949761,212.04773004194715
39.97383458904324,116.29746454312578,345,北京仙赐缘饮食娱乐城,ChIJm_uBRD5R8DURoHPe7rdJZGA,"巴沟村88号, Haidian Qu, Beijing Shi",leisure,night_club,39.974239,116.29727,47.926842858359976
39.97383458904324,116.29746454312578,345,亚力山大会馆,ChIJAQDAdhZR8DUR712fCcVhDPQ,"Hai Dian Gong Ren Wen Hua Gong, Haidian Qu",sport,gym,39.971521,116.2951453,324.4092797404965
39.920762536226746,116.44421879600924,346,Starbucks Coffee,ChIJM0stOOes8TURsEnIoNCcCDg,"12 Chao Yang Men Wai Da Jie, Chao Wai, Chaoyang Qu",restaurants,cafe,39.9230214,116.4446514,253.86932594094165
39.920762536226746,116.44421879600924,346,草场地美术馆,ChIJh3k1nOCs8TUREzxcRCt2BEQ,"草场地艺术区46号（近798艺术区）, Chaoyang Qu, Beijing Shi",leisure,museum,39.92102999999999,116.443189,92.71919885585172
39.920762536226746,116.44421879600924,346,云川台球城,ChIJAbU3pOCs8TURsq3XtImkMD0,"祁家豁子路甲1号-7（近家乐福健翔桥店）, Chaoyang Qu, Beijing Shi",sport,gym,39.921759,116.443449,128.78894399796025
39.97537846073633,116.35359596272043,347,黄亭子酒吧,ChIJOx7haIlT8DURD-WzND3yyY8,"X9F4+M4H, Haidian District",restaurants,bar,39.9742,116.355369,199.9938079792111
39.97537846073633,116.35359596272043,347,Yuan Dynasty Earthen Wall Relics Park （North Gate 3）,ChIJfYC07IlT8DURYS-VAv6LM2g,"Bei Tu Cheng Xi Lu, Haidian Qu",leisure,park,39.9763633,116.3552235,176.70686849935475
39.97537846073633,116.35359596272043,347,Bailishi Spa,ChIJ3R3sj4xT8DURI0RYUHhgGiw,"太月园东100米, Ji Men Li Bei Lu, Haidian Qu",sport,gym,39.9733188,116.3508529,327.2427051423426
39.90969598033422,116.35090081054956,348,Dexianju,ChIJw7XUWw1S8DURuclMMkDr39M,"南礼士路三条, Nan Li Shi Lu San Tiao, Xicheng Qu",restaurants,restaurant,39.912091,116.347635,385.3713113621208
39.90969598033422,116.35090081054956,348,Nanlishi Road Park （South Gate）,ChIJaSZ5DXJS8DURmE9Ucupcc7s,"Le Dao Xiang, Xicheng Qu",leisure,park,39.91044110000001,116.3531574,209.54581963117923
39.9322831750866,116.43125856932888,349,Beijing Da Dong,ChIJSVgjES2t8TURKicfGPrADYs,"东四十条甲22号南新仓商务大厦1-2层, Dong Si Shi Tiao, Dongcheng Qu",restaurants,restaurant,39.932447,116.430976,30.204691583603584
39.9322831750866,116.43125856932888,349,Poly Art Museum,ChIJBS-QmMWs8TURN9exrN-FXoE,"新保利大厦9层, 1 Chao Yang Men Bei Da Jie, Chaoyang Qu, Beijing Shi",leisure,tourist_attraction,39.932781,116.432612,127.98949565928083
39.9322831750866,116.43125856932888,349,宝力豪健身,ChIJeYyAYMSs8TURBdTc2ZEbwRk,"首创5层, Dongcheng Qu, Beijing Shi",sport,gym,39.931787,116.435632,376.960388310177
39.98353741011529,116.3491737148445,350,Countrywide Higher School Student Information Consultation And Employment Guidance Center,ChIJ2_6ALnNU8DURxuTtVLZB4XM,"柏彦大厦701, 238 Bei Si Huan Zhong Lu, Haidian Qu",restaurants,restaurant,39.9859689,116.348976,270.89397639564976
39.98353741011529,116.3491737148445,350,Beihang Art Gallery,ChIJ54pSIwtU8DUR4dEZw0PJuek,"航空航天大学内, 37 Xue Yuan Lu, Haidian Qu, Beijing Shi",leisure,museum,39.982498,116.347411,189.50979014634515
39.98353741011529,116.3491737148445,350,北航健身,ChIJ28cqOnVU8DURBMfyOVjBlnc,"37 Xue Yuan Lu, Haidian Qu",sport,gym,39.981017,116.349966,288.27241470295075
39.96700628722776,116.38384434702712,351,Weiduomei,ChIJpTzwKGNT8DURkPuj_FqRQ4A,"14 Bei San Huan Zhong Lu, Xicheng Qu",restaurants,bakery,39.9678925,116.3845775,116.68065884560144
39.96700628722776,116.38384434702712,351,Hualian Living Supermarket,ChIJGZexRGNT8DUR1sYgK6IRk4U,"黄寺大街甲23-8, Huang Si Da Jie, Xicheng Qu",leisure,shopping_mall,39.966169,116.385029,137.3340889891239
39.96700628722776,116.38384434702712,351,Bodyworks Fitness Center,ChIJ_26rWWRT8DUR0M-jVgsYPeA,"阳光丽景, 23 Huang Si Da Jie, Xicheng Qu, Beijing Shi",sport,gym,39.963368,116.38711,491.04551944733765
39.94265024414413,116.34890432794244,352,日出茶太,ChIJ7SyPk7VT8DURvgIwoK82FeM,"59 Gao Liang Qiao Xie Jie, Bei Xia Guan, Haidian Qu",restaurants,cafe,39.94406,116.349642,168.901910625519
39.94265024414413,116.34890432794244,352,金柜,ChIJZ9zV0cpT8DURy_jQVMZ0NH8,"西直门外大街135号展览馆宾馆8楼, Xicheng Qu, Beijing Shi",leisure,night_club,39.9419,116.346338,234.1507110054025
39.94265024414413,116.34890432794244,352,Tera Wellness Club,ChIJ62wJ7LRT8DURWbTtpb2ycQQ,"1 Xi Zhi Men Wai Da Jie, Xicheng Qu",sport,gym,39.941017,116.3527942,378.09448418188873
39.99168291568419,116.33862868129734,353,稻香村,ChIJySqqOhBU8DURzCXSZ6S-wS4,"28 Cheng Fu Lu, Wu Dao Kou, Haidian Qu",restaurants,bakery,39.9919438,116.3390211,44.26189644197612
39.99168291568419,116.33862868129734,353,ONLY,ChIJySqqOhBU8DURqZgUTTVsGZ8,"28 Cheng Fu Lu, Wu Dao Kou, Haidian Qu",leisure,shopping_mall,39.991767,116.338954,29.248776281100696
39.99168291568419,116.33862868129734,353,Huaqingjiayuan fitness club,ChIJS_ru-Q9U8DURSZDWnLoenmc,"华清嘉园甲5号楼华清嘉园会所内, Haidian Qu, Beijing Shi",sport,gym,39.991062,116.337061,150.34356903663604
39.62366279451236,118.11278215765238,354,Yiliyuan Fast Food,ChIJ0ZGbfksd8zURl6I5WfzkYyM,"J4F7+6WX, Lubei District, Tangshan",restaurants,restaurant,39.623121,118.114854,187.39770136965345
39.62366279451236,118.11278215765238,354,Meet all,ChIJ7eAegksd8zURA88PLiq1a4U,"J4F8+64R, Lubei District, Tangshan",leisure,shopping_mall,39.62312399999999,118.115273,221.58932659913887
42.53264257346432,125.67863609308932,355,仙踪林,ChIJYR8pyP8jMV4R7x91VrPIGO0,"Shi Dai Guang Chang, Meihekou Shi, Tonghua Shi",restaurants,restaurant,42.53231359999999,125.6802755,139.22297501068266
42.53264257346432,125.67863609308932,355,新华都购物广场,ChIJYR8pyP8jMV4RdFhzZ4Ih1hE,"Shi Dai Guang Chang, Meihekou Shi, Tonghua Shi",leisure,shopping_mall,42.53231359999999,125.6802755,139.22297501068266
41.75101115903073,125.97458218573732,356,金鼎娱乐会所,ChIJcRAV6YA-Ml4RGI6djYs4lG0,"QX2H+RXV, Dongchang District, Tonghua",restaurants,bar,41.75211299999999,125.979934,460.5599704653635
41.75101115903073,125.97458218573732,356,Yueman Xilou Singing Hall,ChIJnVdKF34-Ml4RHlZC5VM_BQ0,"Jian She Da Jie, Dongchang Qu, Tonghua Shi",leisure,night_club,41.7503185,125.9784572,330.55786671110553
41.75059589534884,125.97705583139532,357,金鼎娱乐会所,ChIJcRAV6YA-Ml4RGI6djYs4lG0,"QX2H+RXV, Dongchang District, Tonghua",restaurants,bar,41.75211299999999,125.979934,292.34409168085665
41.75059589534884,125.97705583139532,357,Yueman Xilou Singing Hall,ChIJnVdKF34-Ml4RHlZC5VM_BQ0,"Jian She Da Jie, Dongchang Qu, Tonghua Shi",leisure,night_club,41.7503185,125.9784572,120.2761683772562
41.7479988452381,125.9730451688312,358,通化市四川美味村总店,ChIJ-zzC43s-Ml4REKjBjOq9DG0,"光明路, Dongchang Qu, Tonghua Shi",restaurants,restaurant,41.74654,125.974816,218.8536536869488
41.7479988452381,125.9730451688312,358,Heping Commercial City,ChIJVQ4AQnw-Ml4RNNsoU20cY4I,"和平路, He Ping Lu, Dongchang Qu, Tonghua Shi",leisure,shopping_mall,41.7474113,125.978271,438.43451380866986
41.12001611896552,126.18101595862068,359,嘉乐迪KTV,ChIJ954f6S1pLV4R_-FDYVE87uE,"胜利路1150, Jian Shi, Tonghua Shi",restaurants,bar,41.12057,126.182911,170.27030330795174
41.12001611896552,126.18101595862068,359,嘉乐迪KTV,ChIJ954f6S1pLV4R_-FDYVE87uE,"胜利路1150, Jian Shi, Tonghua Shi",leisure,night_club,41.12057,126.182911,170.27030330795174
41.13394015588236,126.19885177352938,360,Usual Place Barbecue Bar,ChIJb9IPcs5oLV4RJI9ygUESNak,"Ya Jiang Lu, Jian Shi, Tonghua Shi",restaurants,restaurant,41.132959,126.203629,414.70034716321294
41.13394015588236,126.19885177352938,360,Huaxia Self-service Shopping Mall,ChIJEbfFZNFoLV4RKWVcXidMCc8,"Ya Jiang Lu, Jian Shi, Tonghua Shi",leisure,shopping_mall,41.130067,126.199054,431.0087934704464
42.18107836578341,127.47602996082948,361,Shunfa Fast Food,ChIJ6XxgF1GBNF4R1SJ1qdUvGTQ,"5FMH+QW8, Fusong County, Baishan",restaurants,restaurant,42.184422,127.479813,485.1744097082206
42.04828926991669,127.77425980232432,362,Q8 Hamburg Coffee,ChIJg5PR8buhNF4RqeS2F3Yt2uY,"Song Tian Xian, Fusong Xian, Baishan Shi",restaurants,restaurant,42.05128200000001,127.777723,438.7598004452034
42.04828926991669,127.77425980232432,362,Changbaishan Volcanic National Geopark,ChIJw8AA8buhNF4RQg03M_I46gs,"Song Tian Xian, Fusong Xian, Baishan Shi",leisure,park,42.051366,127.77784,452.1417159762257
41.99219492156863,128.01949000920513,365,長白山天池西坡登山口,ChIJc-dIamyvNF4RFobjMkK4UUM,"X2R9+WQ5, Fusong County, Baishan",leisure,museum,41.9922619,128.0194981,7.477628259443482
41.99334908982684,128.021784446158,366,長白山天池西坡登山口,ChIJc-dIamyvNF4RFobjMkK4UUM,"X2R9+WQ5, Fusong County, Baishan",leisure,museum,41.9922619,128.0194981,224.31465615094868
41.99673245187516,128.02847929937056,367,長白山天池西坡觀景臺,ChIJjVh0bjivNF4RRQS-uFYgE80,"X2WH+PH9, Fusong County, Baishan",leisure,museum,41.99679099999999,128.0289874,42.49025607707813
42.448627931725305,128.13062817930472,368,Yinxing KTV Square,ChIJbeFjEaDjNF4R7d8VdOxKuzw,"201国道, Antu Xian, Yanbian Chaoxianzuzizhizhou",restaurants,bar,42.4489066,128.1300196,58.76638241946495
42.448627931725305,128.13062817930472,368,Yinxing KTV Square,ChIJbeFjEaDjNF4R7d8VdOxKuzw,"201国道, Antu Xian, Yanbian Chaoxianzuzizhizhou",leisure,night_club,42.4489066,128.1300196,58.76638241946495
40.25831358347332,117.2420311095195,369,Spice Girl Braised Duck Shop,ChIJ6RguXXLj8zUR__YRYtBcEvc,"Diao Wo Nan Lu, Pinggu Qu",restaurants,restaurant,40.25913600000001,117.247742,493.160653523842
39.11879778812928,117.18809423194968,371,85 Du C Coffee Dangao Hongbei Franchise Store,ChIJ0VdTP5397TURDGmP9p--wKQ,"An Shan Dao, Heping Qu",restaurants,cafe,39.11898829999999,117.1863729,150.00168967357115
39.11879778812928,117.18809423194968,371,光大通信鞍山道店,ChIJQW3lPZ397TUR4uwH0hpxLgE,"四平西道11号（与拉萨道交口）, Heping Qu, Tianjin Shi",leisure,shopping_mall,39.11921400000001,117.186711,127.99083544948564
39.11879778812928,117.18809423194968,371,第三游泳池,ChIJkQmsQZz97TURibYylo3vzFU,"45CQ+5RJ, Heping",sport,gym,39.120459,117.189503,221.11324138456467
39.9060089917896,116.4903200808133,372,燕通冷饮店,ChIJLUZUubSt8TUR9Z7cDl2DkJI,"通惠河北路, Chaoyang Qu, Beijing Shi",restaurants,bakery,39.90658,116.485419,422.8424610171418
39.9060089917896,116.4903200808133,372,Furong Commerce And Trade,ChIJLcX_W7St8TURzLG7JNeivVg,"东郊市场十厅对面15-16号, 通惠河北路, Chaoyang Qu",leisure,shopping_mall,39.90459,116.48615,389.1264886036462
39.9060089917896,116.4903200808133,372,Chenghui International Commerce Chamber,ChIJqZFK1jSs8TUREY9-r0QqLqw,"72 建国路, Chaoyang Qu",sport,gym,39.9060695,116.493173,243.4397975046744
31.32094108754105,121.54432576185349,373,Taigeyuan Restaurant,ChIJl1TZfoZ0sjUR10_McXIygrw,"1978 Jun Gong Lu, Yangpu Qu",restaurants,restaurant,31.320299,121.545869,163.05573389621858
31.32094108754105,121.54432576185349,373,Gongqing Forest Park （West Gate 1）,ChIJHe4r1IV0sjURxUDdYizDqZU,"2000 Jun Gong Lu, Yangpu Qu",leisure,park,31.320644,121.545945,157.31996195756568
31.32227701954135,121.54374556081488,374,佳诚冷饮站,ChIJ4Re9noR0sjURTyVloNDjeRw,"开鲁路8-1临, Yangpu Qu, Shanghai Shi",restaurants,bakery,31.324902,121.542986,300.66973670479643
31.32227701954135,121.54374556081488,374,Gongqing Forest Park （West Gate 1）,ChIJHe4r1IV0sjURxUDdYizDqZU,"2000 Jun Gong Lu, Yangpu Qu",leisure,park,31.320644,121.545945,276.8071121302426
31.32227701954135,121.54374556081488,374,Teraw Ellness Club,ChIJT81cr4N0sjUR3uabIBN1u_c,"开鲁路工农四村175号, Kai Lu Lu, Yangpu Qu",sport,gym,31.324219,121.5405231,374.5985466634584
39.64802029214372,118.16302285546315,375,Xiangheshun Casserole Pot Restaurant,ChIJmUuFRFwc8zURZc4s-ZZP5iM,"97 Wei Guo Bei Lu, Lubei Qu, Tangshan Shi",restaurants,restaurant,39.6488637,118.1669546,349.445155658671
39.64802029214372,118.16302285546315,375,Mise Media Siren Chamber,ChIJXWYuvlkc8zURc9ksGF5LmFc,"Xiang Yun Dao, Lubei Qu, Tangshan Shi",leisure,casino,39.644894,118.163458,349.6191202804682
39.64997916662692,118.16115190192346,376,Jiangnan Local Dish,ChIJcYcoT1wc8zURD64uVNCPaSo,"卫国北路, Wei Guo Bei Lu, Lubei Qu, Tangshan Shi",restaurants,restaurant,39.649317,118.166801,489.2247178592626
39.64426722571914,118.16557015971236,377,南国大酒店KTV,ChIJzbsnTVoc8zUR0-wyawkQ4Nk,"J5V8+XQG, Lubei District, Tangshan",restaurants,bar,39.64492800000001,118.166948,138.9831479288304
39.64426722571914,118.16557015971236,377,南国大酒店KTV,ChIJzbsnTVoc8zUR0-wyawkQ4Nk,"J5V8+XQG, Lubei District, Tangshan",leisure,night_club,39.64492800000001,118.166948,138.9831479288304
39.64426722571914,118.16557015971236,377,Yue Fitness Studio,ChIJy7wRblAc8zURX7uCDTrzvZo,"Fu Kang Dao, Lubei Qu, Tangshan Shi",sport,gym,39.641431,118.168897,424.9766911582237
39.50937996623369,118.66477545074471,378,Yon ho,ChIJeTEzwy8r8zURRIPH6tiTkWc,"Wen Ming Jie, Luannan Xian, Tangshan Shi",restaurants,restaurant,39.51023840000001,118.6631654,167.8978808821693
39.50937996623369,118.66477545074471,378,Happy Candy Nightclub,ChIJY-GRVi4r8zURIMzTCGoMRas,"You Yi Lu, Luannan Xian, Tangshan Shi",leisure,casino,39.5081312,118.6649413,139.58372325695152
39.50402722530864,118.6732308595679,380,永和豆浆滦南店,ChIJw95wPdLUjDURjrawwt5SdD4,"GM4H+665, Luannan County, Tangshan",restaurants,restaurant,39.505508,118.678095,448.6270267319353
39.50402722530864,118.6732308595679,380,Yintai Supermarket,ChIJvTS6Nysr8zURMTyZqCN8IBQ,"8 Nan Da Jie, Luannan Xian, Tangshan Shi",leisure,shopping_mall,39.502188,118.672543,212.85773289466195
39.954962739434,116.42281872789036,382,味多美,ChIJifOgGatU8DUR54STwQVBOEs,China,restaurants,bakery,39.95642600000001,116.424855,237.9028750457164
39.954962739434,116.42281872789036,382,Youth Sports Club,ChIJFyVZC6ys8TURVw_S7fVqDgA,"和平里六区9号, He Ping Li Dong Jie, Dongcheng Qu",leisure,stadium,39.95576399999999,116.423881,127.0288546609845
39.954962739434,116.42281872789036,382,世青城健身俱乐部,ChIJZ8vFKKys8TURjwkCyUWGU98,"和平里东街西, Dongcheng Qu, Beijing Shi",sport,gym,39.953891,116.424979,219.33513669635792
39.95771641366949,116.34188687383708,383,贵州茅台,ChIJRRRaYMNT8DURixg9N2zpW1Q,"学院南路乙47号, Haidian Qu, Beijing Shi",restaurants,liquor_store,39.957908,116.338361,301.2748761769928
39.95771641366949,116.34188687383708,383,财经大学图书馆,ChIJsdo2OcJT8DUR-NPefen5Qw8,"财经大学院内, Haidian Qu, Beijing Shi",leisure,museum,39.96029900000001,116.341437,289.71942524280723
39.95771641366949,116.34188687383708,383,Ligui Health Club,ChIJtclQdepT8DURqaX2J95CT0k,"11 Si Dao Kou Lu, Haidian Qu, Beijing Shi",sport,gym,39.96122999999999,116.344336,442.9608810729652
39.95568025390868,116.41888114058268,384,坛根院食坊,ChIJfbIGMq2s8TURjggRfS3wsjE,"地坛东门外甲1号, Dongcheng Qu, Beijing Shi",restaurants,restaurant,39.95405899999999,116.419735,194.4124175297449
39.95568025390868,116.41888114058268,384,天元购物中心,ChIJWeHBQqus8TURkheUCXNQ_eo,"和平里中街17号, Dongcheng Qu, Beijing Shi",leisure,shopping_mall,39.957486,116.419874,217.8949297340324
39.95568025390868,116.41888114058268,384,Jinyu Fitness & Foot Massage,ChIJDcTZZVNT8DURR5_eOS7Hf18,"He Ping Li Zhong Jie, Dongcheng Qu",sport,gym,39.9571645,116.4175186,201.80684329025323
39.966941647378505,116.40968102060208,385,滋味烘焙屋,ChIJIWhWcKhU8DUR-tqKBahNgXQ,"6 An Ding Men Wai Da Jie, Dongcheng Qu, Beijing Shi",restaurants,cafe,39.96701789999999,116.4078354,157.5150275272515
39.966941647378505,116.40968102060208,385,UME Cineplex Anzhen Branch,ChIJQcCkrqlU8DURfQqbPnpUU3w,"36 Bei San Huan Dong Lu, An Ding Men, Dongcheng Qu",leisure,movie_theater,39.96620590000001,116.4108383,128.14115466968585
39.966941647378505,116.40968102060208,385,Beijing Anzhen Plaza Club,ChIJ1budv6hU8DURnlejccnO7-I,"2 An Ding Men Wai Da Jie, An Ding Men, Dongcheng Qu",sport,gym,39.9682576,116.4087606,166.02529007475204
39.95293210046218,116.41916951807823,386,坛根院食坊,ChIJfbIGMq2s8TURjggRfS3wsjE,"地坛东门外甲1号, Dongcheng Qu, Beijing Shi",restaurants,restaurant,39.95405899999999,116.419735,134.25657549575232
39.95293210046218,116.41916951807823,386,地坛公园,ChIJtSM60VJT8DURWuNr0zAte2Q,"An Ding Men Wai Da Jie, Dongcheng Qu",leisure,park,39.952842,116.4161,261.8347636994281
39.95293210046218,116.41916951807823,386,蝉舟瑜伽馆,ChIJU8_l0bKs8TURMeuxnh2z4c4,"安定门东滨河路3号雍和家园6号楼101室, Dongcheng Qu, Beijing Shi",sport,gym,39.950325,116.420323,306.11706395646047
39.95908011764632,116.4189250716822,387,Qing-Feng Steamed Stuffed Bun Shop,ChIJq8R46lRT8DURflSIS6GR8tY,"和平里, He Ping Li Xi Jie, Dongcheng Qu",restaurants,restaurant,39.95897100000001,116.41795,83.98783764924728
39.95908011764632,116.4189250716822,387,缘梦园歌厅,ChIJTUm6v1RT8DUR_rW9Gjnno30,"地坛北里1号楼, Dongcheng Qu, Beijing Shi",leisure,night_club,39.958575,116.418036,94.32314891943273
39.95908011764632,116.4189250716822,387,煤矿文工团安源演播厅,ChIJRw1sg6pU8DUR17JGX4GgCzc,"An Yuan Da Sha, Qing Nian Gou Lu, An Ding Men, Chaoyang Qu",sport,gym,39.9624009,116.4170908,400.9853533085472
39.9735033176596,116.39944483896386,388,金凤成祥,ChIJw5Txf6NU8DURqzg-Vpc_zJw,安贞西里一区16号楼,restaurants,bakery,39.973494,116.401619,185.2706087344108
39.9735033176596,116.39944483896386,388,Anzhen Community Park （South Gate）,ChIJt0DH1KNU8DURL4TYg5deiaM,"X9CX+QGV, Chaoyang",leisure,park,39.971982,116.398808,177.65453291058523
39.9735033176596,116.39944483896386,388,Jincheng Fitness Club,ChIJo0K2i6NU8DURNMGIiKFc0IQ,"安贞西里5区1号阳光乐佰时尚广场, An Zhen Lu, Chaoyang Qu",sport,gym,39.9722697,116.4016359,231.6822212116623
39.96791490820957,116.3487590585505,389,翠果酒吧,ChIJadoGZZJT8DURoQTWKA9J7xU,"学院路蓟门桥西北角蓟门里小区内, Haidian Qu, Beijing Shi",restaurants,bar,39.968063,116.352091,284.4261225605134
39.96791490820957,116.3487590585505,389,Beijing University Students' Gymnasium,ChIJEQyVtpJT8DUROv5kFkwuo90,"11 Bei San Huan Xi Lu, Haidian Qu",leisure,stadium,39.968689,116.348981,88.12873108905931
39.96791490820957,116.3487590585505,389,健身气功俱乐部,ChIJEQyVtpJT8DURIO2fQIVq9kw,"11 Bei San Huan Xi Lu, Bei Xia Guan, Haidian Qu",sport,gym,39.9683429,116.3490168,52.41482768195964
40.16729438546943,116.1282370577319,390,阳坊胜利涮羊肉防化学院店,ChIJd0ylMRn08DUREU1mjhbjk_o,"温南路, Changping Qu, Beijing Shi",restaurants,restaurant,40.16943300000001,116.129532,262.02544990180047
39.857620621743024,116.39239995015085,391,Golden Phoenix,ChIJkX864h5N8DURSD5asLkOwZs,"南三环中路, 西罗园南里8号楼, Fengtai Qu",restaurants,bakery,39.8567212,116.3927544,104.48748430239668
39.857620621743024,116.39239995015085,391,Chaoshifa,ChIJ8xJQNhlN8DUR26G2v95Kav8,"Nan San Huan Zhong Lu Fu Lu, Fengtai Qu",leisure,shopping_mall,39.858976,116.391498,169.2365937165676
39.857620621743024,116.39239995015085,391,Ouyi Fitness Club,ChIJ2-inMyBN8DUR5F53Issh9-4,"木樨园珠江骏景北区1号楼, Mu Xi Yuan Qiao, Fengtai Qu",sport,gym,39.85488369999999,116.3967298,478.7666203616605
39.95022256807111,116.41925635713464,392,Cashbox Cantonese Teahouse,ChIJz97PPbOs8TUR7jD6_bpveX0,"安定门外大街28号, An Ding Men Dong Da Jie, Dongcheng Qu",restaurants,cafe,39.9489927,116.4207054,184.2809258060639
39.95022256807111,116.41925635713464,392,Beijingtai Beida Future Gallery Yonghe Art Unit,ChIJHRUNJ01T8DURLBQDQUT0Az8,"3 An Ding Men Dong Bin He Lu, Dongcheng Qu",leisure,museum,39.95036500000001,116.418429,72.28230525446826
39.95022256807111,116.41925635713464,392,蝉舟瑜伽馆,ChIJU8_l0bKs8TURMeuxnh2z4c4,"安定门东滨河路3号雍和家园6号楼101室, Dongcheng Qu, Beijing Shi",sport,gym,39.950325,116.420323,91.63380194200244
39.96115125669206,116.42237965681224,393,悠悠小憩啤酒屋,ChIJK6uy_6ms8TURf-nLp6GB2PI,"和平里东街东, Chaoyang Qu, Beijing Shi",restaurants,bar,39.960337,116.425475,278.9185707675535
39.96115125669206,116.42237965681224,393,乾芳园歌厅,ChIJkzAa66qs8TURlijn_ceki1g,"XC6C+3CW, Dongcheng",leisure,night_club,39.960229,116.421086,150.57663123145875
39.96115125669206,116.42237965681224,393,皮尔瑜伽,ChIJiyp7oqpU8DURq4HCv2ieAkM,"和平里西街21号-5天丰利市场3F, Chaoyang Qu, Beijing Shi",sport,gym,39.962708,116.417959,414.6260771719032
39.95546221407627,116.42606299848032,394,味多美,ChIJifOgGatU8DUR54STwQVBOEs,China,restaurants,bakery,39.95642600000001,116.424855,148.6157664480764
39.95546221407627,116.42606299848032,394,D5 Club,ChIJDVFdmq6s8TUR3mkYu0Nkbps,"22 He Ping Li Dong Jie, Dongcheng Qu",leisure,night_club,39.9539234,116.4258252,172.30490330473032
39.95546221407627,116.42606299848032,394,轩隆台球俱乐部,ChIJNY6Eaams8TURN9p5ySapVkc,"XC4G+PG5, Dongcheng",sport,gym,39.95676999999999,116.42636,147.60636378429527
39.96097133798237,116.41156991593591,395,Zhen'ai,ChIJSwmnOlRT8DURBSYla4nX9Ow,"Xing Hua Lu, An Ding Men, Dongcheng Qu",restaurants,cafe,39.960188,116.414284,247.1760210312464
39.96097133798237,116.41156991593591,395,Jinfu Mister Club,ChIJkSiTJVRT8DURy3Yf9oacMus,"和平里, Xing Hua Lu, Dongcheng Qu",leisure,night_club,39.9602257,116.4138411,210.58100732655285
39.96097133798237,116.41156991593591,395,煤矿文工团安源演播厅,ChIJRw1sg6pU8DUR17JGX4GgCzc,"An Yuan Da Sha, Qing Nian Gou Lu, An Ding Men, Chaoyang Qu",sport,gym,39.9624009,116.4170908,496.66016167549657
39.955893920868135,116.41579947166667,396,方泽亭歌厅,ChIJTQ5zx6hU8DURBoPG_VXVPHQ,"安外大街2号地坛公园内, Dongcheng Qu, Beijing Shi",restaurants,bar,39.95689600000001,116.415473,114.84834004408916
39.955893920868135,116.41579947166667,396,Children's Paradise,ChIJ572XpFNT8DURPMvHSk-T1Z0,"He Ping Li Zhong Jie, An Ding Men, Dongcheng Qu",leisure,amusement_park,39.95649,116.4158,66.2810842720402
39.955893920868135,116.41579947166667,396,Jinyu Fitness & Foot Massage,ChIJDcTZZVNT8DURR5_eOS7Hf18,"He Ping Li Zhong Jie, Dongcheng Qu",sport,gym,39.9571645,116.4175186,203.5471634875455
38.90432741426407,121.55788502854205,397,东都亭韩国料理,ChIJrwlrYx5hjzURl-ykF56duKg,"35 Nan Sha Jie, Shahekou Qu, Dalian Shi",restaurants,restaurant,38.90123,121.55975,380.3518148516114
38.90432741426407,121.55788502854205,397,Sanshan Puminjian Tradition Martial Art Assembly Hall,ChIJTRYuWOBgjzURYPTPdAmdpMY,"He Qing Jie, Shahekou Qu, Dalian Shi",leisure,stadium,38.907214,121.561934,475.1569747657728
38.87789903465949,121.58942324013044,398,Xinghai Yipin,ChIJ5djPqqNhjzUROZTtsu8QEoE,"Xing Hai Guang Chang, Shahekou Qu, Dalian Shi",restaurants,restaurant,38.8797,121.591055,245.0609514267794
38.87789903465949,121.58942324013044,398,Xinghai Square Recreation Ground,ChIJiXJA1phhjzURyCUL1uX896Q,China,leisure,amusement_park,38.876203,121.588889,194.1782310335636
39.959586887195485,116.4160372049233,399,Zhen'ai,ChIJSwmnOlRT8DURBSYla4nX9Ow,"Xing Hua Lu, An Ding Men, Dongcheng Qu",restaurants,cafe,39.960188,116.414284,163.694606516616
39.959586887195485,116.4160372049233,399,Coal Industry Exhibition Center,ChIJEdByCFVT8DURo4LAUIcpVm8,"兴化东里9, Qing Nian Gou Lu, Dongcheng Qu",leisure,museum,39.960908,116.416581,154.03921337595264
39.959586887195485,116.4160372049233,399,煤矿文工团安源演播厅,ChIJRw1sg6pU8DUR17JGX4GgCzc,"An Yuan Da Sha, Qing Nian Gou Lu, An Ding Men, Chaoyang Qu",sport,gym,39.9624009,116.4170908,325.5343836099021
